AAXX 31211 51526 31/57 92903 11203 21250 40440 57004 705// 333 05153
AAXX 31211 50548 32/71 93601 11187 21279 40329 57024
AAXX 31181 50548 32/80 92903 11161 21284 40348 57020 333 11106
AAXX 31181 56342 42/79 90401 11128 21186 36396 54000 333 05203 10032
AAXX 31211 56342 42/80 90701 11150 21191 36395 57001 333 05102
AAXX 31001 53543 32960 72002 11117 21241 38607 40391 52003 87/// 333 05305
AAXX 31181 58464 31/77 93203 10035 20006 40384 54000 76050 333 10043
AAXX 31061 54192 32/80 92902 11090 21241 40368 57020 333 21254
AAXX 31211 50548 32/71 93601 11187 21279 40329 57024
AAXX 31181 50548 32/80 92903 11161 21284 40348 57020 333 11106
AAXX 31181 58500 32/62 92501 11004 21023 40403 57007 333 10006
AAXX 31061 54192 32/80 92902 11090 21241 40368 57020 333 21254
AAXX 31001 59017 32/63 91101 10053 20036 39987 40334 52010 333 05100 10074 20049 70005
AAXX 31151 56342 42/77 90401 11080 21189 36396 52013
AAXX 31061 58464 12679 83405 10042 20011 40371 57020 69921 88/// 333 21003
AAXX 31121 59981 11464 80405 10243 20202 30188 40195 52015 69911 70080 88///
AAXX 31151 50548 32/74 93602 11196 21283 40376 57011
AAXX 31211 58500 32/59 90000 11006 21020 40398 57005 333 79999
AAXX 31151 58500 32/66 92501 11002 21032 40411 52007
AAXX 31181 55248 32/80 91102 11190 21326 35949 52005 333 00156 11029
AAXX 31121 56247 32862 50901 10028 21148 37444 52011 85/// 333 05451
AAXX 31181 55248 32/80 91102 11190 21326 35949 52005 333 00156 11029
AAXX 31211 55279 32/80 90901 11163 21265 35722 52001 333 00201
AAXX 01001 52856 31/56 90000 11153 21183 37249 52008 710// 333 00201
AAXX 01001 56889 11/42 90902 10028 20028 38568 52013 69931 721// 333 00001 10086 20020 30045 70032
AAXX 01001 56869 11/56 92502 10073 20072 40254 52008 60021 760// 333 05100 10122 20073 70034
AAXX 01001 56996 32/61 93601 10065 20062 40295 52012 333 00001 10101 20050 70001
AAXX 01001 56885 12/68 90202 10078 20064 40253 52010 69941 333 05104 10164 20034 70020
AAXX 01001 54505 32/62 92904 11105 21196 40418 52007 333 05300 11033 21109
AAXX 01001 54410 12/74 93204 11161 21203 40445 52015 69912 333 05101 11108 21171 70004
AAXX 01001 54419 32/59 93201 11130 21175 40419 52011 333 05301 11032 21142
AAXX 01001 54433 32/60 93201 11060 21157 40415 52009 333 05304 11032 21103
AAXX 01001 54513 32/63 90201 11104 21186 40417 52009 333 05301 11030 21118
AAXX 01001 54398 32/58 93602 11099 21166 40417 52011 333 05302 11033 21115
AAXX 01001 54499 32/68 92906 11056 21183 40421 52012 333 05307 11039 21122
AAXX 01001 54406 31930 00000 11141 21171 40445 52018 705// 333 05104
AAXX 01001 54594 32/59 92901 11123 21191 40415 52010 333 05351 11028 21134
AAXX 01001 54421 32/64 90401 11148 21225 40426 52012 333 05302 11038 21172
AAXX 01001 54514 32/72 92701 11110 21183 40417 52009 333 05353 11023 21115
AAXX 01001 54416 32958 00000 11158 21200 40422 52012 333 05351
AAXX 01001 54412 32/63 90701 11188 21231 40443 52017 333 05304 11060 21228
AAXX 01001 54501 32/60 93201 11173 21228 40447 52014 333 05101 11052 21186
AAXX 01001 58131 31/31 92701 11055 21058 40415 52015 710// 333 05151 10018 21061 31044
AAXX 01001 58148 32/58 93601 11037 21065 40411 52016 333 05151 10041 21042 31020
AAXX 01001 56880 31/56 91804 10087 20078 38421 52012 710// 333 05104 10163 20048
AAXX 01001 58345 32957 80000 10018 21023 40407 52020 88/// 333 05103 30024
AAXX 01001 57377 32/// 90205 11018 21077 40407 52005 333 00002 10033 21033 31031
AAXX 01001 56946 32556 60000 10099 20093 40225 52012 86/// 333 00003
AAXX 01001 57388 31/36 90201 11038 21058 40413 52005 710// 333 00101 10032 21047
AAXX 01001 57544 32/71 90000 11003 21035 40408 52013 333 00001 10008 21016 30005
AAXX 01001 57779 11644 83602 11004 21004 40388 52005 69902 710// 88/// 333 05101 30015
AAXX 01001 57649 32/58 91601 11007 21026 40405 52011 333 05104 31001
AAXX 01001 57745 11439 80703 11012 21016 30055 40405 52013 60011 760// 88/// 333 00002 30002 70012 92505 93428
AAXX 01001 57687 32/58 93603 11016 21029 30241 40397 52007 333 05101 30003
AAXX 01001 51572 31/26 92201 11134 21207 40420 57007 705// 333 05300 11067 21144
AAXX 01001 51573 31955 70202 11118 21213 30365 40420 57008 705// 87/// 333 05300
AAXX 01001 51636 31/39 90701 11171 21199 40408 57007 710// 333 05354 11037 21171 92501
AAXX 01001 51145 11/18 93401 11094 21113 40369 57006 69941 710// 333 05251 11058 21115 31018 70026 92525
AAXX 01001 51329 31/26 91401 11035 21050 40358 57003 710// 333 05151 10026 21035 31017 70003 92514
AAXX 01001 58509 32/58 93404 10006 21021 40398 52008 333 05102 10011 21014 30011
AAXX 01001 58693 32/63 90201 10010 21024 40392 52008 333 05102 10014 21012 30015 70008
AAXX 01001 58635 11945 92901 10018 20018 40387 52015 69911 710// 333 00002 10018 21003 30011 70001
AAXX 01001 58507 12664 80203 10001 21023 40402 52008 69902 88/// 333 05102 30001 70001
AAXX 01001 59102 32680 80403 10023 21008 40357 52015 88/// 333 00100 30035
AAXX 01001 58514 32/59 90204 10015 21023 40396 52007 333 05102 10015 21008 30002 79999
AAXX 01001 58505 41/55 90201 11001 21009 40403 52008 710// 333 00002 10003 21019 31001
AAXX 01001 58615 11/25 93601 10012 20011 40388 52012 69921 710// 333 05101 10013 20001 30019 70004
AAXX 01001 58503 32/58 93202 11002 21021 40403 52009 333 05101 10008 21016 30000 79999 92504
AAXX 01001 58618 31/13 92903 10002 21001 40387 52012 710// 333 00002 10002 21013 31002
AAXX 01001 58517 31/55 90205 10002 21014 40389 52006 710// 333 05102 10006 21017 30002
AAXX 01001 58714 11/21 90402 10002 21005 40386 52006 69941 760// 333 05101 10002 21012 30007 70008
AAXX 01001 57794 31/31 90402 10003 21006 40385 52004 710// 333 05101 10005 21004 30005
AAXX 01001 58629 11/35 90901 10020 20019 40384 52014 69951 760// 333 00002 10020 20001 30017 70005
AAXX 01001 58600 31/55 92001 10004 21014 40392 52011 710// 333 05103 31001
AAXX 01001 57698 11/19 92501 10006 20006 40385 52005 69911 710// 333 05102 10016 21012 30010 70002
AAXX 01001 59092 12680 83404 10011 21008 40364 52013 69922 88/// 333 00101 30011 70002
AAXX 01001 58614 11/38 93403 10001 21005 40391 52009 69902 710// 333 05102 10001 21017 30004 79999 92500
AAXX 01001 58508 31/44 90000 10000 21017 40400 52008 710// 333 05102 10015 21017 30006
AAXX 01001 58616 11/33 93202 10010 20004 40392 52011 69911 710// 333 05101 10010 21003 30017 70001
AAXX 01001 57789 32663 82901 10010 21005 40386 52011 88/// 333 00001 30012
AAXX 01001 58719 11/42 92701 10008 20004 40387 52014 69951 710// 333 00001 10008 21003 30017 70039
AAXX 01001 57055 31946 90000 11102 21121 40427 52001 710// 333 00255 10009 21103
AAXX 01001 57046 32/80 91402 11094 21231 38004 52002 333 00301 70001
AAXX 01001 57049 31/29 92901 11108 21113 40420 52005 710// 333 00256
AAXX 01001 57993 32760 83402 10013 20000 30204 40381 52013 88/// 333 00001 30021
AAXX 01001 58804 12/65 93601 10011 21010 40382 52013 69912 333 00001 10017 21001 30015 70003
AAXX 01001 58712 11/15 90403 10003 20002 40390 52013 69961 710// 333 00001 10003 21008 30011 70016
AAXX 01001 58624 11/24 90201 10020 20020 40391 52012 69921 710// 333 05102 10020 20002 30032 70002
AAXX 01001 58606 32759 80202 10007 21020 30331 40393 52008 88/// 333 05102 30003 92502
AAXX 01001 58710 11/26 90401 10003 20002 40385 52005 69921 710// 333 05101 10003 21011 30013 70005
AAXX 01001 57030 31/37 90201 11094 21124 40424 52004 710// 333 00252
AAXX 01001 57343 32655 80202 11044 21062 40407 52011 88/// 333 00300 31015
AAXX 01001 57131 31935 10202 11073 21117 40422 52005 710// 81/// 333 00254
AAXX 01001 53735 32977 31801 11135 21219 40446 54000 83/// 333 00352
AAXX 01001 53949 32/57 90000 11092 21133 40426 52001 333 00354 11008 21104
AAXX 01001 57035 31/43 93401 11117 21130 40431 52006 710// 333 00156 11009 21119
AAXX 01001 53941 32/60 93401 11088 21140 40433 52004 333 00253 11014 21105
AAXX 01001 53725 32965 73601 11165 21221 40431 57002 87/// 333 00255
AAXX 01001 57129 42/57 90401 11004 21043 40400 52007 333 00200 10013 21007 31001 79999
AAXX 01001 53567 31/55 91801 11158 21186 40465 52014 705// 333 00552 11037 21159
AAXX 01001 53854 31944 21402 11153 21181 40465 52008 710// 82/// 333 00354
AAXX 01001 57039 31/45 91101 11106 21122 40408 52003 710// 333 00253 11008 21106 92501
AAXX 01001 53929 31926 70000 11117 21141 40424 57002 710// 87/// 333 00154 79999
AAXX 01001 53754 32959 20000 11160 21197 40465 52008 82/// 333 00454
AAXX 01001 53931 31/50 90201 11151 21171 40448 57001 710// 333 00355 11005 21155 79999
AAXX 01001 57042 31942 90201 11096 21130 40425 52004 710// 333 00256 10003 21101
AAXX 01001 57213 31/49 93601 11004 21029 40397 52004 710// 333 00201 10002 21014 31004 79999
AAXX 01001 57123 31/28 90000 11100 21117 40406 52006 710// 333 00155 11005 21100
AAXX 01001 53948 32957 70902 11082 21125 40425 52003 87/// 333 00255
AAXX 01001 53740 32961 62001 11186 21237 40477 52005 86/// 333 00554
AAXX 01001 53945 31/56 90901 11097 21143 40418 57002 710// 333 00251 11026 21100 79999
AAXX 01001 53658 32/60 92901 11166 21206 40471 52012 333 00552 11013 21166
AAXX 01001 53750 31/56 90202 11175 21212 40490 52009 710// 333 00555 11008 21175
AAXX 01001 53748 31/46 92902 11149 21206 40463 52006 705// 333 00400 11002 21153
AAXX 01001 53955 31955 71601 11095 21134 40427 52001 710// 87/// 333 00255
AAXX 01001 56272 11/15 90000 10016 20016 40368 52004 69911 710// 333 00200 10043 20015 30020 70002
AAXX 01001 56279 31/15 90000 10009 20008 40369 52003 710// 333 00200 10031 20008 30019
AAXX 01001 57503 31925 80901 10031 20030 40367 52006 710// 88/// 333 00200 30025
AAXX 01001 56278 31/20 90701 10006 20003 40370 52002 710// 333 00200 10025 20006 30012 70005
AAXX 01001 54927 32/58 90701 11080 21107 40417 52016 333 00051 10020 21088
AAXX 01001 54805 31/18 92001 11101 21144 40412 52013 710// 333 05252 10017 21117
AAXX 01001 54871 31/56 92702 11044 21075 40387 52009 710// 333 05300 11001 21050
AAXX 01001 54861 32/56 92901 11068 21094 40395 52009 333 05302 11010 21086 79999
AAXX 01001 54816 32/68 92003 11086 21146 40416 52012 333 05151 10015 21088
AAXX 01001 54904 31/32 90201 11088 21115 40417 52012 710// 333 05153 10025 21094
AAXX 01001 54511 31956 60401 11119 21168 30371 40414 52010 705// 86/// 333 05351
AAXX 01001 56867 11/56 91801 10126 20124 40225 52008 60031 760// 333 05103 10170 20095 70046
AAXX 01001 56944 31956 00000 10105 20099 40224 52012 710// 333 00003 10191 20073
AAXX 01001 58255 32667 33403 10005 21043 40399 52013 83/// 333 05100 31004
AAXX 01001 58132 31/56 92901 11043 21077 40413 52015 705// 333 05101 10029 21056 31038
AAXX 01001 58158 32958 23203 11013 21048 40402 52013 82/// 333 05152 31004
AAXX 01001 58353 32/65 93201 10020 21054 40402 52018 333 00002 10050 21002 30012
AAXX 01001 58044 31/55 92902 11041 21080 40412 52017 705// 333 05100 10021 21045
AAXX 01001 58344 31/57 93201 10008 21031 40409 52018 705// 333 05103 10050 21021 30007
AAXX 01001 58259 32566 73203 10014 21045 40398 52013 87/// 333 05103 30008
AAXX 01001 58264 32/64 92904 10007 21038 40394 52012 333 05102 10057 21008 31002 70001
AAXX 01001 58354 32959 80000 10021 21051 40401 52017 88/// 333 05102 30014
AAXX 01001 58377 32/64 93402 10024 21037 40399 52017 333 00003 10049 21008 30017
AAXX 01001 58135 31942 02501 11052 21069 40414 52014 710// 333 05101
AAXX 01001 58026 31921 20000 11079 21097 40417 52017 710// 82/// 333 05100
AAXX 01001 58047 31955 02901 11054 21083 40411 52016 705// 333 05152 31028
AAXX 01001 58251 31955 03202 11011 21025 30397 40403 52014 710// 333 05151 31013
AAXX 01001 58036 31/46 90000 11068 21090 40414 52016 710// 333 05101 10019 21084
AAXX 01001 58045 31956 03203 11030 21070 40409 52016 705// 333 05101 10034 21038 31022
AAXX 01001 58038 31941 02901 11055 21069 40413 52015 710// 333 05151 31033
AAXX 01001 58041 31/56 92703 11016 21058 40409 52015 705// 333 05100 10012 21017
AAXX 01001 58268 32/68 93403 10016 21047 40396 52013 333 05103 10061 21012 30010
AAXX 01001 58346 32/59 90000 10018 21020 40406 52020 333 00003 10025 21009 30015
AAXX 01001 58146 31956 93201 11029 21064 40409 52016 710// 333 05151 10047 21033 31013
AAXX 01001 58140 32/59 93402 11024 21081 40410 52016 333 05102 10037 21041 31024
AAXX 01001 58130 32/// 9//// 333 31033
AAXX 01001 58040 31933 02701 11071 21086 30402 40411 52013 710// 333 05200
AAXX 01001 58048 31/30 92901 11045 21077 40410 52016 705// 333 05100 10041 21051
AAXX 01001 58013 31/21 90000 11081 21097 40418 52015 710// 333 05153 10023 21086
AAXX 01001 58154 32/58 92902 11020 21057 40405 52014 333 05100 10053 21024 31024
AAXX 01001 58351 32/68 93401 10020 21054 40404 52018 333 00002 10057 21001 30015
AAXX 01001 58265 32567 73204 10023 21024 30385 40391 52011 87/// 333 05104 30014 70004
AAXX 01001 58404 32/57 91801 11004 21028 40400 52007 333 00003 10013 21033 30013 92502
AAXX 01001 57492 32/60 90201 11007 21023 40409 52007 333 00004 10008 21046 30002 92501
AAXX 01001 57279 31942 00701 11040 21045 40422 52010 710// 333 00101 31034
AAXX 01001 57359 32948 73201 11012 21036 40400 52013 87/// 333 00152 31022
AAXX 01001 57495 31/56 93402 11003 21024 40408 52007 710// 333 00005 10011 21056 31006
AAXX 01001 54399 32/71 90000 11125 21170 40416 52010 333 05352 11028 21127
AAXX 01001 54424 32/60 90000 11154 21196 40414 52009 333 05300 11028 21159
AAXX 01001 57696 31643 82001 10007 20000 40396 52011 710// 88/// 333 00001 30009 70013
AAXX 01001 58607 32/68 91101 10007 21020 40394 52009 333 05102 10012 21013 30000 70004 92501
AAXX 01001 57891 31/45 90402 10007 21003 40388 52007 710// 333 05101 10026 20002 30010
AAXX 01001 57899 31/56 90203 10010 21002 40385 52006 710// 333 05101 10011 21004 30009 70021
AAXX 01001 58612 31/44 93602 10010 21003 40393 52011 710// 333 05102 10011 21007 30015
AAXX 01001 58905 32/80 93601 10019 21007 40378 52011 333 00001 10026 20010 30031
AAXX 01001 58510 11/56 93403 10003 20000 40398 52008 69902 710// 333 05101 10007 21011 31001 79999 92505
AAXX 01001 58704 31/24 92903 10003 20002 40394 52009 710// 333 00001 10003 21010 30018
AAXX 01001 58806 32580 83602 10010 21011 40382 52012 88/// 333 00101 30016 70002
AAXX 01001 57995 32/62 93604 10010 20003 40372 52014 333 00001 10021 20003 30016 70001
AAXX 01001 58903 11/49 92902 10014 20001 40372 52014 69931 721// 333 00100 10025 20009 30023 70003
AAXX 01001 58623 31/23 90000 10021 20020 40388 52016 710// 333 00002 10021 20000 30035
AAXX 01001 57799 32762 80201 10011 20007 30294 40387 52004 88/// 333 05102 30020
AAXX 01001 58519 31938 83401 10010 21009 40393 52012 710// 88/// 333 05102 30000 92503
AAXX 01001 58608 31/33 90701 10003 21001 40391 52007 710// 333 00002 30000
AAXX 01001 57992 12/57 93404 10015 21001 40379 52013 69902 333 00001 10029 20007 30017 79999
AAXX 01001 57895 11/55 90202 10009 20008 40384 52004 69911 710// 333 00001 10012 21002 30009 70003
AAXX 01001 57699 31931 00000 10004 20003 40394 52009 710// 333 05102 10010 21018 30004
AAXX 01001 58705 11629 83601 10008 20004 40384 52007 69931 710// 88/// 333 00001 30012 70005
AAXX 01001 58602 32/59 90701 10007 21014 40394 52011 333 05103 10013 21020 31002
AAXX 01001 58620 31928 92001 10014 20007 40390 52014 710// 333 00002 10018 21002 30016 70017
AAXX 01001 58622 31656 82701 10023 20011 40401 52015 710// 88/// 333 00002 30029 70006
AAXX 01001 58609 11/38 90402 10009 21006 40390 52007 69912 710// 333 05102 10013 21009 30000 70003
AAXX 01001 58706 11/36 93401 11001 21008 40385 52004 69902 710// 333 00001 11001 21015 30003 79999
AAXX 01001 58907 12/66 93403 10015 21001 40367 52013 69931 333 00101 10027 20009 30025 70004
AAXX 01001 57894 32772 80000 11023 21023 40390 52007 88/// 333 00002 30001
AAXX 01001 58634 31656 81101 10024 20005 40388 52014 710// 88/// 333 00002 30020
AAXX 01001 59093 32/68 93202 10015 21006 40358 52014 333 00100 10020 20009 30026 70003
AAXX 01001 57994 12/79 90402 10015 21007 40370 52011 69901 333 00001 10042 20009 30016 79999
AAXX 01001 58502 11/55 92701 11006 21007 40403 52008 69902 710// 333 05102 10002 21021 30000 79999
AAXX 01001 58921 11457 83601 10064 20052 30097 40355 52020 69941 760// 88/// 333 00101 70004
AAXX 31181 53543 32/58 93601 11151 21176 38647 40444 57001 333 11084
AAXX 01001 54406 11930 00000 11141 21171 40445 52018 69902 705// 333 05104 79999
AAXX 01001 58240 32/60 92901 11018 21038 40407 52013 333 05100 10037 21021 31009
AAXX 31151 53543 32/60 92901 11139 21172 40453 52005
AAXX 01001 57718 11524 83602 11032 21039 40387 52008 69902 710// 88/// 333 00101 31001 79999 92502 93427
AAXX 01001 57741 11739 80000 11007 21024 40402 52013 69911 760// 88/// 333 00002 30001 70001 93427
AAXX 01001 57735 11/24 90000 11013 21019 40402 52011 69962 768// 333 00002 10001 21030 30001 70006 92501 93427
AAXX 01001 57835 41/56 93201 11016 21029 40397 52011 710// 333 00001 11003 21029 30000 92501 93427
AAXX 01001 57910 12559 80402 11009 21033 40356 52008 69902 88/// 333 00151 31002 79999
AAXX 01001 57742 11/11 90000 11045 21045 40415 52011 60022 710// 333 00002 11045 21065 31002 70020 92509 93435
AAXX 01001 57728 32/57 90203 11041 21045 40395 52011 333 00002 11026 21062 30000 92500
AAXX 31181 57816 32/58 90702 11040 21051 38909 40382 52002 333 00151 11008
AAXX 01001 59027 12560 82501 10039 20032 40348 52012 69921 88/// 333 00000 10085 20037 30041 70005
AAXX 01001 57043 31950 90000 11092 21123 40426 52004 710// 333 00356 10008 21098
AAXX 01001 57540 11/55 93601 11023 21040 40403 52012 69902 710// 333 00101 11006 21034 31011 79999 92501
AAXX 01001 56106 32/// 9//// 333
AAXX 01001 57749 11456 80401 11013 21024 30073 40405 52013 60021 760// 88/// 333 00002 30002 70017 92509 93430
AAXX 01001 57745 11439 80703 11012 21016 30055 40405 52013 60011 760// 88/// 333 00002 30002 70012 92505 93428
AAXX 01001 57972 11407 83201 11023 21024 39916 40388 52007 69902 720// 88/// 333 00001 31002 70002 92500 93430
AAXX 01001 57960 11/55 90205 11005 21021 30133 40385 52007 69901 770// 333 05100 10018 21009 31006 79999
AAXX 01001 57573 31930 00202 11029 21043 30372 40408 52007 710// 333 00003 30000 92500
AAXX 01001 53756 31/28 90201 11136 21160 39504 40463 52011 710// 333 00453 11009 21136
AAXX 31151 57816 31/55 90702 11040 21050 40387 52016 710//
AAXX 01001 57835 11/56 93201 11016 21029 39732 40397 52011 69922 710// 333 00001 11003 21029 30000 70002 92501 93427
AAXX 01001 58749 11/63 90203 10044 20024 40355 52016 69902 760// 333 00003 10046 20018 30035 70002
AAXX 31061 53433 11/56 93403 11087 21141 40411 57007 69921 72270 333 21133 92500
AAXX 01001 57541 12/62 91101 11003 21020 40359 52013 69902 333 00101 10012 21015 30000 79999
AAXX 01001 54604 31/23 93601 11136 21171 40416 52009 710// 333 05252 11006 21140
AAXX 01001 54608 32/24 9//// 333 10006 21088
AAXX 01001 56891 11/08 91403 10017 20014 40326 52016 60021 760// 333 00101 10044 20010 30050 70031
AAXX 01001 51232 11956 71603 11150 21170 39917 40415 57003 69902 710// 87/// 333 05303 79999 92510
AAXX 01001 52713 32/80 93602 11148 21210 36944 54000 333 00103
AAXX 01001 56669 32963 93402 10031 20027 38459 52010 333 05102 10168 20014 30022
AAXX 01001 56782 32/58 92002 10066 20051 37993 52012 333 00004 10142 20023 30045
AAXX 01001 56582 11/59 93601 11002 21013 38959 40363 52009 69902 710// 333 00200 10032 21002 30001 70001
AAXX 01001 56649 32/80 91101 10007 20000 37998 52011 333 05104 10165 21038 31019
AAXX 01001 56985 12577 82002 10082 20074 38762 40257 52011 60022 88/// 333 05203 70019
AAXX 01001 56774 31/57 91601 10072 20060 38255 52010 710// 333 05102 10154 20053 30043
AAXX 01001 56497 11/55 90000 10037 20025 39807 40365 52009 60011 760// 333 00200 10057 20037 30049 70012
AAXX 01001 56881 11/31 92202 10080 20079 38362 52009 69911 710// 333 05104 10150 20041 70007
AAXX 01001 56836 31/56 93601 10087 20075 39264 40221 52009 710// 333 00002 10224 20069
AAXX 01001 56995 12/69 90000 10061 20061 38762 40295 52013 69921 333 00001 10083 20047 70012
AAXX 01001 56982 12/80 92501 10096 20084 38976 40258 52013 69902 333 05203 10129 20068 79999
AAXX 01001 56673 32/58 92501 10078 20019 39222 40267 52018 333 05151 10161 20076 30039
AAXX 01001 56862 11/05 90202 10060 20057 38081 52006 69921 745// 333 05102 10097 20044 70002
AAXX 01001 56664 32963 03601 10035 20017 38835 40247 52018 333 05100 30006
AAXX 01001 56757 32/62 92901 10032 20029 38322 52010 333 05104 10171 21005 30036
AAXX 01001 56949 11/61 93401 10138 20136 38990 40209 52012 60101 728// 333 00102 10178 20121 70228
AAXX 01001 56880 31/56 91804 10087 20078 38421 52012 710// 333 05104 10163 20048
AAXX 01001 56739 32561 60000 10049 20043 38355 52007 86/// 333 00002 30020
AAXX 01001 56876 11/71 91801 10090 20087 38325 52006 69931 760// 333 05103 10150 20060 70020
AAXX 01001 56883 11/19 90402 10012 20008 38168 52011 60021 710// 333 00000 10137 20011 30023 70027
AAXX 01001 56586 31459 80201 11035 21039 38122 52010 710// 88/// 333 00153 31004
AAXX 01001 56869 11/56 92502 10073 20072 38566 40254 52008 60021 760// 333 05100 10122 20073 70034
AAXX 01001 56755 32/57 92502 10055 20055 38292 52012 333 05105 10167 20009 30026
AAXX 01001 56767 32/76 90000 10072 20055 38152 52008 333 05102 10157 20053
AAXX 01001 56843 32/59 91601 10050 20038 38403 52011 333 00003 10173 20017 30048
AAXX 01001 56886 11555 81801 10032 20032 38368 52013 60031 710// 88/// 333 00051 70040
AAXX 01001 56856 32669 80000 10130 20114 38909 40218 52010 88/// 333 05103
AAXX 01001 56854 32/66 92701 10092 20080 38969 40230 52013 333 05103 10205 20060
AAXX 01001 56543 32680 10000 11121 21140 36829 52008 81/// 333 05103
AAXX 01001 56651 32665 21401 11025 21050 37688 52009 82/// 333 05103
AAXX 01001 56842 32/62 92001 10066 20044 38568 40213 52011 333 05101 10187 20057 30031
AAXX 01001 56646 32/74 93601 11021 21035 37876 52012 333 05102 10147 21047 31048
AAXX 01001 56684 31404 80702 11003 21007 37876 52011 746// 88/// 333 00002 31013
AAXX 01001 56962 11/// 92501 10103 20095 38700 40238 52010 60011 754// 333 05101 10151 20090 70066
AAXX 01001 56783 32/59 91602 10056 20039 38154 52013 333 05102 10155 20034 30046
AAXX 01001 56697 31/56 93601 10022 20018 38079 52012 710// 333 05101 10122 20015 30026
AAXX 01001 56595 12/68 93201 11027 21034 38446 52009 69902 333 00252 10026 21027 31004 79999 93427
AAXX 01001 56951 32670 83401 10089 20074 38557 52008 88/// 333 00004
AAXX 01001 56585 31/55 90402 11032 21033 38118 52010 710// 333 00152 10088 21032 31012
AAXX 01001 56596 12/60 90201 11001 21014 38963 40369 52008 69951 333 00200 10020 21002 30004 70011
AAXX 01001 56977 11355 81101 10093 20088 38806 40252 52009 69921 710// 88/// 333 00000 70046
AAXX 01001 56641 32968 00000 10036 20026 38905 40283 52013 333 05201 10175 20019 30013
AAXX 01001 56594 32/65 92501 10020 21018 39116 40354 52010 333 00251 10074 20019 30021
AAXX 01001 56483 12975 92001 10041 20028 39751 40365 52007 60012 333 00300 10057 20038 30043 70013
AAXX 01001 56772 32/57 92201 10056 20052 38377 52011 333 05101 10178 20041 30043
AAXX 01001 56785 31933 93601 10044 20043 38140 52013 710// 333 05104 10160 20001 30030
AAXX 01001 56752 32/69 90000 10029 20013 38610 40236 52013 333 05201 10200 20018 31008
AAXX 01001 56991 11/21 92002 10041 20041 38521 52014 69971 710// 333 00002 70051
AAXX 01001 56994 12/56 91801 10060 20059 38801 40291 52017 60022 333 00001 10103 20047 70025
AAXX 01001 56944 31/56 90000 10105 20099 38786 40224 52012 710// 333 00003 10191 20073
AAXX 01001 56548 32980 00000 11030 21058 37748 52009 333 05102
AAXX 01001 56745 32963 90201 10025 20018 38437 52014 333 05103 10157 21004 31011
AAXX 01001 56969 12471 80901 10142 20126 39493 40232 52007 69911 88/// 333 00001 70005
AAXX 01001 56954 11242 82201 10137 20132 39021 40216 52010 60161 762// 88/// 333 00002 70237
AAXX 01001 59205 11/60 91101 10051 20048 39499 40327 52014 69921 750// 333 00102 10084 20036 70002
AAXX 01001 56970 12/69 91402 10094 20086 38648 40245 52007 60012 333 05203 10138 20064 70043
AAXX 01001 56652 32/60 91801 11015 21026 37915 52012 333 05102 10134 21039 31050
AAXX 01001 56533 32480 00000 10004 20001 38497 52014 333 05201 31009
AAXX 01001 56950 31657 70000 10112 20112 39033 40223 52010 710// 87/// 333 00005 10168 20067 79999
AAXX 01001 57876 31/31 93203 11010 21011 30212 40388 52006 710// 333 00001 11002 21015 31006
AAXX 01001 57045 31/49 91401 11073 21111 39604 40421 52002 710// 333 00200 11012 21078
AAXX 01001 56381 31/56 91401 10011 21011 39590 40370 52003 710// 333 00200 10026 20006 30019 70002
AAXX 01001 58225 32/62 90201 11032 21070 30320 40412 52016 333 05101 31014
AAXX 31061 57844 32/69 9//// 11008 21047 40369 57032 333 21033 92502
AAXX 01001 59426 32/80 93405 10050 20017 40334 52013 333 00100 10069 20047 79999
AAXX 01001 59224 32/66 93201 10061 20026 40343 52014 333 00001 10109 20050
AAXX 01001 57955 31/55 90205 11005 21016 40377 52009 721// 333 05101 10024 21012 30000
AAXX 01001 59038 11/56 93402 10027 20018 40349 52015 69951 710// 333 00000 10041 20026 30035 70005
AAXX 01001 59001 11/40 90902 10039 20038 40344 52015 60031 710// 333 00100 10087 20035 30048 70027
AAXX 01001 59038 11/56 93402 10027 20018 40349 52015 69951 710// 333 00000 10041 20026 30035 70005
AAXX 31001 54284 31960 00000 11251 21277 40463 54000 705// 333 05154
AAXX 01001 50968 31/20 92502 11207 21249 40364 57005 705// 333 05802
AAXX 01001 50956 32/59 92202 11206 21255 40331 57010 333 06051 11124 21212
AAXX 01001 50673 32/80 91102 11242 21277 40244 52005 333 06552 11191 21270
AAXX 01001 51430 31/55 92701 11039 21052 40340 57001 710// 333 05252 10024 21039 31012 92515
AAXX 01001 51855 31957 02001 11155 21206 40398 57017 705// 333 05300
AAXX 01001 58112 31/57 90000 11058 21061 40416 52008 710// 333 00003 11021 21084 31003
AAXX 01001 58128 32/58 92901 11061 21088 40413 52015 333 05102 10026 21074 31029
AAXX 01001 58212 31/42 92701 11039 21056 40414 52015 710// 333 05100 10026 21047 31029
AAXX 01001 58214 32/57 90401 11024 21059 40412 52015 333 00002 10025 21041 31020
AAXX 01001 58415 32/58 90402 10006 21012 40404 52010 333 05102 10021 21016 30002
AAXX 01001 58418 32/62 90404 11001 21015 40399 52010 333 05102 11001 21021 31001
AAXX 01001 58421 41/14 90000 11002 21003 40405 52017 710// 333 00002 10003 21020 30000
AAXX 01001 58813 12478 81102 10009 20000 40379 52010 69931 88/// 333 00001 30011 70006
AAXX 31091 54284 32958 00000 11166 21230 40436 52005
AAXX 31181 54284 32/76 90201 11256 21282 40411 57007 333 11107
AAXX 31211 57827 32/62 93604 11037 21042 40382 57017
AAXX 01001 56742 32/72 91401 10017 20013 38344 52013 333 05103 10184 21017 30017
AAXX 01001 56775 32/68 91601 10074 20074 38307 52011 333 05102 10159 20052
AAXX 01001 56839 31/17 91401 10090 20087 40221 52012 710// 333 00001 10222 20079
AAXX 01001 56768 32680 81802 10073 20058 38235 52009 88/// 333 05101
AAXX 01001 56873 12/68 90401 10089 20075 38260 52010 69992 333 05104 10148 20045 70009
AAXX 01001 56889 11/42 90902 10028 20028 38568 52013 69931 710// 333 00001 10086 20020 30045 70032
AAXX 01001 56871 12/73 90000 10073 20061 38081 52009 69901 333 05104 10147 20033 30048 79999
AAXX 01001 56973 12964 91601 10090 20079 40253 52008 69902 333 05203 10141 20064 79999
AAXX 01001 56846 32/62 90000 10083 20074 38484 52013 333 00003 10186 20054 30049
AAXX 01001 59007 12580 80401 10024 20020 40327 52014 60011 88/// 333 00101 30048 70040
AAXX 01001 56778 31556 70000 10066 20063 38170 52010 710// 87/// 333 05105 30046
AAXX 01001 56879 11/06 93201 10082 20076 38360 52005 60022 710// 333 05104 10143 20043 70027
AAXX 01001 56756 31/04 91602 10040 20039 38060 52009 746// 333 05103 10151 20013 31001
AAXX 01001 56891 11/08 91403 10017 20014 40326 52016 60021 710// 333 00101 10044 20010 30050 70031
AAXX 01001 56751 32780 12001 10040 20019 38071 52012 81/// 333 05106 30013
AAXX 01001 56996 31/61 93601 10065 20062 40295 52012 710// 333 00001 10101 20050 70001
AAXX 01001 56958 11/60 90702 10115 20112 40228 52009 60011 721// 333 00051 10145 20115 70037
AAXX 01001 56882 12/69 91802 10074 20067 38083 52010 69902 333 05104 10138 20036 79999
AAXX 01001 56444 32980 02702 11090 21125 36846 52008 333 05101
AAXX 01001 56961 11/79 90000 10113 20108 40221 52009 60031 750// 333 00051 10158 20112 70068
AAXX 01001 56835 31/35 90000 10084 20084 40217 52009 710// 333 00002 10226 20060
AAXX 01001 56875 11547 80000 10089 20083 38342 52007 69961 750// 88/// 333 05103 70047
AAXX 01001 56978 11/11 90202 10078 20077 38420 52007 60011 750// 333 00051 10126 20077 70062
AAXX 01001 56867 11/56 91801 10126 20124 40225 52008 60031 760// 333 05103 10170 20095 70046
AAXX 01001 56885 12/68 90202 10078 20064 40253 52010 69941 333 05104 10164 20034 70020
AAXX 01001 56975 12/74 90905 10075 20068 40311 52008 69912 333 05100 10118 20071 70001
AAXX 01001 56790 31/03 91103 10010 20007 38145 52011 745// 333 00000 10151 20009 30008
AAXX 01001 56987 11/01 92003 10075 20074 40251 52012 69941 745// 333 00151 10093 20074 70098
AAXX 01001 56840 31/40 93601 10068 20065 40235 52009 710// 333 05903 10220 20040
AAXX 01001 56984 12/60 93602 10076 20072 38342 52011 60022 333 05103 10103 20040 70025
AAXX 01001 56959 12562 80000 10153 20143 40220 52010 60011 88/// 333 00000 70039
AAXX 01001 56489 32/80 90402 10018 21016 40353 52006 333 00200 10040 20018 30022
AAXX 01001 56986 11/11 90902 10046 20046 40290 52007 69911 760// 333 00000 70073
AAXX 01001 56992 12/58 90701 10049 20048 38574 52013 69931 333 00003 10095 20021 30047 70040
AAXX 01001 56851 12/71 90201 10087 20072 40239 52011 69902 333 05205 10197 20039 79999
AAXX 01001 56838 31/04 91801 10096 20091 40219 52010 747// 333 00001
AAXX 01001 56748 32560 70000 10058 20040 38404 52009 87/// 333 05101 30035
AAXX 01001 56898 11/48 90901 10090 20087 38458 52008 69971 760// 333 05103 10155 20057 70023
AAXX 01001 56989 32/62 90901 10116 20110 40286 52013 333 00001 10130 20107 79999
AAXX 01001 56872 31/01 92202 10049 20049 37715 52009 745// 333 00004 10116 20014 30046
AAXX 01001 56654 32/76 92701 10004 21017 37861 52010 333 05102 10144 21028
AAXX 01001 56952 11/10 92901 10132 20129 40224 52009 60051 762// 333 05104 10158 20098 70130
AAXX 01001 56746 32/63 91601 10014 20013 38444 52011 333 05103 10180 21011 30004
AAXX 01001 56946 32/56 90000 10099 20093 40225 52012 333 00003
AAXX 01001 56870 11/80 92201 10096 20085 38459 52010 69902 760// 333 05104 10141 20052 79999
AAXX 01001 56788 12/58 92201 10071 20062 38203 52011 69902 333 05104 10143 20036 30048 79999
AAXX 01001 56863 31/56 93601 10080 20072 38165 52010 710// 333 05104 10147 20043
AAXX 01001 56849 32/78 93601 10084 20062 38444 52012 333 00001 10153 20071 30035
AAXX 01001 56841 32/64 93401 10066 20057 38419 52008 333 00002 10177 20045 30047
AAXX 01001 56878 12/73 92201 10082 20076 38260 52006 69911 333 05103 10133 20051 70023
AAXX 01001 56645 32/70 90000 11036 21047 37731 52008 333 05101 10141 21055 31043
AAXX 01001 56976 12/76 91601 10117 20091 40275 52009 60022 333 05100 10152 20109 70016
AAXX 01001 56966 11572 80000 10108 20087 40262 52010 60011 750// 88/// 333 05151 70047
AAXX 01001 56567 32/70 91401 11062 21074 37703 52012 333 05202 10119 21078
AAXX 01001 56688 31/56 93601 10049 20028 40297 52017 710// 333 05152 10165 20049 30032
AAXX 01001 56964 12580 81601 10119 20100 38764 40225 52010 69931 88/// 333 00051 70003
AAXX 01001 56948 11/05 90000 10131 20131 40212 52013 60111 752// 333 00102 10156 20114 70141
AAXX 01001 56643 32676 12701 10068 20051 40250 52013 81/// 333 05151 30045 79999
AAXX 01001 56763 32/62 90000 10070 20058 40226 52014 333 05203
AAXX 01001 58751 32/70 90206 10056 20023 40356 52015 333 05104 10072 20021 30049 70001
AAXX 31151 57827 32/61 93604 11034 21041 40404 52010
AAXX 31211 58436 31/25 93401 10002 21007 40388 57009 710// 333 70003
AAXX 01001 51810 32/63 91601 11109 21153 40369 57011 333 05200
AAXX 01001 51058 12/80 91102 11210 21225 40414 57007 69962 333 05353 11116 21212 70009
AAXX 01001 51053 32/77 90904 11120 21149 40386 57007 333 05351 92504
AAXX 01001 51639 31/56 92901 11123 21170 40395 57008 705// 333 05351
AAXX 01001 59051 12/72 92902 10023 21008 40355 52013 69921 333 00001 10043 20009 30019 70006
AAXX 01001 59452 31/55 90205 10042 20041 40321 52017 710// 333 00001 10054 20030 30041 70005
AAXX 01001 54806 31/56 90000 11099 21130 40415 52013 710// 333 05153 10021 21106
AAXX 31181 57827 32/57 93603 11034 21041 40399 54000 333 11031
AAXX 31211 56227 32/80 90902 11072 21109 37383 52006 333 05102
AAXX 01001 53585 31/24 90902 11160 21199 40464 52015 710// 333 00251 11055 21166
AAXX 01001 56764 32/64 91101 10056 20044 38180 52010 333 05106 10165 21017 30025
AAXX 01001 56761 32/62 90901 10023 20014 38175 52011 333 05103 10165 21003 31012
AAXX 01001 56766 31/58 92002 10065 20051 38237 52010 710// 333 05102 10164 20046 30039
AAXX 01001 56777 32/58 91601 10076 20072 38388 52008 333 05101 10157 20054
AAXX 01001 56786 32580 72002 10063 20045 38163 52016 87/// 333 05103 30040
AAXX 01001 56844 32/65 92201 10096 20096 40227 52007 333 00001 10218 20082
AAXX 01001 58112 31/57 90000 11058 21061 40416 52008 710// 333 00003 11021 21084 31003 92515
AAXX 01001 58128 32/58 92901 11061 21088 40413 52015 333 05102 10026 21074 31029
AAXX 01001 52957 32/80 91601 11167 21219 36974 52008 333 00100 10023 21183
AAXX 01001 58035 31/23 92501 11074 21086 40415 52018 710// 333 05151 10021 21082
AAXX 01001 58223 32/59 92701 11033 21052 40409 52015 333 05102 10026 21047 31018
AAXX 01001 52968 32/57 92902 11195 21239 36518 52006 333 00100 11029 21201
AAXX 01001 56043 32959 00000 11198 21231 36484 52008 333 00200
AAXX 01001 52745 32/63 92902 11144 21253 36726 52003 333 00200 11032 21176
AAXX 01001 52842 32980 13602 11123 21253 37012 52003 81/// 333 00100 11008 21138 92501
AAXX 01001 56016 32/64 90401 11192 21227 36112 52003 333 00003 11068 21221 92501
AAXX 01001 52602 32980 02701 11198 21256 37312 57001 333 00102
AAXX 01001 51886 32974 20000 11173 21221 37146 57004 82/// 333 00153
AAXX 01001 56034 32680 23202 11260 21291 35926 52002 82/// 333 00151
AAXX 01001 56065 32662 71601 11174 21206 36645 52005 87/// 333 00104
AAXX 01001 52863 31/50 90000 11174 21193 37588 52002 710// 333 00301 11022 21191
AAXX 01001 52657 32975 01101 11192 21246 37296 52007 333 00203
AAXX 01001 56125 32968 02701 11134 21191 36550 52006 333 05102
AAXX 01001 56151 31018 00000 11161 21215 36658 52018 705// 333 049//
AAXX 01001 52974 32958 00201 11129 21166 37590 52008 333 00252 92503
AAXX 01001 52737 32980 33201 11168 21233 37122 52004 83/// 333 00151 92508
AAXX 01001 52833 32980 00401 11184 21241 37130 52004 333 00151 92501
AAXX 01001 52825 32980 61601 11152 21245 37297 54000 86/// 333 00200
AAXX 01001 52972 31/56 90000 11107 21148 38147 52005 705// 333 00251 11022 21107
AAXX 01001 52836 32980 01802 11163 21226 36934 52001 333 00252 92505
AAXX 01001 52633 32666 50000 11217 21272 36764 52005 85/// 333 00202
AAXX 01001 56021 32763 80000 11177 21209 36096 52004 88/// 333 00005 92501
AAXX 01001 52862 31/21 92901 11196 21215 37603 52001 710// 333 00301 11019 21214
AAXX 01001 52875 31/56 92703 11122 21162 37932 52001 705// 333 00252 11036 21135
AAXX 01001 52869 31/35 90000 11148 21176 37404 57001 705// 333 00301 11025 21155 31049 92502
AAXX 01001 56045 32/59 90000 11223 21254 36231 52010 333 00001 11033 21238 92507
AAXX 01001 50962 31/48 91401 11241 21268 40333 57008 705// 333 06054 11130 21257 92502
AAXX 01001 50954 32/57 92503 11205 21249 40349 57007 333 05902 11114 21220
AAXX 01001 50867 31/24 92204 11208 21253 40334 57008 705// 333 05953 11132 21230 92502
AAXX 01001 50557 32957 72703 11139 21249 39966 40293 57004 87/// 333 06313 92501
AAXX 01001 50659 32/80 92703 11191 21251 40293 57008 333 06203 11141 21222 92507
AAXX 01001 50958 32/63 91802 11222 21267 40354 57007 333 05851 11129 21256 92505
AAXX 01001 54575 31/55 93603 11108 21224 40385 52006 705// 333 05401 11043 21116
AAXX 01001 54452 31917 00000 11171 21236 40411 52006 705// 333 05503
AAXX 01001 54340 31/38 91401 11162 21216 40396 52004 705// 333 05500 11083 21164
AAXX 01001 54248 32/59 91801 11200 21236 40396 52005 333 05501 11085 21213
AAXX 01001 54349 32577 41801 11193 21226 40405 52007 84/// 333 05501
AAXX 01001 54336 32/65 91101 11177 21222 40391 57002 333 05651 11073 21180
AAXX 01001 54332 32/74 91601 11189 21232 40395 52003 333 05551 11076 21196
AAXX 01001 54327 31/41 90000 11177 21244 40427 52013 705// 333 05505 11063 21228
AAXX 01001 54243 32961 11602 11197 21243 40398 52002 81/// 333 05651 92501
AAXX 01001 54584 32958 22701 11116 21212 40370 52004 82/// 333 05503
AAXX 01001 54486 32963 63604 11116 21222 40383 52007 86/// 333 05501 92500
AAXX 01001 54331 32/80 91402 11124 21244 40394 52001 333 05500 11076 21141
AAXX 01001 54471 32768 70901 11114 21212 30388 40394 57001 87/// 333 05503
AAXX 01001 54245 32/63 92201 11232 21261 40395 52004 333 05654 11096 21234
AAXX 01001 54345 32975 92001 11158 21203 40396 52004 333 05501 11081 21165
AAXX 01001 54333 32757 21801 11206 21243 40394 52004 82/// 333 05600
AAXX 01001 54244 32/58 92502 11220 21255 40392 52003 333 05601 11083 21245
AAXX 01001 54346 32659 61102 11187 21223 40401 52007 86/// 333 05501
AAXX 01001 54475 32/66 90701 11143 21198 40395 57003 333 05502 11071 21163
AAXX 01001 54493 31913 02201 11169 21200 40378 52003 710// 333 05503 92501
AAXX 01001 54237 32966 62502 11151 21239 40398 52003 86/// 333 05606
AAXX 01001 54590 32/69 93204 11103 21216 40362 52007 333 05501 11039 21117
AAXX 01001 54351 31934 00402 11238 21270 40405 52007 705// 333 05551 92502
AAXX 01001 54472 31949 51101 11161 21198 40396 54000 710// 85/// 333 05503
AAXX 01001 54348 31/56 91601 11180 21210 40398 52004 705// 333 05500 11082 21186
AAXX 01001 54339 32780 61402 11135 21204 40395 52003 86/// 333 05551
AAXX 01001 54324 32964 31602 11162 21238 40409 52009 83/// 333 05603
AAXX 01001 54323 32/58 92201 11171 21242 40405 52006 333 05503 11065 21199
AAXX 01001 54342 31956 51101 11206 21233 30326 40395 52005 710// 85/// 333 05551
AAXX 01001 54563 32968 03602 11104 21226 40385 52003 333 05401
AAXX 01001 54328 32/57 92202 11175 21230 40418 52011 333 05504 11056 21214
AAXX 01001 53533 32/79 91602 11200 21227 40493 52007 333 00455 11093 21218 79999
AAXX 01001 53522 32/68 91801 11227 21265 40497 52007 333 00455 11073 21233
AAXX 01001 53644 32/61 90901 11171 21221 40464 52004 333 00453 11049 21177
AAXX 01001 53547 32/68 90000 11236 21265 40504 52005 333 00458 11068 21237
AAXX 01001 53457 32/56 92202 11188 21215 40486 52011 333 00556 11067 21190
AAXX 01001 54305 12/58 90202 11214 21239 40482 52015 69922 333 00204 11104 21250 70006 92501
AAXX 01001 54254 31932 01101 11214 21251 40396 52005 705// 333 05651
AAXX 01001 54454 32961 23602 11124 21200 40397 52004 82/// 333 05503
AAXX 01001 54455 32955 63403 11156 21226 40396 52007 86/// 333 05503
AAXX 01001 54474 31/57 91401 11129 21198 40394 57002 705// 333 05503 11072 21159
AAXX 01001 54337 32980 30000 11139 21223 30310 40400 52008 83/// 333 05501
AAXX 01001 54497 32967 63406 11102 21221 30342 40362 52008 86/// 333 05501
AAXX 01001 54483 32/71 93203 11131 21231 40386 52011 333 05401 11079 21153 92501
AAXX 01001 54334 32980 02902 11160 21236 40401 52005 333 05502
AAXX 01001 54569 32/79 92703 11113 21194 40391 52004 333 05400 11048 21122
AAXX 01001 54249 32/68 91402 11209 21248 40394 52003 333 05600 11089 21214
AAXX 01001 54252 32/66 90401 11250 21281 40401 54000 333 05601 11089 21259
AAXX 01001 54259 32660 10000 11242 21268 40408 52004 81/// 333 05600 92501
AAXX 01001 54326 32962 52903 11145 21241 40419 52013 85/// 333 05504
AAXX 01001 54321 31/55 91101 11226 21282 40447 52011 705// 333 05404 11093 21268
AAXX 01001 54568 32/80 93404 11090 21190 40388 52007 333 05401 11054 21104
AAXX 01001 54660 32980 70401 11069 21128 40391 52003 87/// 333 05401
AAXX 01001 54325 32/59 90000 11195 21259 40411 52009 333 05606 11048 21250
AAXX 01001 54330 32/80 93401 11146 21237 40399 52006 333 05551 11069 21150
AAXX 01001 54365 32580 22902 11189 21221 40394 52004 82/// 333 05501
AAXX 01001 54470 31956 01801 11135 21196 40395 54000 705// 333 05501
AAXX 01001 54338 31/55 92201 11154 21198 40392 57001 705// 333 05601 11066 21166
AAXX 01001 54236 32960 02901 11183 21253 30281 40392 52006 333 05600
AAXX 01001 54476 31938 00401 11143 21196 40393 54000 705// 333 05502
AAXX 01001 54579 32980 03402 11086 21195 40377 52009 333 05400
AAXX 01001 54335 32660 22901 11166 21237 40395 54000 82/// 333 05651
AAXX 01001 54347 31/50 90901 11169 21203 40397 52004 710// 333 05501 11077 21178
AAXX 01001 54353 31925 21601 11250 21280 40411 52004 705// 82/// 333 05551
AAXX 01001 54453 32/71 92701 11146 21216 40398 52008 333 05503 11049 21171
AAXX 01001 56880 11/56 91804 10087 20078 38421 52012 69901 710// 333 05104 10163 20048 79999
AAXX 01001 56497 11/55 90000 10037 20025 40365 52009 60011 760// 333 00200 10057 20037 30049 70012
AAXX 01001 57185 31/42 92201 11099 21111 30299 40421 52010 710// 333 00051 10009 21101 31038
AAXX 01001 59448 32/61 90201 10048 20031 30222 40311 52018 333 00001 10056 20037 30044
AAXX 01001 59027 12560 82501 10039 20032 30028 40348 52012 69921 88/// 333 00000 10085 20037 30041 70005
AAXX 01001 59238 32/59 93403 10042 20017 30181 40344 52014 333 00001 10055 20035 30040
AAXX 01001 59632 32565 83606 10055 20028 30249 40312 52015 88/// 333 00001 30050
AAXX 01001 59046 12560 83606 10003 21003 39966 40355 52015 69922 88/// 333 00001 30012 70002
AAXX 01001 59631 32569 80205 10057 20039 30261 40303 52015 88/// 333 00000
AAXX 01001 59246 32/63 93203 10038 20005 30250 40340 52015 333 00001 10050 20026 30039
AAXX 01001 59441 32/69 90202 10042 20017 30215 40329 52013 333 00001 10058 20028 30044
AAXX 01001 59211 11637 81601 10060 20043 30124 40343 52016 69901 710// 88/// 333 00100 79999
AAXX 01001 59033 11/57 90402 10006 21008 39903 40362 52014 69902 710// 333 00002 10035 21014 30014 79999
AAXX 01001 59041 12/67 93603 10019 21015 30079 40357 52015 69902 333 00002 10031 20004 30017 79999
AAXX 01001 57658 11/55 90201 11009 21009 30203 40401 52013 69952 760// 333 05103 10006 21038 30002 70005 92506 93427
AAXX 01001 56227 32980 01102 11080 21118 37390 52007 333 05102
AAXX 01001 58627 11/21 93401 10011 20011 40388 52012 69911 710// 333 05101 10011 21001 30012 70001
AAXX 01001 56382 11/18 90000 10028 20021 40370 52005 69901 710// 333 00201 10047 20021 30033 79999
AAXX 01001 56396 31/39 90701 10040 20030 40366 52006 710// 333 00200 10059 20039 30043
AAXX 01001 56190 31/20 90000 10016 20007 40366 52004 710// 333 00251 10040 20015 30021
AAXX 01001 56491 11/42 92901 10046 20042 40371 52008 69991 710// 333 00200 10059 20045 70024
AAXX 01001 56184 32/62 90901 11033 21073 38180 52006 333 00103 10059 21071 31047
AAXX 01001 56189 11/28 92901 10014 20008 40370 52004 69902 710// 333 00200 10043 20013 30014 70016
AAXX 01001 56498 11/37 90000 10029 20028 40372 52009 60011 760// 333 00200 10046 20026 30040 70024
AAXX 01001 56288 31/13 92201 10024 20023 40367 52005 710// 333 00200 10043 20024 30021 79999
AAXX 01001 57307 31/06 91601 10022 20019 40368 52004 743// 333 00200 10036 20020 30023 70009
AAXX 01001 56666 32772 13601 10058 20043 40235 52017 81/// 333 05201 30002
AAXX 01001 56181 31/09 93401 10015 20015 40369 52004 728// 333 00251 10046 20014 30021
AAXX 01001 56479 32464 80201 11041 21049 38006 52010 88/// 333 00100 31004
AAXX 01001 56675 42/61 93201 11003 21013 38352 52012 333 05101 10165 21017 31011
AAXX 01001 57324 31/38 90401 10026 20008 40367 52006 710// 333 00100 10051 20023 30020
AAXX 01001 56462 32980 03402 11078 21146 37189 52011 333 05201
AAXX 01001 56493 31/30 93401 10044 20034 40367 52009 710// 333 00200 10062 20044 30047
AAXX 01001 56575 42/77 93201 10033 21002 38548 52016 333 05100 10085 20024 31003
AAXX 01001 57318 31/09 92701 10021 20018 40368 52008 728// 333 00200 10041 20021 30019
AAXX 01001 56196 31655 81401 10022 20015 40370 52004 710// 88/// 333 00200 30023
AAXX 01001 57217 31/44 92701 10022 21004 40369 52006 710// 333 00200 10040 20022 30018 70004
AAXX 01001 56378 32/80 90702 10048 21045 40325 52007 333 00103 10096 20019 30045
AAXX 01001 56394 11/20 90000 10036 20030 40368 52006 69921 710// 333 00200 10055 20034 30042 70003
AAXX 01001 56287 11816 80000 10018 20008 40375 52002 69902 710// 88/// 333 00200 30023 70004
AAXX 01001 56487 32/80 93202 11015 21037 38120 52010 333 00103 10107 21042 30004
AAXX 01001 57315 31/38 90000 10009 20009 40371 52007 710// 333 00201 10016 20003 30005
AAXX 01001 57402 31/34 92501 10025 20024 40379 52006 710// 333 00251 10040 20023 30027
AAXX 01001 56168 32/80 93401 11063 21097 37886 52022 333 05301 10110 21076
AAXX 01001 56494 11/16 90201 10039 20038 40367 52006 69921 710// 333 00201 10050 20032 30045 70017
AAXX 01001 56441 32/80 90000 11023 21138 37674 52019 333 05201 10113 21041
AAXX 01001 56389 11/21 92901 10040 20036 40369 52006 69912 710// 333 00200 10055 20037 30047 70001
AAXX 01001 57415 31/31 90000 10025 20016 40370 52008 710// 333 00200 10046 20023 30037
AAXX 01001 56285 11923 90000 10016 20012 40364 52003 69901 710// 333 00251 10041 20016 30023 70005
AAXX 01001 56097 32/66 90901 11029 21084 40369 52006 333 00303 10026 21060 31040
AAXX 01001 56374 32980 02001 11087 21111 37466 52011 333 05152
AAXX 01001 57216 32/79 90703 10013 21048 40373 52007 333 00200 10034 20004 31006 70002
AAXX 01001 57416 31/45 91401 10028 20024 40365 52007 710// 333 00100 10053 20026 30047
AAXX 01001 56584 32/80 91401 10036 21019 40317 52010 333 00251 10123 20036 30034
AAXX 01001 56373 11/40 91101 10013 20000 40367 52003 69902 710// 333 00200 10029 20010 30014 79999
AAXX 01001 56580 31/13 90702 11041 21042 37675 52009 710// 333 00002 10115 21067 31015 92502
AAXX 01001 56171 32/65 91101 11143 21187 36857 52018 333 05103 10063 21186
AAXX 01001 56485 11463 80701 11004 21018 40367 52006 69902 768// 88/// 333 00200 30006 70002
AAXX 01001 57314 11/20 91401 10023 20019 40369 52006 69902 710// 333 00200 10032 20021 30026 79999
AAXX 01001 56187 11912 82701 10016 20015 40369 52005 69902 710// 88/// 333 00200 30015 79999
AAXX 01001 56182 32980 00203 11126 21182 37213 52010 333 05103
AAXX 01001 56199 11/02 91101 10025 20022 40369 52006 69962 745// 333 00200 10049 20024 30017 70011
AAXX 01001 56180 12/80 90401 11024 21071 38503 52006 69901 333 00200 10020 21041 31021 79999
AAXX 01001 57603 11/14 92501 10041 20038 40367 52010 69931 760// 333 00200 10066 20040 70003
AAXX 01001 56387 31/56 91601 10028 20007 40367 52005 710// 333 00200 10039 20024 30027
AAXX 01001 56565 32980 00000 11041 21070 37556 52013 333 05101
AAXX 01001 56263 32/80 92202 11033 21063 38105 52023 333 05301 10096 21048
AAXX 01001 56197 31/49 92501 10020 20020 40367 52004 710// 333 00200 10048 20017 30025 70003
AAXX 01001 56867 11/56 91801 10126 20124 40225 52008 60031 760// 333 05103 10170 20095 70046
AAXX 01001 56952 11/10 92901 10132 20129 40224 52009 60051 760// 333 05104 10158 20098 70130
AAXX 01001 50832 32/80 93404 11119 21271 40357 57001 333 05912 11098 21241
AAXX 01001 54205 12/60 92202 11232 21260 40488 52017 69902 333 00105 11118 21279 79999
AAXX 01001 53484 11/36 90202 11204 21238 40500 52018 69912 705// 333 00400 11107 21210 70002 92500
AAXX 01001 50434 32967 71801 11292 21331 39424 40448 57003 87/// 333 05908 92508
AAXX 01001 53378 11/56 92701 11242 21261 38340 52011 69902 710// 333 00352 11117 21251 70004 92500
AAXX 01001 53385 32/80 90000 11253 21280 40519 52013 333 00301 11145 21267 70014 92501
AAXX 01001 50639 32979 73406 11154 21281 40327 57011 87/// 333 06104
AAXX 01001 52576 32969 20000 11169 21238 38575 52009 82/// 333 00001
AAXX 01001 54134 31921 02702 11195 21259 40398 52005 705// 333 05602
AAXX 01001 53467 31/55 90000 11253 21282 40486 52015 705// 333 00560 11074 21255 70004 92500
AAXX 01001 54316 31/12 92701 11190 21254 40428 52012 705// 333 05405 11075 21236
AAXX 01001 54320 31/31 92901 11201 21252 40436 52013 705// 333 05504 11081 21241
AAXX 01001 53481 12/68 92502 11244 21274 40521 52017 69912 333 00451 11134 21254 70003
AAXX 01001 53463 32/64 93203 11192 21230 39015 40491 52015 333 00557 70002
AAXX 01001 53730 31/55 90000 11219 21276 40483 57001 705// 333 00255 11044 21228
AAXX 01001 53083 32980 03601 11244 21274 40518 52009 333 00151
AAXX 01001 54218 32757 62902 11165 21243 39562 40443 52013 86/// 333 05405
AAXX 01001 53466 32/80 90000 11181 21222 40488 52014 333 00555 11068 21197 70002
AAXX 01001 54135 32963 02702 11194 21256 30145 40391 52004 333 05651
AAXX 01001 54226 32973 53204 11128 21245 40405 52002 85/// 333 05504
AAXX 01001 53195 31943 00000 11248 21287 40514 52011 705// 333 00253
AAXX 01001 54117 32/57 90000 11248 21282 40492 52016 333 05203 11103 21281
AAXX 01001 50928 32/66 92701 11188 21254 40419 52006 333 05401 11117 21199
AAXX 01001 52575 32/68 90901 11198 21261 40466 52006 333 00000 11066 21204
AAXX 01001 53391 12958 03204 11223 21252 38622 40496 52012 69912 333 00351 70005 92500
AAXX 01001 53324 32/66 90201 11200 21244 40485 52004 333 00456 11067 21200 79999
AAXX 01001 53192 32980 22701 11238 21268 39014 40518 52012 82/// 333 00101
AAXX 01001 53446 32679 22201 11201 21224 40495 52011 82/// 333 00658
AAXX 01001 53272 12/80 92202 11233 21261 40521 52008 69912 333 00401 11159 21240 70001 92500
AAXX 01001 53231 32980 31805 11217 21259 38578 52002 83/// 333 00151 79999 92502
AAXX 01001 53529 32980 30000 11227 21258 38741 40499 52005 83/// 333 00454
AAXX 01001 54115 32680 73606 11171 21253 40452 52015 87/// 333 05208
AAXX 01001 53505 32/69 90904 11134 21214 40434 52005 333 00005 11067 21186
AAXX 01001 50524 32/62 92502 11274 21303 40434 57005 333 05808 11227 21353 92504
AAXX 01001 50445 32/80 92504 11168 21259 40320 52001 333 06210 11139 21281 92503
AAXX 01001 53483 11/80 92902 11213 21246 40477 52014 69912 722// 333 00303 11111 21246 70001
AAXX 01001 52607 32/63 91403 11156 21224 40460 52004 333 00253 11083 21171
AAXX 01001 54026 32969 12904 11143 21255 30027 40385 57002 81/// 333 05702
AAXX 01001 50526 32/62 92503 11257 21288 40488 57003 333 05711 11247 21364 92507
AAXX 01001 53562 32/60 92001 11210 21240 40484 52016 333 00556 11067 21212 70004
AAXX 01001 53480 11919 00000 11224 21258 40511 52017 69902 705// 333 00300 70002 92500
AAXX 01001 53368 32/75 92201 11255 21285 38455 52009 333 00463 11103 21262 70006 92501
AAXX 01001 50934 32/80 92904 11154 21254 40375 57005 333 05806 11099 21212
AAXX 01001 53543 31956 01601 11165 21187 38647 40466 52007 710// 333 00455 70001
AAXX 01001 50618 32971 02203 11276 21299 40484 57004 333 05501 92501
AAXX 01001 53553 32/60 90000 11184 21210 40479 52014 333 00554 11068 21185 79999
AAXX 01001 50647 32/80 93406 11135 21278 40313 57003 333 06207 11103 21200
AAXX 01001 50514 32967 22906 11274 21306 40474 57004 82/// 333 05606 92501
AAXX 01001 50431 32/61 92701 11295 21327 40445 57006 333 05908 11233 21375 92515
AAXX 01001 50915 31945 00201 11296 21335 39383 40530 52003 705// 333 05251
AAXX 01001 50632 32966 62904 11215 21281 39419 40409 57007 86/// 333 05703 92501
AAXX 01001 53472 11/55 90000 11257 21288 40510 52013 69901 705// 333 00354 11090 21257 70001 92500
AAXX 01001 50913 32/62 90000 11284 21316 40508 52005 333 05201 11154 21291
AAXX 01001 50353 31956 70203 11158 21236 30024 40257 52006 705// 87/// 333 06419 92509
AAXX 01001 50888 32979 82202 11129 21229 40248 57005 88/// 333 06205
AAXX 01001 50772 32/66 92205 11186 21254 40277 57003 333 06206 11147 21242 92506
AAXX 01001 50950 32962 42202 11218 21261 40347 57006 84/// 333 05903 92501
AAXX 01001 50136 32980 82203 11170 21252 39752 40349 57001 88/// 333 06322 92524
AAXX 01001 50853 32661 82502 11199 21250 40323 57005 88/// 333 06053 92502
AAXX 01001 50468 32967 63403 11146 21227 30027 40250 52010 86/// 333 06507 92509
AAXX 01001 50756 32960 62502 11195 21251 30002 40341 57008 86/// 333 06101 92500
AAXX 01001 50953 32961 72503 11197 21251 30175 40339 57007 87/// 333 05902
AAXX 01001 50749 32/65 92703 11171 21244 40320 57007 333 06105 11123 21218
AAXX 01001 50745 32980 72702 11159 21256 30121 40322 57007 87/// 333 06107
AAXX 01001 50965 31/57 92503 11200 21244 40356 57008 705// 333 05803 11132 21235
AAXX 01001 50349 32980 72707 11115 21211 40275 54000 87/// 333 06323 92508
AAXX 01001 50758 32980 62504 11187 21242 40315 57006 86/// 333 06104
AAXX 01001 50656 32959 22501 11195 21244 40292 57006 82/// 333 06305 92503
AAXX 01001 54098 31/45 91601 11228 21259 40347 57007 705// 333 05851 11124 21240 92504
AAXX 01001 50851 32/59 92202 11191 21240 40324 57003 333 06002 11129 21214 92501
AAXX 01001 54092 32/62 93401 11210 21249 40340 57005 333 05800 11112 21229 92502
AAXX 01001 50859 32/65 92704 11200 21256 40327 57006 333 06004 11130 21244 92503
AAXX 01001 50852 32/70 92503 11174 21241 40321 57006 333 06002 11122 21208 92500
AAXX 01001 50646 32/80 92906 11141 21230 40297 57005 333 06307 11135 21228 92500
AAXX 01001 50978 32963 22206 11164 21244 39929 40295 57002 82/// 333 05951 92500
AAXX 01001 57985 31/55 93201 11011 21014 40363 52004 710// 333 00001 10003 21017 30011 93427
AAXX 01001 57777 31/57 93602 11007 21016 40396 52009 710// 333 05101 10003 21013 31005
AAXX 01001 57565 31/20 92501 11017 21017 40413 52019 710// 333 00004 10025 21059 31002 92504
AAXX 01001 57780 11757 83601 11002 21018 40394 52005 69902 710// 88/// 333 05101 30001 79999
AAXX 01001 57640 31/33 90901 11002 21015 40408 52008 710// 333 00004 10023 21045 30003 92505
AAXX 01001 57871 11/56 90203 11008 21008 40394 52006 69902 760// 333 05101 10008 21015 30005 79999
AAXX 01001 57882 31/56 90703 10000 21008 40381 52005 710// 333 00001 10005 21006 30006 79999
AAXX 01001 57680 31/24 93203 11017 21017 40407 52010 710// 333 00001 11006 21028 30005 92509
AAXX 01001 57688 31/55 92502 10002 21011 40396 52008 710// 333 00001 10011 21010 30005 92504
AAXX 01001 57976 32/61 90401 10002 21012 40375 52006 333 00001 10010 21005 30011 70015
AAXX 01001 57643 31/56 90000 10001 21026 40401 52013 710// 333 05104 10037 21043 30012 92501
AAXX 01001 57760 11/55 93402 11015 21033 40404 52014 69902 760// 333 00002 10002 21031 31001 79999 92506 93427
AAXX 01001 57762 31/56 90000 11010 21020 40404 52013 760// 333 05102 10010 21027 30001
AAXX 01001 57972 31/07 90000 11023 21024 39916 40388 52007 720// 333 00001 31002 70002
AAXX 01001 57887 11/15 93602 11009 21009 40385 52006 69942 710// 333 00000 11003 21012 30006 70006 93428
AAXX 01001 57974 11456 80202 11006 21014 40389 52008 69911 710// 88/// 333 00001 30009 70003 93427
AAXX 01001 57769 31/42 90201 11020 21020 40406 52012 770// 333 00001 10002 21030 31001
AAXX 01001 57646 31/55 90000 11004 21015 40407 52013 710// 333 05103 10015 21035 30007 92501
AAXX 01001 57674 31/55 93201 11009 21019 40405 52012 710// 333 00002 11004 21024 31001 79999 92509
AAXX 01001 57740 11/49 90201 11013 21037 40404 52014 69912 721// 333 00002 10007 21034 30002 70001 93427
AAXX 01001 57669 32659 80201 11011 21027 40407 52009 88/// 333 05105 30000 92509
AAXX 01001 57973 11/27 90000 11019 21019 40392 52009 69932 710// 333 00000 11013 21022 30003 70003 93429
AAXX 01001 57851 31/47 90402 11015 21031 40396 52006 760// 333 00001 11004 21025 31007 92504
AAXX 01001 57577 31/26 90000 11021 21029 40414 52015 710// 333 00004 10018 21061 31004 92509
AAXX 01001 57585 31/26 90201 11033 21034 40406 52010 710// 333 00000 10000 21039 30005 79999 92501
AAXX 01001 57975 12/// 90000 11005 21005 40387 52008 69972 333 00001 10000 21012 30008 70010 93427
AAXX 01001 57679 31/30 93402 11009 21009 40397 52008 710// 333 05101 30005 79999 92507
AAXX 01001 57761 11731 80401 11013 21029 40403 52011 69931 760// 88/// 333 05102 30000 70003 92509 93427
AAXX 01001 57655 31455 80000 11004 21033 40405 52013 710// 88/// 333 05105 31016 92506
AAXX 01001 59209 32380 83404 10042 20024 40327 52013 88/// 333 00101 30045
AAXX 01001 59230 12/79 93201 10036 20020 40344 52015 69911 333 00000 10051 20032 30041 70001
AAXX 01001 59241 12/66 93403 10029 20006 40346 52014 69902 333 00001 10049 20020 30030 79999
AAXX 01001 59015 11/28 92702 10033 20024 40347 52013 69991 710// 333 00101 10069 20023 30045 70028
AAXX 01001 57954 11/62 90705 10010 21014 40360 52009 69911 770// 333 05101 10045 21002 30007 70001
AAXX 01001 59022 11/80 93603 11008 21009 40369 52012 69931 770// 333 00101 11008 21023 31003 70003 93430
AAXX 01001 57948 32/74 90404 10012 21012 40362 52013 333 00002 10025 21007 30010
AAXX 01001 59446 32560 83605 10040 20024 40324 52015 88/// 333 00101 30042
AAXX 01001 54619 31/45 92901 11077 21154 40419 52009 705// 333 05202 11013 21103
AAXX 01001 54622 31/56 90000 11088 21138 40410 52009 710// 333 05301 11012 21101
AAXX 01001 57475 32/57 90401 11022 21042 40410 52008 333 00104 10033 21060 31016
AAXX 01001 54528 31/45 92001 11127 21158 40415 52009 710// 333 05302 11012 21144
AAXX 01001 57499 32/63 92001 11004 21025 40406 52008 333 00001 10016 21016 30003 70007
AAXX 01001 57491 31/55 93601 11017 21042 40408 52003 710// 333 00004 10009 21061 31014
AAXX 01001 57573 31930 00202 11029 21043 40408 52007 710// 333 00003 30000
AAXX 01001 57395 31939 70201 11065 21077 40415 52008 710// 87/// 333 00151 31045
AAXX 01001 57582 31/43 90901 11012 21031 40413 52014 710// 333 00101 10014 21020 31001 79999
AAXX 01001 57461 31955 71401 11014 21063 30079 40409 52012 710// 87/// 333 00103 31023
AAXX 01001 57477 31/27 90701 11010 21017 40411 52010 710// 333 00003 10023 21041 31005 92500
AAXX 01001 57278 31945 03202 11039 21068 40420 52011 710// 333 00200 31026
AAXX 01001 57462 32/// 93602 10015 21056 40405 52011 333 00003 10082 21016 31002
AAXX 01001 58429 31650 83602 10012 21001 40407 52019 710// 88/// 333 05103 30007
AAXX 01001 57596 31/01 90000 11059 21066 40418 52013 745// 333 00101 11049 21073 30001 70001 92514
AAXX 01001 57378 31956 30402 11022 21039 40412 52007 710// 83/// 333 00102 31031
AAXX 01001 57595 32957 83401 11005 21032 40406 52008 88/// 333 00001 31004 92501
AAXX 01001 57545 32965 82001 11007 21024 40401 52013 88/// 333 00001 30010 79999
AAXX 01001 57541 32/65 91101 11003 21020 40359 52013 333 00101 10012 21015 30000
AAXX 01001 57476 32920 60201 11021 21022 40409 52011 86/// 333 00003 31016
AAXX 01001 57355 31947 81103 10026 21033 40387 52013 710// 88/// 333 00001 30012
AAXX 01001 57439 11950 80401 11027 21037 40394 52010 69901 710// 88/// 333 00102 31003 79999
AAXX 01001 57464 31/30 90000 11006 21025 40409 52012 710// 333 00103 10039 21031 31004
AAXX 01001 57485 31/14 90201 11048 21056 40414 52013 710// 333 00103 10014 21078 31001 92503
AAXX 01001 58500 32959 80000 11004 21018 40407 52008 88/// 333 00002 30009 79999 92507
AAXX 01001 57398 32/60 90201 11005 21047 40412 52005 333 00005 10019 21052 31010
AAXX 01001 57363 31955 03401 11050 21084 40412 52010 710// 333 00102 10037 21067 31019
AAXX 01001 57466 31922 90401 11015 21028 40409 52010 710// 333 00003 10032 21050 31007
AAXX 01001 57581 31929 70403 11021 21043 40410 52010 710// 87/// 333 00001 30003 92501
AAXX 01001 57259 31934 71401 11059 21067 40427 52013 710// 87/// 333 00353 31021
AAXX 01001 57370 31/47 93401 11048 21062 40416 52010 710// 333 00101 10049 21061 31027
AAXX 01001 57361 32/55 90000 11054 21075 40427 52012 333 00201 10031 21060
AAXX 01001 57482 31956 00202 11035 21045 40413 52004 710// 333 00001 31034
AAXX 01001 57445 32963 81401 10004 21020 40392 52011 88/// 333 00101 30002
AAXX 01001 57256 31945 22702 11059 21066 40421 52010 710// 82/// 333 00254 31035
AAXX 01001 57260 31/46 90901 11049 21080 40422 52011 710// 333 00152 10021 21051 31026
AAXX 01001 57465 31920 93201 11010 21026 40411 52011 710// 333 00104 10032 21049 31014
AAXX 01001 57483 31955 70000 11037 21051 40414 52011 710// 87/// 333 00101 31030
AAXX 01001 57253 31/47 93402 11068 21079 40423 52011 710// 333 00255 10005 21069 31027
AAXX 01001 57257 32/57 90401 11043 21060 40426 52012 333 00354 10024 21048 31036
AAXX 01001 57251 32959 03401 11078 21089 40427 52010 333 00256 31027
AAXX 01001 57586 32/60 90202 11007 21042 40409 52014 333 00001 10007 21018 30000 79999 92510
AAXX 01001 57385 31946 93402 11065 21069 40418 52008 710// 333 00100 10026 21068
AAXX 01001 57540 31/55 93601 11023 21040 40403 52012 710// 333 00101 11006 21034 31011
AAXX 01001 57589 31/56 90203 11018 21037 40403 52007 710// 333 00002 11001 21032 31001
AAXX 01001 58401 32/58 93601 11010 21027 40407 52009 333 00005 11002 21058 31005
AAXX 01001 57389 31/40 90201 11036 21051 40411 52005 710// 333 00002 10031 21052 31025
AAXX 01001 57362 32/59 92902 11063 21084 40413 52012 333 00351 10000 21069 31038 92500
AAXX 01001 57458 31926 80000 11012 21026 40408 52015 710// 88/// 333 00005 31003
AAXX 01001 57486 31/56 90401 11033 21055 40411 52009 710// 333 00102 10020 21054 31026 70002
AAXX 01001 57543 32/61 90901 10004 21026 40395 52016 333 00001 10024 21008 30007
AAXX 01001 57590 31/42 91601 11017 21030 40412 52010 710// 333 00101 10008 21025 30000
AAXX 01001 57358 31455 81601 10003 21051 40405 52012 710// 88/// 333 00102 31013
AAXX 01001 57453 31/56 90000 11011 21055 40410 52012 710// 333 00104 10040 21050 31009
AAXX 01001 57493 32859 83601 11017 21036 40406 52008 88/// 333 00002 31003 92501
AAXX 01001 57447 32958 81601 10014 21001 39821 40391 52013 88/// 333 00101 30021
AAXX 01001 57583 31923 83401 11029 21036 40411 52013 710// 88/// 333 00151 31004 92501
AAXX 01001 57496 31/38 93201 11009 21028 40412 52009 710// 333 00102 10015 21025 30001 70011
AAXX 01001 57387 31/29 92702 11051 21059 40413 52008 710// 333 00101 10047 21062 31017
AAXX 01001 57571 31/11 92201 11036 21046 40410 52013 710// 333 00004 10020 21078 31032
AAXX 01001 57460 31/56 92001 11008 21045 40412 52013 710// 333 00104 10042 21052 31022
AAXX 01001 57368 31/41 93402 11031 21056 40413 52011 710// 333 00103 10053 21061 31010
AAXX 01001 51288 12980 73202 11129 21150 38377 57008 69932 87/// 333 05201 70005 92514
AAXX 01001 51717 31/50 90000 11137 21155 40377 57009 710// 333 05251 11014 21141
AAXX 01001 51359 31/30 90401 11138 21168 40410 57005 710// 333 05302 11135 21156 70011 92517
AAXX 01001 51060 12961 81402 11147 21168 40396 57004 69901 88/// 333 05252 31050 70003 92508
AAXX 01001 51346 11721 20401 11148 21170 40415 57003 69912 770// 82/// 333 05301 70009 92508
AAXX 01001 51334 119// 73401 11135 21158 40412 57004 69902 774// 87/// 333 05202 70005
AAXX 01001 51059 32965 51402 11095 21121 40362 57008 85/// 333 05100 70013 92505
AAXX 01001 51802 31/49 90000 11113 21150 40371 57011 705// 333 05200 11030 21119
AAXX 01001 51827 32/56 90000 11173 21201 40382 57021 333 05356 11015 21173
AAXX 01001 51656 31934 00701 11170 21199 39262 40416 57007 710// 333 05254
AAXX 01001 51438 32/62 92702 11130 21157 40379 52007 333 05257 11006 21130 31030 92516
AAXX 01001 51818 31956 63401 11141 21176 40377 57015 710// 86/// 333 05251
AAXX 01001 51137 11/35 92703 11108 21127 40364 54000 69962 770// 333 05252 11054 21114 31023 70035 92527
AAXX 01001 51815 31/38 92001 11130 21163 40374 57010 710// 333 05251 11013 21132 92501
AAXX 01001 51435 31901 90000 11078 21083 40351 52002 746// 333 05256 10006 21079 31020 70002 92508
AAXX 01001 51931 31955 01601 11132 21172 40360 57022 705// 333 05454
AAXX 01001 51720 31955 02901 11163 21184 40401 57011 710// 333 05354
AAXX 01001 51378 31/15 90000 11175 21197 40412 57009 710// 333 05202 11118 21195 31048 92514
AAXX 01001 54523 32/60 92701 11103 21161 40410 52010 333 05302 11018 21118
AAXX 01001 54526 32/59 92001 11073 21140 40411 52010 333 05302 11015 21097
AAXX 01001 54530 31/57 92701 11096 21135 40410 52009 710// 333 05351 11014 21109
AAXX 01001 54529 31/55 92702 11100 21141 40406 52008 710// 333 05302 11015 21122
AAXX 01001 54527 32960 23401 11090 21149 40412 52008 82/// 333 05201
AAXX 01001 52515 32/78 92901 11080 21133 37892 57013 333 05104 10000 21141
AAXX 01001 56080 32965 73401 11143 21178 37180 52005 87/// 333 00203
AAXX 01001 52988 31/25 91401 11142 21157 38048 54000 710// 333 00153 11030 21143 79999 92501
AAXX 01001 52656 32/73 92002 11147 21226 37812 52009 333 00002 11033 21169
AAXX 01001 51465 32/// 9//// 333 11036 21126 31027
AAXX 01001 56192 32/80 90000 11022 21049 40370 54000 333 00352 10027 21022
AAXX 01001 53923 32959 70902 11086 21122 40397 57002 87/// 333 00101 79999
AAXX 01001 53928 32/58 93601 11112 21121 40420 52001 333 00101 10019 21119
AAXX 01001 56081 32/64 93201 11132 21184 37273 52003 333 00202 10062 21160
AAXX 01001 53934 32/66 90402 11109 21148 40423 57002 333 00152 11012 21118
AAXX 01001 52787 32780 11605 11143 21229 37040 54000 81/// 333 00200
AAXX 01001 52981 31/14 92703 11126 21137 37634 52001 710// 333 00100 11067 21129 92503
AAXX 01001 57007 32/57 90201 11113 21126 40404 52001 333 00357 10001 21113
AAXX 01001 52884 31942 23602 11180 21199 38414 52003 710// 82/// 333 00100
AAXX 01001 52674 32980 22201 11142 21251 37948 52006 82/// 333 00006
AAXX 01001 52980 31/55 90000 11089 21107 38443 52003 710// 333 00151 11013 21107
AAXX 01001 56074 32667 72502 11108 21199 36679 52010 87/// 333 00005
AAXX 01001 52993 32/49 92901 11117 21145 38337 57003 333 00154 11022 21124
AAXX 01001 53906 31/55 90402 11115 21139 38431 57003 710// 333 00255 11007 21124
AAXX 01001 52643 32/80 92901 11172 21243 37735 52006 333 00003 11019 21201
AAXX 01001 52889 32/37 91401 11088 21125 38581 40400 52004 333 00151
AAXX 01001 53915 32765 72902 11111 21139 38634 40410 54000 87/// 333 00102
AAXX 01001 52984 32960 02701 11124 21137 38152 52003 333 00154 79999
AAXX 01001 52797 32959 02901 11118 21161 38430 52002 333 05204
AAXX 01001 56084 32/69 91801 11108 21147 37704 52011 333 00202 10105 21129
AAXX 01001 56093 32948 70000 11125 21151 37755 52002 87/// 333 00201
AAXX 01001 52652 32950 31602 11211 21241 38632 40462 52006 83/// 333 05101
AAXX 01001 53927 31/56 92001 11127 21143 40438 57002 710// 333 00100 11007 21131 79999
AAXX 01001 52424 32960 01102 11167 21248 40430 57010 333 05151
AAXX 01001 53926 31/56 92901 11123 21136 40434 54000 710// 333 00153 10020 21141
AAXX 01001 56092 32/60 92201 11110 21135 38352 57005 333 00153 11021 21114 79999 92500
AAXX 01001 52995 32/60 91601 11118 21143 38054 57004 333 00100 11033 21142 92501
AAXX 01001 53821 32976 23401 11141 21193 40436 57001 82/// 333 00251
AAXX 01001 52546 32947 71101 11193 21216 40441 52001 87/// 333 05202 92504
AAXX 01001 52447 32956 02003 11181 21215 40455 57009 333 05205 92506
AAXX 01001 52996 32480 71808 11059 21300 37603 57004 87/// 333 00107 70003 92502
AAXX 01001 52885 32/80 93602 11134 21183 37934 54000 333 00002 11044 21149 79999
AAXX 01001 56082 32/69 90401 11131 21160 37483 52003 333 00204 10085 21169
AAXX 01001 52679 32938 02702 11190 21228 38539 52009 333 05102
AAXX 01001 56071 32/69 91401 11137 21178 36927 52004 333 00103 10029 21171
AAXX 01001 57102 32/71 93401 11039 21064 40391 52001 333 00351 10007 21044 31025 70001
AAXX 01001 57105 32962 92502 11056 21056 40395 52001 333 00352 11006 21062 31003 70004 92502
AAXX 01001 52983 31920 31801 11156 21169 38184 52004 705// 83/// 333 00152 92501
AAXX 01001 52784 32/80 92501 11106 21193 37969 52008 333 00004 11057 21152 92501
AAXX 01001 56095 32/64 92501 11091 21117 38348 52004 333 00454 10001 21097
AAXX 01001 53935 31/49 91102 11093 21124 40420 57001 710// 333 00200 11031 21105 70001
AAXX 01001 53930 32/74 90202 11135 21191 40432 57005 333 00252 11009 21138 79999
AAXX 01001 52661 32980 01401 11158 21215 38302 52014 333 05103
AAXX 01001 53917 32/59 92501 11093 21114 38453 57005 333 00153 11023 21110 70001
AAXX 01001 57111 12/65 90000 11058 21083 40402 52005 69902 333 00354 10019 21073 79999
AAXX 01001 52881 32/80 90703 11169 21216 37573 54000 333 00203 11046 21201
AAXX 01001 52895 31956 70901 11123 21142 40418 52001 710// 87/// 333 00101
AAXX 01001 57110 32/62 90902 11042 21057 40396 52005 333 00352 10005 21044 31036 70002
AAXX 01001 52896 31/55 93201 11132 21141 38336 52001 710// 333 00101 11021 21147 92500
AAXX 01001 57008 32/59 92501 11126 21146 38521 57001 333 00357 11015 21127 31038 70002 92502
AAXX 01001 52998 32/60 92201 11126 21142 37946 57005 333 00002 11030 21142 79999 92503
AAXX 01001 56094 32/68 92901 11024 21088 40372 52003 333 00400 10038 21026 31026
AAXX 01001 53924 32/58 93603 11139 21159 40437 57001 333 00259 10015 21139
AAXX 01001 53908 32/61 92001 11123 21148 38308 57006 333 00255 11023 21146 79999
AAXX 01001 53937 31/56 90202 11123 21152 40374 57002 710// 333 00155 10000 21132 79999
AAXX 01001 51559 32/60 90202 11162 21193 40386 57012 333 05351 11075 21165
AAXX 01001 52118 32978 02901 11218 21249 38301 57005 333 05303 92501
AAXX 01001 57883 32/58 91602 10004 21012 40382 52008 333 00001 10016 21006 31001 70001
AAXX 01001 50564 31939 22702 11133 21227 40259 52003 705// 82/// 333 06413 92505
AAXX 01001 54093 32980 92003 11183 21251 40317 57005 333 05853 11113 21199 92503
AAXX 01001 50861 32/80 92005 11196 21241 40311 57011 333 06053 11135 21203 92502
AAXX 01001 50767 32/68 92202 11194 21245 40306 57008 333 06100 11132 21223
AAXX 01001 50884 32/67 92204 11151 21237 40263 57003 333 06051 11109 21166 92502
AAXX 01001 50247 32957 72903 11133 21230 40317 57006 87/// 333 06425 92515
AAXX 01001 50877 32965 82512 11168 21248 40294 57009 88/// 333 06000
AAXX 01001 50778 32/70 92707 11132 21205 40226 52001 333 06205 11132 21183
AAXX 01001 50844 32957 02702 11183 21269 40343 57009 333 06005
AAXX 01001 50985 32/66 92504 11151 21211 40279 57002 333 06002 11114 21181
AAXX 01001 50862 32963 82003 11197 21244 40313 57011 88/// 333 06053 92502
AAXX 01001 50775 32/80 92706 11130 21243 40249 57005 333 06205 11126 21177 92514
AAXX 01001 50964 32/59 92005 11179 21236 40332 57011 333 05902 11119 21210 92501
AAXX 01001 50442 32964 73203 11150 21259 40303 52003 87/// 333 06209 92503
AAXX 01001 50879 32957 92509 11150 21231 40286 57005 333 06001 11129 21166 91117 91529
AAXX 01001 50842 32/67 92704 11177 21238 40330 57006 333 06103 11126 21206
AAXX 01001 50739 32973 62904 11133 21262 40324 57010 86/// 333 06106
AAXX 01001 50779 32/80 92003 11146 21205 40208 52007 333 06206 11146 21204 92515
AAXX 01001 50878 32/61 92206 11151 21215 40251 57007 333 06200 11115 21163 92503
AAXX 01001 50858 32/60 92504 11201 21252 40334 57009 333 06001 11120 21238 92503
AAXX 01001 50787 32/73 92509 11143 21194 40238 57002 333 06204 11143 21194 92506
AAXX 01001 50788 32966 82508 11141 21214 30148 40239 57004 88/// 333 06204 92503
AAXX 01001 54080 31/56 91802 11216 21258 40368 57009 705// 333 05801 11131 21229 92505
AAXX 01001 50776 32/68 92702 11134 21214 40243 57001 333 06203 11126 21182 92513
AAXX 01001 50755 33/// 9////
AAXX 01001 50750 32/72 92703 11167 21249 40302 57008 333 06205 11129 21214
AAXX 01001 50955 32980 02204 11191 21259 40348 57007 333 05902 92506
AAXX 01001 50854 32975 32203 11200 21256 40331 57007 83/// 333 06001
AAXX 01001 54099 32/80 92705 11126 21252 40297 57005 333 05902 11071 21159
AAXX 01001 56767 32/76 90000 10072 20055 38152 52008 333 05102 10157 20053
AAXX 31151 57028 32/72 93601 11109 21131 38532 52013 333 92501
AAXX 01001 57359 31948 73201 11012 21036 40400 52013 710// 87/// 333 00152 31022
AAXX 01001 58222 31/36 92701 11055 21063 40414 52016 710// 333 05151 10030 21064 31027
AAXX 01001 58423 11/15 90000 11034 21037 40409 52016 69931 710// 333 00003 11034 21059 31001 70011 92514
AAXX 31121 53446 11659 71401 11138 21167 40452 52018 69901 70070 87///
AAXX 01001 50850 32/74 92503 11168 21255 40325 57009 333 06103 11121 21194
AAXX 01001 57769 11/42 90201 11020 21020 40406 52012 69901 770// 333 00001 10002 21030 31001 79999 92502 93427
AAXX 01001 57887 11/15 93602 11009 21009 40385 52006 69942 710// 333 00000 11003 21012 30006 70006 93428
AAXX 01001 57881 11/32 93402 11006 21019 40388 52006 69902 710// 333 05101 10000 21012 31001 79999
AAXX 01001 57776 32/00 9//// 11061 21064 40393 52005 333 00002 31021 92505 93461
AAXX 01001 57981 11/32 93402 11004 21007 40385 52010 69972 720// 333 00000 10001 21008 30005 70009 93427
AAXX 01001 53998 32959 90000 11070 21114 40417 52014 333 05153 10023 21083
AAXX 01001 58005 31932 03401 11098 21120 40420 52013 710// 333 05100
AAXX 01001 52313 32973 00903 11159 21211 38492 57006 333 05106 92501
AAXX 01001 58443 31958 93402 10018 21006 40406 52018 722// 333 05102 10028 21003 30021
AAXX 01001 58446 11/13 90000 10009 20003 40408 52018 69962 710// 333 00002 10014 21010 30002 70009
AAXX 01001 58449 31/55 93401 10021 20014 40402 52018 710// 333 05102 10021 21003 30021 70003
AAXX 01001 58455 11930 93201 10022 20010 40398 52019 69902 710// 333 05102 10028 20000 30019 70001
AAXX 01001 58456 12/68 93201 10027 20003 40402 52019 69902 333 05103 10031 20000 30018 70001
AAXX 01001 58458 12/64 93401 10031 20018 40398 52019 69912 333 05103 10039 20002 30027 70001
AAXX 01001 58464 32/80 93402 10030 21005 40398 52020 333 00003 30026 70002
AAXX 01001 58467 32664 83201 10035 20004 40394 52018 88/// 333 05102 30030 70066
AAXX 01001 58468 31/34 92503 10022 20012 40398 52018 710// 333 00002 10022 20002 31001 70037
AAXX 01001 58472 11470 83409 10055 20022 30272 40374 52014 69902 750// 88/// 333 05102 30043 79999
AAXX 01001 58537 31/48 90000 10014 20011 40390 52013 710// 333 05102 10014 21001 30017 79999
AAXX 01001 58544 11443 90901 10020 20002 40397 52020 69902 710// 333 05102 10025 21002 30023 79999
AAXX 01001 58546 32/41 90000 10018 20009 40395 333 05102 10026 21001 30022 79999
AAXX 01001 58547 31/48 90402 10025 20007 40394 52016 710// 333 05103 10025 20000 30022 70002
AAXX 01001 58548 31/56 90202 10027 20017 40395 52019 710// 333 05103 10027 20002 30021 79999
AAXX 01001 58549 31655 80903 10028 20000 40392 52018 710// 88/// 333 05103 30040
AAXX 01001 58553 11614 82901 10024 20018 40398 52017 69902 750// 88/// 333 05102 30028 70014
AAXX 01001 58558 31/56 90701 10024 20008 40393 52014 710// 333 05102 10024 20002 30025
AAXX 01001 58560 31917 03601 10011 20011 40389 52015 720// 333 05102 10013 21008 30019 70001
AAXX 01001 58561 32/70 92902 10036 20008 40392 52018 333 00002 10038 20015 30031
AAXX 01001 58562 32458 83204 10032 20012 40391 52017 88/// 333 00002 30027 70017
AAXX 01001 58563 31/43 92501 10035 20017 40391 52018 710// 333 00002 10038 20019 30034 70001
AAXX 01001 58565 31/49 93602 10030 20006 40396 52020 710// 333 00002 10045 20009 30026
AAXX 01001 58567 31957 90202 10039 20009 40387 52016 710// 333 05103 10050 20012 30034 70001
AAXX 01001 58570 12/70 93206 10050 20015 40380 52022 69902 333 00001 10065 20039 30046 70001
AAXX 01001 58632 11/55 90202 10021 20015 40387 52015 69902 710// 333 00002 10021 21001 30020 79999
AAXX 01001 58633 31656 80703 10025 20004 30283 40390 52014 710// 88/// 333 05103 30027 79999
AAXX 01001 58642 31/23 93401 10024 20020 40392 52017 710// 333 05102 10027 20000 30036 70001
AAXX 01001 58643 11927 93201 10026 20019 40393 52018 69902 710// 333 05102 10026 20002 30029 79999
AAXX 01001 58644 31/56 90401 10026 20000 40385 52014 710// 333 05103 10034 20000 30028 79999
AAXX 01001 58646 11641 80701 10034 20011 40385 52014 69902 710// 88/// 333 05102 30037 70001
AAXX 01001 58652 32558 80902 10042 20012 40383 52015 88/// 333 05103 30047 79999
AAXX 01001 58654 31/22 90000 10018 20011 40391 52015 710// 333 05102 10018 21002 30029 70002
AAXX 01001 58656 12/64 90701 10085 20027 40356 52018 69902 333 05104 10092 20042 79999
AAXX 01001 58657 32/60 92703 10047 20010 40375 52011 333 05103 10053 20021 30040 79999
AAXX 01001 58659 32/62 93201 10062 20021 30325 40362 52014 333 05103 10074 20030 70001
AAXX 01001 58664 32/66 93602 10059 20014 40364 52015 333 05104 10072 20021 30034 70003
AAXX 01001 58666 32462 80210 10065 20042 30249 40359 52015 88/// 333 00003 30046 79999
AAXX 01001 58742 32658 83601 10031 20013 40387 52014 88/// 333 05102 30037 79999
AAXX 01001 58746 11/55 90202 10033 20033 40365 52013 69902 710// 333 00002 10035 20009 30042 70003
AAXX 01001 58752 12770 83203 10074 20017 40358 52015 69902 88/// 333 05104 70001
AAXX 01001 58760 32775 80205 10080 20033 40353 52020 88/// 333 00003 70001
AAXX 01001 54822 32/61 90000 11082 21118 40413 52010 333 05251 10009 21092
AAXX 01001 57498 31/56 93603 11003 21014 40405 52006 710// 333 00005 10004 21050 31001 92501
AAXX 01001 53466 32/80 90000 11181 21222 40488 52014 333 00555 11068 21197 70002 92500
AAXX 01001 53481 12/68 92502 11244 21274 40521 52017 69901 333 00451 11134 21254 70003 92500
AAXX 01001 53469 11/57 92001 11221 21252 40495 52016 69902 705// 333 00556 11075 21223 70001 92500
AAXX 01001 53545 32/65 90000 11187 21213 40481 52009 333 00455 11071 21195
AAXX 01001 52495 32980 00701 11203 21253 38796 40480 52007 333 00051
AAXX 01001 53276 12956 02203 11230 21258 39021 40530 52009 69902 333 00402 70002
AAXX 01001 54214 32/61 93201 11216 21280 40452 52012 333 05402 11087 21233
AAXX 01001 50527 32980 51804 11292 21325 39562 40466 57004 85/// 333 05705 92503
AAXX 01001 53367 12971 03201 11296 21323 38492 52006 69902 333 00461 11097 21297 70014 92501
AAXX 01001 54313 32/57 90701 11179 21246 40438 52012 333 05404 11080 21223
AAXX 01001 50603 32980 22504 11274 21299 39696 40448 57005 82/// 333 05602
AAXX 01001 53464 32/70 92701 11169 21209 40481 52014 333 00553 11073 21204
AAXX 01001 53513 32957 00902 11187 21214 39140 40479 52004 333 00452
AAXX 01001 50834 32980 12905 11165 21252 40390 57003 81/// 333 05709
AAXX 01001 53357 12/80 90703 11249 21278 40525 52010 69902 333 00461 11100 21269 70006 92501
AAXX 01001 54231 32/80 92903 11198 21252 40402 52004 333 05601 11107 21254
AAXX 01001 53602 32960 21601 11149 21224 38523 52003 82/// 333 00002
AAXX 01001 50924 32/80 92706 11231 21271 40477 52007 333 05300 11155 21238
AAXX 01001 54132 32/68 93204 11151 21237 40413 52002 333 05604 11101 21197
AAXX 01001 53455 31/47 90901 11157 21206 40475 52017 705// 333 00653 11062 21166 79999
AAXX 01001 53384 32/67 93402 11200 21233 40506 52010 333 00306 11153 21259 70008 92500
AAXX 01001 53348 31/55 90000 11217 21246 40500 52005 705// 333 00557 11082 21228 70001
AAXX 01001 53502 32980 70203 11197 21228 40485 52006 87/// 333 00251
AAXX 01001 54223 31/42 92702 11186 21248 40407 52009 705// 333 05502 11094 21210
AAXX 01001 50838 32980 02704 11141 21266 40361 57005 333 05906
AAXX 01001 53343 32/63 92201 11242 21268 38476 52007 333 00458 11130 21242 70003
AAXX 01001 53362 32967 01802 11291 21326 40520 52006 333 00458 70004 92500
AAXX 01001 50937 32/80 93207 11151 21257 40373 57006 333 05804 11100 21188
AAXX 01001 54024 32/72 92908 11192 21252 40441 52005 333 05451 11118 21193
AAXX 01001 53352 12966 21803 11262 21297 40540 52008 69911 82/// 333 00458 70005 92501
AAXX 01001 54012 32964 20000 11322 21357 39181 40550 52010 82/// 333 05100 92501
AAXX 01001 53149 12674 70000 11215 21249 38924 40512 52002 69902 87/// 333 00453 70001
AAXX 01001 53463 32964 03203 11192 21230 39015 40491 52015 333 00557 70002
AAXX 01001 54102 32960 01602 11256 21287 39190 40524 52015 333 00002
AAXX 01001 54047 32/59 92203 11207 21272 40379 57002 333 05704 11099 21244
AAXX 01001 52267 11973 70701 11174 21202 39236 40460 57004 69902 770// 87/// 333 05205 79999 92500
AAXX 01001 50645 32/79 91401 11133 21269 40304 57003 333 06206 11115 21216
AAXX 01001 53289 32/59 90701 11232 21258 40515 52011 333 00453 11103 21233
AAXX 01001 53419 32/66 90402 11188 21227 40478 52005 333 00354 11076 21188
AAXX 01001 54031 32/80 93203 11159 21249 40372 57004 333 05803 11095 21216
AAXX 01001 53475 32/// 9////
AAXX 01001 54208 32959 62703 11210 21252 38890 40485 52021 86/// 333 00008
AAXX 01001 53420 32/66 90902 11190 21223 40464 52004 333 00455 11065 21196
AAXX 01001 53732 31/57 90000 11220 21268 40464 52003 705// 333 00458 11038 21223
AAXX 01001 53433 32/58 92002 11195 21225 40496 52009 333 00557 11079 21198 70006
AAXX 01001 54113 32/80 92912 11164 21249 40429 52009 333 05406 11084 21221
AAXX 01001 54027 32980 23207 11144 21245 39642 40418 52008 82/// 333 05402
AAXX 01001 53336 31914 20701 11230 21263 38844 40507 52003 705// 82/// 333 00460 70003 92501
AAXX 01001 53068 32980 02501 11269 21300 39244 40530 52008 333 00354
AAXX 01001 53512 32/64 91401 11206 21239 40482 52003 333 00252 11082 21212
AAXX 01001 54039 31/32 92902 11198 21267 40387 52001 705// 333 05701 11106 21206
AAXX 01001 53337 32/80 90701 11200 21234 40492 52007 333 00557 11074 21202 70001
AAXX 01001 54234 32/74 93205 11165 21245 40396 52002 333 05602 11104 21183
AAXX 01001 54122 32/80 93404 11157 21244 40409 52009 333 05506 11082 21220
AAXX 01001 54213 32680 33205 11139 21235 40428 52011 83/// 333 05409
AAXX 01001 54204 12/62 92904 11216 21240 40493 52012 69902 333 00205 11105 21267 79999
AAXX 01001 52378 32980 70901 11217 21251 40479 57005 87/// 333 05252
AAXX 01001 50425 32928 82501 11347 21383 40483 57006 88/// 333 05804 92510
AAXX 01001 50833 32/80 92905 11148 21260 40337 57013 333 06504 11102 21187
AAXX 01001 50727 32963 70000 11300 21340 39160 40528 52001 87/// 333 05306 92506
AAXX 01001 50525 32/59 91801 11286 21322 40479 57006 333 05706 11223 21345 92502
AAXX 01001 50548 32955 80202 11160 21271 40331 54000 88/// 333 06110
AAXX 01001 53481 12/68 92502 11244 21274 40521 52017 69912 333 00451 11134 21254 70003 92500
AAXX 01001 58035 31/23 92501 11074 21086 40415 52018 710// 333 05151 10021 21082
AAXX 01001 58339 31655 80202 10013 21025 40407 52018 705// 88/// 333 05103 10020 21021 30012
AAXX 01001 58041 31/56 92703 11016 21058 40409 52015 705// 333 05100 10012 21017
AAXX 01001 52745 32/63 92902 11144 21253 36726 52003 333 00200 11032 21176
AAXX 01001 52866 31921 00000 11148 21170 37636 52002 710// 333 00352
AAXX 01001 53979 32/64 92901 11057 21135 40411 52009 333 05153 10009 21059 31043
AAXX 01001 53985 32/59 90000 11072 21141 40419 52016 333 05154 10015 21101
AAXX 01001 53991 32/61 93402 11066 21148 40415 52013 333 05252 10020 21097
AAXX 01001 57190 31/41 90000 11085 21092 40416 52010 710// 333 00051 10016 21088 31035
AAXX 01001 54901 31/26 90000 11098 21141 40415 52013 710// 333 05255 10019 21102
AAXX 01001 57193 32957 03401 11065 21089 40417 52010 333 00000 31034
AAXX 01001 57195 32/58 90000 11041 21095 40416 52010 333 00001 10025 21049 31010
AAXX 01001 57198 32959 90000 11073 21092 40416 52009 333 00000 10026 21075 31020
AAXX 01001 57281 32/57 90000 11065 21080 40419 52010 333 00100 10022 21066 31035
AAXX 01001 57294 31936 93402 11060 21081 40419 52012 710// 333 00001 10001 21060 31028
AAXX 01001 57299 31942 90000 11055 21060 40417 52013 710// 333 00152 10005 21059 31024
AAXX 01001 58205 31/47 90401 11032 21049 40415 52014 710// 333 00001 10036 21045 31005
AAXX 01001 58208 31955 60000 11033 21046 40415 52013 710// 86/// 333 00000 31016
AAXX 01001 53972 32/60 91801 11079 21129 40412 52007 333 05155 10010 21085
AAXX 01001 57408 31/27 92901 10030 20024 40367 52007 710// 333 00200 10050 20029 30033
AAXX 01001 56144 32777 20000 11100 21202 36913 52013 82/// 333 05203
AAXX 01001 56399 31/39 90000 10040 20033 40367 52007 710// 333 00200 10060 20040 30040
AAXX 01001 56297 31/22 91401 10024 20018 40370 52006 710// 333 00200 10044 20023 30021
AAXX 01001 56473 42/80 90202 10030 21049 40335 52007 333 00102 10077 20007 30028
AAXX 01001 57762 31/56 90000 11010 21020 40404 52013 760// 333 05102 10010 21027 30001 92506
AAXX 01001 57745 11439 80703 11012 21016 30055 40405 52013 60011 760// 88/// 333 00002 30002 70012 92505 93428
AAXX 01001 57972 11407 80000 11023 21024 39916 40388 52007 69902 720// 88/// 333 00001 31002 70002 92500 93430
AAXX 01001 57758 11756 80401 11017 21025 40398 52010 69951 710// 88/// 333 00001 30003 70005 92502 93427
AAXX 01001 57851 31/47 90402 11015 21031 40396 52006 760// 333 00001 11004 21025 31007 92504
AAXX 01001 57740 11/49 90201 11013 21037 40404 52014 69911 721// 333 00002 10007 21034 30002 70001 92501 93427
AAXX 01001 57767 11/58 90701 11016 21032 40397 52007 69902 721// 333 05101 10014 21025 30000 79999 92502 93427
AAXX 01001 57762 31/56 90000 11010 21020 40404 52013 760// 333 05102 10010 21027 30001 92506
AAXX 01001 50674 32/80 92201 11174 21249 40253 57004 333 06407 11168 21246 92506
AAXX 01001 50658 32967 82703 11177 21250 40298 57005 88/// 333 06205
AAXX 01001 50987 32/80 92506 11157 21249 40289 54000 333 05900 11115 21167
AAXX 01001 50880 32/74 92204 11121 21248 40254 57005 333 06102 11110 21145
AAXX 01001 50655 32/65 92705 11165 21232 40298 57005 333 06311 11141 21277 92503
AAXX 01001 54520 32/59 92701 11113 21192 40414 52009 333 05302 11026 21137
AAXX 01001 54700 31/45 93201 11115 21149 40416 52012 710// 333 05152 10012 21125
AAXX 01001 54701 31/47 92901 11086 21169 40419 52011 705// 333 05200 10003 21092
AAXX 01001 54702 31/56 90000 11087 21153 40417 52011 705// 333 05251 10009 21099
AAXX 01001 54703 31/28 92901 11098 21153 40419 52012 710// 333 05153 10011 21103
AAXX 01001 54704 31/47 93401 11105 21153 40417 52010 710// 333 05251 10010 21125
AAXX 01001 54705 31927 43401 11114 21153 40417 52011 710// 84/// 333 05254
AAXX 01001 54706 31/28 90000 11101 21154 40413 52009 710// 333 05251 10011 21105
AAXX 01001 54707 31/30 90000 11110 21136 40418 52010 710// 333 05152 10009 21113
AAXX 01001 54708 31/56 90000 11103 21160 40416 52010 705// 333 05252 10012 21104
AAXX 01001 54710 31/47 90000 11094 21140 40418 52012 710// 333 05252 10009 21094
AAXX 01001 54711 31/44 90000 11102 21135 40417 52012 710// 333 05251 10009 21103
AAXX 01001 54717 31/49 90000 11105 21128 40414 52010 710// 333 05252 10005 21107
AAXX 01001 54719 31/27 92701 11122 21142 40414 52009 710// 333 05253 10003 21123
AAXX 01001 54800 31/11 90201 11137 21172 40416 52012 710// 333 05252 10013 21155
AAXX 01001 54801 31/26 92201 11117 21149 40415 52011 710// 333 05253 10017 21118
AAXX 01001 54804 31/27 92902 11090 21146 40497 52014 710// 333 05252 10018 21122
AAXX 01001 54809 31/26 93201 11088 21160 40416 52013 705// 333 05251 10014 21121
AAXX 01001 54820 31/32 92901 11107 21155 40417 52012 705// 333 05253 10015 21124
AAXX 01001 54267 31931 92201 11229 21259 40399 52001 710// 333 05601 11107 21238
AAXX 01001 54049 32960 02503 11197 21268 40373 57005 333 05701
AAXX 01001 52112 32979 71101 11124 21216 40413 57006 87/// 333 05407
AAXX 01001 51709 31/43 72702 11117 21145 38691 40371 57009 710// 87/// 333 05200
AAXX 01001 51369 31/16 90000 11139 21169 40399 57009 710// 333 05302 11105 21172 92519
AAXX 01001 52203 32959 70401 11143 21208 39454 40411 57009 87/// 333 05304
AAXX 01001 51133 31956 83401 11092 21117 39676 40366 57004 770// 88/// 333 05251 31007 70016 92521
AAXX 01001 51436 32/58 92001 11079 21091 40347 52008 333 05453 10031 21086 31004 70008 92534
AAXX 01001 52101 32980 70901 11149 21193 38352 57010 87/// 333 05311 92502
AAXX 01001 51467 32979 00701 11163 21185 38257 57008 333 05252
AAXX 01001 51747 32959 00000 11221 21271 40429 57015 333 05352
AAXX 01001 58745 11/56 90000 10045 20024 40358 52017 69901 710// 333 00002 10084 20023 30048 79999
AAXX 01001 59673 32573 83612 10102 20059 40282 52016 88/// 333 00001 91119 91502
AAXX 01001 58921 12/57 93601 10064 20052 30097 40355 52020 69941 333 00101 70004
AAXX 01001 58319 32959 80402 10014 21020 40407 52016 88/// 333 05103 30000
AAXX 01001 58427 11/49 90702 10008 21008 40404 52018 69922 710// 333 00002 10008 21012 30000 70002 92502
AAXX 01001 53679 31/22 90000 11171 21194 40458 52014 710// 333 00251 11023 21172
AAXX 01001 57032 31928 92501 11107 21120 40414 52007 710// 333 00154 11002 21114 92502
AAXX 01001 53910 32980 71609 11102 21306 37235 52003 87/// 333 00405 92501
AAXX 01001 55279 32880 12902 11140 21290 35722 54000 81/// 333 00153
AAXX 01001 57853 11439 80401 11011 21025 39964 40399 52010 69931 760// 88/// 333 00002 30000 70004 92503 93427
AAXX 01001 57875 31/41 90203 11011 21012 30210 40389 52006 760// 333 05101 10002 21021 31007
AAXX 01001 57575 32/60 90000 11023 21028 30369 40411 52013 333 00002 10011 21046 31001 92513
AAXX 01001 57860 11430 83601 11016 21029 30031 40395 52009 69931 760// 88/// 333 00001 10003 21022 30004 70003 92502 93427
AAXX 01001 57661 31/32 92701 11010 21010 30349 40414 52016 710// 333 00003 10030 21044 31002 92501
AAXX 01001 57771 31/55 93402 11013 21029 30287 40403 52012 710// 333 00001 11009 21024 30004 70001 92502
AAXX 01001 57754 31/55 90202 11014 21014 30076 40401 52012 722// 333 05101 10005 21027 30000 92509
AAXX 01001 57865 32/66 90205 11011 21039 30146 40395 52007 333 00000 10012 21014 31002
AAXX 01001 57778 11/56 90402 11009 21010 30298 40391 52004 69902 710// 333 05101 10000 21016 30001 79999
AAXX 01001 57846 11/63 90201 10000 21021 39986 40382 52005 69901 760// 333 05102 10012 21020 31002 79999 92501
AAXX 01001 59063 32/64 93404 10001 21013 30032 40371 52013 333 00001 10008 21007 31004
AAXX 01001 57663 31/24 93201 11010 21020 30365 40408 52012 710// 333 00006 10014 21073 30005 92509
AAXX 01001 57978 11/56 93204 11009 21019 30003 40377 52007 69902 710// 333 00001 11004 21016 30000 79999 93427
AAXX 01001 57743 11/56 91601 11005 21021 30176 40404 52013 69912 721// 333 00002 10015 21024 30001 70001 92508
AAXX 01001 57857 11657 80201 11017 21039 39788 40393 52006 69921 760// 88/// 333 05101 30005 70002 92502 93427
AAXX 01001 57673 31755 83603 11015 21015 30316 40400 52009 710// 88/// 333 00001 30000 92507
AAXX 01001 57870 11/57 91801 11007 21022 30197 40394 52005 69902 760// 333 00000 10010 21011 30003 79999
AAXX 01001 57781 11/55 93402 11003 21005 30297 40395 52011 69902 710// 333 00001 10008 21010 30002 70001 92502
AAXX 01001 57566 31/23 92702 11019 21027 30294 40412 52019 710// 333 00007 10022 21084 30002 70049 92507
AAXX 01001 57752 11748 83601 11011 21022 30138 40402 52018 69971 750// 88/// 333 05103 30000 70007 92508 93427
AAXX 01001 57768 31/43 90902 11015 21020 30084 40397 52013 750// 333 00001 10007 21022 31001 92503
AAXX 01001 57969 12/62 91402 10003 21016 30032 40375 52011 69921 333 00001 10040 21006 30010 70011
AAXX 01001 57868 11/79 93401 11002 21038 30247 40395 52008 69902 750// 333 00000 10017 21005 30001 79999
AAXX 01001 57867 31/55 90901 11005 21019 30174 40392 52011 710// 333 00000 10013 21007 30003
AAXX 01001 57657 11/50 90202 11014 21028 30165 40406 52011 69901 710// 333 05103 10025 21044 31001 79999 92505 93427
AAXX 01001 57881 11/32 93402 11006 21019 30255 40388 52006 69902 710// 333 05101 10000 21012 31001 79999
AAXX 01001 57740 11/49 90201 11013 21037 39957 40404 52014 69911 721// 333 00002 10007 21034 30002 70001 92509 93427
AAXX 01001 57776 12/00 9//// 11061 21064 38854 40393 52005 69902 333 00002 31021 79999 92505 93461
AAXX 01001 50742 32963 72703 11154 21257 30089 40310 57006 87/// 333 06205
AAXX 01001 50673 32/80 91102 11242 21277 30116 40244 52005 333 06552 11191 21270 92509
AAXX 01001 54096 32980 02706 11169 21258 39550 40298 57005 333 05901 92501
AAXX 01001 50137 32/80 93205 11179 21260 39936 40341 57001 333 06313 11179 21312
AAXX 01001 50971 32/72 92905 11151 21241 30018 40282 57003 333 06000 11123 21175
AAXX 01001 50774 32967 52905 11176 21255 39924 40282 57002 85/// 333 06205 92501
AAXX 01001 57600 11911 90000 10034 20030 39847 40371 52009 69911 760// 333 00200 10047 20030 30045 70007
AAXX 01001 56478 42/57 91601 11009 21039 38212 52014 333 05201 10148 21020 31024
AAXX 01001 57304 12/58 93201 10014 20008 39723 40366 52004 69912 333 00251 10043 20010 30022 70011
AAXX 01001 56193 32/59 92501 10006 21024 39282 40366 52002 333 00200 10026 20004 30005 79999
AAXX 01001 56459 42968 00000 11007 21098 37688 52015 333 05202
AAXX 01001 56289 31943 93401 10031 20019 39824 40368 52004 710// 333 00200 10051 20030 30025
AAXX 01001 56296 32/57 92201 10023 20023 39754 40368 52005 333 00200 10047 20022 30027
AAXX 01001 56671 32667 41601 10011 21005 38263 52012 84/// 333 05102 31008
AAXX 01001 56295 11/13 91601 10025 20024 39810 40370 52006 69912 710// 333 00200 10046 20023 30029 70001
AAXX 01001 56183 32/78 92202 11008 21060 38739 40354 52005 333 00202 10055 21030 31004
AAXX 01001 56380 31/31 92202 10024 20017 39660 40367 52003 710// 333 00201 10037 20018 30019 70003
AAXX 01001 57605 31/45 91101 10021 20018 39704 40370 52009 710// 333 00100 10041 20020 30027
AAXX 01001 56178 32980 02002 11067 21149 37656 52020 333 05302
AAXX 01001 56475 32474 80702 11010 21042 38414 52007 88/// 333 00104 31021
AAXX 01001 56147 32/80 90000 11092 21138 37058 52014 333 05304 10064 21137
AAXX 01001 56674 32/75 92001 10050 20032 38779 40236 52017 333 05201 10191 20037 30028
AAXX 01001 56038 32668 21801 11183 21236 36108 52007 82/// 333 00002
AAXX 01001 56480 11/61 93201 10027 20012 39672 40369 52006 69901 721// 333 00200 10048 20024 30034 79999
AAXX 01001 56443 32/80 90701 11086 21169 37272 52015 333 05201 10096 21101
AAXX 01001 56286 31/29 91601 10019 20018 39740 40368 52005 710// 333 00200 10042 20018 30015 70002
AAXX 01001 56386 31824 80901 10040 20020 39841 40368 52005 710// 88/// 333 00201 30046
AAXX 01001 56251 32980 03201 11132 21172 37001 52015 333 05202
AAXX 01001 57326 31/48 90401 10034 20019 39880 40366 52008 710// 333 00101 10057 20027 30026
AAXX 01001 57208 32/59 93402 10007 21006 39700 40378 52006 333 00251 10030 21004 31007 70001
AAXX 01001 56357 32980 02502 11149 21226 36485 52008 333 05202
AAXX 01001 56291 31/37 91601 10024 20018 39785 40367 52004 710// 333 00200 10054 20020 30028
AAXX 01001 57420 31/55 91801 10022 20021 39847 40370 52007 710// 333 00100 10042 20019 30025
AAXX 01001 57411 31710 80701 10027 20026 39933 40368 52006 710// 88/// 333 00200 30032
AAXX 01001 56152 32639 13201 11174 21217 36335 52013 81/// 333 05105
AAXX 01001 56496 11/03 90000 10038 20035 39909 40368 52008 60021 760// 333 00200 10064 20036 30043 70025
AAXX 01001 56290 11/23 91401 10020 20016 39728 40367 52005 69902 710// 333 00200 10044 20018 30023 70001
AAXX 01001 56492 11715 83401 10029 20029 39746 40370 52007 69981 710// 88/// 333 00200 30032 70024
AAXX 01001 57329 31/57 90000 10028 20018 39786 40367 52007 710// 333 00100 10052 20025 30026
AAXX 01001 57401 31/12 92701 10025 20024 39887 40367 52006 710// 333 00251 10045 20025 30031 70009
AAXX 01001 57407 11/26 90701 10028 20027 39790 40366 52004 69922 710// 333 00200 10043 20025 30027 70003
AAXX 01001 56172 32980 00901 11098 21155 37396 52020 333 05201
AAXX 01001 56079 32976 11101 11181 21229 36706 52012 81/// 333 00101
AAXX 01001 56158 32/80 92701 11144 21187 36944 52016 333 05202 10082 21163
AAXX 01001 56298 11/12 93401 10026 20026 39845 40366 52004 69901 710// 333 00200 10048 20026 30024 79999
AAXX 01001 56247 32880 01601 11064 21156 37501 52018 333 05301
AAXX 01001 56499 11/22 90000 10036 20036 39905 40366 52009 60011 710// 333 00200 10050 20036 70055
AAXX 01001 57328 31856 81101 10038 20018 39934 40365 52006 710// 88/// 333 00101 30030
AAXX 01001 56474 42/58 92701 11021 21028 38270 52013 333 05202 10144 21037 31031
AAXX 01001 56146 32775 40901 11132 21162 36769 52014 84/// 333 05101
AAXX 01001 57604 11731 81601 10039 20030 39908 40368 52009 69902 710// 88/// 333 00200 30040 79999
AAXX 01001 56257 32980 02001 11135 21206 36308 52009 333 05204
AAXX 01001 56273 11/58 90000 10002 21020 39137 40370 52004 69902 770// 333 00200 10013 20000 30006 79999
AAXX 01001 56390 31/17 90000 10030 20026 39863 40368 52006 710// 333 00200 10050 20027 30033
AAXX 01001 56571 32962 00201 10019 20004 38451 52016 333 05201 30008
AAXX 01001 56593 11/29 92501 10045 20033 30019 40369 52008 69921 710// 333 00200 10060 20044 70019
AAXX 01001 56376 32/80 93602 10024 21060 39037 40339 52006 333 00200 10057 20020 30027
AAXX 01001 57237 32868 83602 10006 21058 39551 40386 52009 88/// 333 00200 31009
AAXX 01001 56578 32/57 91401 10036 20021 38974 40126 52016 333 05253 10135 20035 30017
AAXX 01001 56195 31/55 90000 10017 20013 39695 40369 52004 710// 333 00251 10031 20014 30019 70002
AAXX 01001 57308 31/55 90000 10025 20021 39840 40367 52005 710// 333 00200 10043 20023 30024 70001
AAXX 01001 57309 31/34 91801 10022 20022 39893 40369 52006 710// 333 00251 10037 20021 30027 70001
AAXX 01001 56185 32980 92701 11087 21143 37667 52012 333 00002 10093 21104
AAXX 01001 56186 31/55 92901 10014 20005 39639 40369 52004 710// 333 00200 10044 20013 30017 70002
AAXX 01001 57405 31823 83401 10027 20026 39923 40368 52006 710// 88/// 333 00251 30034 79999
AAXX 01001 57306 32960 80000 10033 20021 39891 40369 52007 88/// 333 00201 30026 70003
AAXX 01001 56592 11/26 91401 10041 20037 39899 40370 52008 60021 760// 333 00200 10054 20040 30048 70027
AAXX 01001 57508 31/55 90000 10039 20038 39989 40366 52007 710// 333 00200 10063 20039 30040
AAXX 01001 56371 32980 92002 10018 21056 38656 40268 52013 333 00004 10128 21022 30022
AAXX 01001 56393 11932 90401 10038 20035 39906 40367 52005 69912 710// 333 00200 10056 20036 30039 70008
AAXX 01001 56391 11/15 90000 10025 20024 39847 40366 52005 69911 710// 333 00251 10054 20025 30034 70001
AAXX 01001 56194 32/64 90901 10024 20021 39630 40367 52004 333 00200 10037 20023 30023 70004
AAXX 01001 56569 32/62 93401 10025 20016 38670 40243 52016 333 05302 10193 20004 31008
AAXX 01001 56670 32/68 90901 10039 20032 38935 40249 52015 333 05201 10208 20027 30007
AAXX 01001 58436 11639 80000 10006 21006 30291 40405 52017 69932 710// 88/// 333 00002 30004 70003 92500
AAXX 01001 59941 32/70 93202 10130 20119 39858 40251 52011 333 00000 10183 20122
AAXX 01001 59856 11/56 93602 10154 20134 30236 40264 52017 69952 710// 333 00003 10154 20124 70020
AAXX 01001 59941 32/70 93202 10130 20119 39858 40251 52011 333 00000 10183 20122
AAXX 01001 52713 32980 03602 11148 21210 36944 54000 333 00103
AAXX 01001 52874 31/55 93203 11114 21156 38047 57001 705// 333 00252 11034 21127
AAXX 01001 52877 31/43 90000 11169 21201 37242 52003 705// 333 00256 10003 21170 92502
AAXX 01001 56067 32580 21401 11181 21222 36557 52012 82/// 333 00155
AAXX 01001 52876 31955 72904 11087 21143 38261 54000 705// 87/// 333 00100 79999 92502
AAXX 01001 56029 32980 20000 11158 21188 36483 52004 82/// 333 05105
AAXX 01001 52818 32958 00000 11135 21227 37277 57002 333 00151
AAXX 01001 52955 32980 01401 11208 21238 37005 52010 333 00253
AAXX 01001 51655 32964 01602 11163 21194 39282 40416 57008 333 05352
AAXX 01001 53852 31/55 90401 11158 21188 39304 40483 52004 710// 333 00352 11006 21158
AAXX 01001 53959 31938 80901 11085 21124 39935 40423 52002 710// 88/// 333 00254
AAXX 01001 54325 32959 90000 11195 21259 30157 40411 52009 333 05606 11048 21250
AAXX 01001 57516 31729 82901 10050 20020 30034 40358 52009 710// 88/// 333 00100 30044
AAXX 01001 59242 12580 83404 10034 20005 30224 40348 52013 69902 88/// 333 00001 30038 79999
AAXX 01001 58822 31/48 90201 10000 21004 39947 40383 52011 721// 333 00101 10005 21011 30010
AAXX 31151 57279 32/58 91602 11007 21055 40422 52011
AAXX 31061 58338 32664 80403 10001 21028 30331 40384 57024 88/// 333 21034
AAXX 01001 54431 31/39 90000 11124 21145 30386 40414 52011 705// 333 05300 11029 21129
AAXX 01001 56952 11/10 92901 10132 20129 39103 40224 52009 60051 760// 333 05104 10158 20098 70130
AAXX 01001 53903 31655 82501 11146 21168 38149 57001 710// 88/// 333 00254 79999 92500
AAXX 01001 57268 31/55 92702 11050 21067 30260 40418 52010 710// 333 00201 10022 21055 31024
AAXX 01001 57589 31/56 90203 11018 21037 30212 40403 52007 710// 333 00002 11001 21032 31001 92507
AAXX 01001 57571 31/11 92201 11036 21046 30360 40410 52013 710// 333 00004 10020 21078 31032 92500
AAXX 01001 54225 31/26 91801 11199 21257 40440 52009 705// 333 05405 11095 21250
AAXX 01001 50936 32966 02702 11193 21274 40358 57006 333 05903
AAXX 01001 50939 31/55 92501 11199 21267 40362 57007 705// 333 05903 11110 21226
AAXX 01001 50940 31/56 92202 11202 21268 40352 57007 705// 333 06002 11109 21224
AAXX 01001 50945 32941 02503 11219 21273 40356 57006 333 05901
AAXX 01001 50946 32/77 92502 11189 21260 40354 57008 333 05903 11109 21219
AAXX 01001 50949 32980 02502 11196 21254 30168 40357 57007 333 05903
AAXX 01001 54041 32956 02201 11229 21283 40371 57006 333 05851
AAXX 01001 54063 32957 02203 11215 21259 40353 57012 333 05903 92506
AAXX 01001 54064 31932 02501 11238 21259 40375 57006 710// 333 05803 92501
AAXX 01001 54065 32/79 92003 11200 21246 40369 57009 333 05807 11115 21265 92500
AAXX 01001 54072 31/55 92204 11209 21255 40362 57010 705// 333 05802 11128 21232 92503
AAXX 01001 54076 32/// 9//// 333 11126 21237
AAXX 01001 54142 31927 02501 11229 21266 40389 54000 705// 333 05602
AAXX 01001 54154 31/55 91802 11187 21244 40384 54000 705// 333 05605 11099 21236 92501
AAXX 01001 54155 31/12 92002 11197 21249 40379 57003 705// 333 05703 11096 21228
AAXX 01001 54156 31/35 92002 11177 21231 40386 52001 705// 333 05607 11109 21244 92501
AAXX 01001 54157 31944 01401 11228 21259 40393 57001 705// 333 05601
AAXX 01001 54164 31/37 91602 11218 21257 40389 57001 705// 333 05602 11099 21233
AAXX 01001 54165 31907 01802 11208 21243 40388 57001 705// 333 05602
AAXX 01001 54169 31/18 90000 11227 21250 40396 54000 710// 333 05601 11116 21242
AAXX 01001 54171 31956 02002 11195 21227 40388 57001 705// 333 05605
AAXX 01001 54172 31/56 92204 11187 21234 40378 57003 705// 333 05701 11118 21199
AAXX 01001 54181 31947 01101 11244 21264 40388 57001 710// 333 05601 92502
AAXX 01001 54195 32968 01402 11213 21246 40350 57004 333 05751
AAXX 01001 54260 32957 01601 11219 21242 40398 57001 333 05602
AAXX 01001 54261 31/55 91801 11240 21272 40404 57001 705// 333 05601 11110 21263
AAXX 01001 54266 31956 02001 11222 21254 40397 54000 705// 333 05601
AAXX 01001 54273 31955 00000 11249 21275 40402 52001 705// 333 05601 92503
AAXX 01001 54276 32970 02501 11264 21297 40414 57001 333 05501 92502
AAXX 01001 54286 32963 00000 11188 21242 40360 57003 333 05602
AAXX 01001 54290 32/59 91601 11173 21239 40353 54000 333 05703 11070 21203
AAXX 01001 54291 32/71 93204 11117 21225 40326 57002 333 05701 11063 21146
AAXX 01001 54292 32980 02705 11150 21243 30002 40348 54000 333 05701
AAXX 01001 54362 31/55 91601 11255 21276 40416 52001 710// 333 05501 11084 21264 92500
AAXX 01001 54386 32980 00702 11248 21288 40414 52004 333 05502 92501
AAXX 01001 59027 12560 82501 10039 20032 40348 52012 69921 88/// 333 00000 10085 20037 30041 70005
AAXX 01001 57964 11/56 90202 11002 21026 40380 52007 69901 774// 333 05101 10012 21014 30003 79999
AAXX 01001 54712 31/56 92001 11089 21100 40412 52011 710// 333 05253 10010 21092
AAXX 01001 54945 32961 20000 11042 21114 40409 52012 82/// 333 05201
AAXX 01001 54824 31/55 92001 11081 21133 40413 52010 710// 333 05251 10010 21095
AAXX 01001 54718 31/46 90000 11108 21140 40413 52011 710// 333 05152 10009 21111
AAXX 01001 54917 31/40 90000 11087 21105 40418 52015 710// 333 05151 10023 21096
AAXX 01001 54912 31/29 91101 11111 21126 40419 52016 710// 333 05154 10019 21119
AAXX 01001 54916 31932 01401 11102 21118 40420 52016 710// 333 00051
AAXX 01001 54738 31/21 92001 11106 21116 40413 52011 710// 333 05253 10007 21113
AAXX 01001 54751 12573 73209 11012 21091 40387 52004 69902 87/// 333 05402 31040 79999
AAXX 01001 54777 11/33 92902 11049 21061 40389 52007 69941 770// 333 05400 11021 21057 31004 70004 92506
AAXX 01001 54925 31/44 93202 11073 21122 40418 52015 710// 333 05102 10006 21088
AAXX 01001 54833 31/33 92501 11062 21082 40413 52011 710// 333 05201 10008 21083
AAXX 01001 54923 31/33 93201 11082 21123 40417 52014 710// 333 05200 10006 21085
AAXX 01001 58020 31/25 90000 11054 21104 40416 52015 705// 333 05100 10021 21059 31049
AAXX 01001 54802 31/32 91801 11112 21143 40411 52012 710// 333 05252 10016 21113
AAXX 01001 54939 31/25 92501 11069 21088 40415 52014 710// 333 05200 10014 21076
AAXX 01001 54736 32/62 90000 11077 21093 40411 52010 333 05252 10005 21081
AAXX 01001 54831 32/64 90000 11089 21120 40405 52010 333 05200 10001 21092
AAXX 01001 54834 31/40 92201 11091 21121 40413 52011 710// 333 05252 10004 21107
AAXX 01001 54814 31/36 90000 11112 21137 40415 52012 710// 333 05152 10021 21124
AAXX 01001 54766 12/64 92704 11040 21074 40390 52007 69902 333 05351 11018 21046 31005 79999 92501
AAXX 01001 54848 31/55 92002 11073 21098 40411 52010 710// 333 05302 11007 21096
AAXX 01001 54759 11/24 92202 11054 21066 40399 52005 69921 722// 333 05302 11013 21075 70005
AAXX 01001 54807 31/18 92001 11088 21129 40417 52015 710// 333 05253 10022 21095
AAXX 01001 54808 31918 81801 11095 21123 40416 52015 710// 88/// 333 05254
AAXX 01001 54915 31/46 90000 11071 21103 40411 52016 710// 333 05152 10021 21073
AAXX 01001 54810 32/63 90401 11107 21156 40410 52009 333 05252 10013 21107
AAXX 01001 54841 31/26 92702 11064 21081 40410 52012 710// 333 05200 10002 21070
AAXX 01001 54910 31/34 92501 11097 21140 40418 52016 710// 333 05154 10023 21102
AAXX 01001 58024 31/49 93201 11076 21116 40420 52017 710// 333 05152 10024 21082
AAXX 01001 54828 32/63 90000 11079 21139 40418 52013 333 05151 10002 21085
AAXX 01001 54837 31/35 91401 11096 21122 40413 52011 710// 333 05251 11001 21101
AAXX 01001 53517 32/57 90000 11177 21232 40466 52003 333 00253 11084 21205
AAXX 01001 53614 32961 70202 11137 21219 39046 40446 52002 87/// 333 00300
AAXX 01001 57303 31/40 90000 10021 20020 40371 52007 710// 333 00200 10031 20019 30027 70005
AAXX 01001 56284 11/11 90000 10016 20015 40367 52003 69912 710// 333 00251 10042 20016 30027 70006
AAXX 01001 57206 32764 73601 11022 21053 40384 52006 87/// 333 00253 31015 70001
AAXX 01001 57413 31/48 90000 10031 20027 40366 52008 710// 333 00200 10059 20031 30050
AAXX 01001 56267 32/80 91102 11087 21157 37453 52018 333 05300 10083 21093
AAXX 01001 56384 11/05 90000 10040 20034 40366 52005 69911 746// 333 10063 20040 70002
AAXX 01001 56385 11/03 92703 11131 21147 37032 52007 69902 749// 333 05162 79999
AAXX 01001 50867 31/24 92204 11208 21253 40334 57008 705// 333 05953 11132 21230 92502
AAXX 01001 50983 32978 72507 11141 21227 40261 57006 87/// 333 06103
AAXX 01001 50741 32/80 93206 11122 21266 40317 52001 333 06107 11101 21193
AAXX 01001 50246 32980 80701 11114 21215 40279 52004 88/// 333 06419 92511
AAXX 01001 57581 31929 70403 11021 21043 40410 52010 710// 87/// 333 00001 30003 92509
AAXX 01001 57453 31/56 90000 11011 21055 40410 52012 710// 333 00104 10040 21050 31009
AAXX 01001 57582 31/43 90901 11012 21031 40413 52014 710// 333 00101 10014 21020 31001 79999 92504
AAXX 01001 57438 32/64 90701 10016 21029 40370 52006 333 00001 10053 20003 30023
AAXX 01001 57338 31957 90701 10046 20021 40365 52009 710// 333 00101 10077 20040 30035
AAXX 31211 55279 32/80 90901 11163 21265 35722 52001 333 00201
AAXX 01001 51716 32960 00000 11138 21164 38998 40387 57011 333 05355
AAXX 01001 51469 32980 02503 11109 21146 38076 57008 333 05351 92517
AAXX 01001 51804 32580 20701 11158 21230 37027 57005 82/// 333 05152
AAXX 01001 51238 11643 41602 11143 21164 40412 57005 69902 750// 84/// 333 05302 79999 92505
AAXX 01001 51477 32964 01407 11131 21223 40392 57008 333 05300
AAXX 01001 51708 31/39 90000 11125 21148 40371 57011 710// 333 05200 11023 21135
AAXX 01001 51365 31916 73601 11155 21182 40419 57005 710// 87/// 333 05308 92514
AAXX 01001 51707 31/37 93201 11134 21155 40381 57009 705// 333 05200 11019 21142
AAXX 01001 51777 32962 02201 11175 21210 39276 40412 57014 333 05355
AAXX 01001 51470 32980 03202 11119 21133 38067 57007 333 05356 31013 92526
AAXX 01001 51156 32971 20402 11193 21217 38743 40424 57005 82/// 333 05255 70022 92505
AAXX 01001 51828 31/32 92901 11104 21155 38693 40352 57024 705// 333 05452
AAXX 01001 51627 31/30 92001 11176 21201 40407 57009 710// 333 05254 11051 21176
AAXX 01001 51434 31/29 91101 11080 21093 40331 57002 710// 333 05255 10018 21080 31006 79999 92531
AAXX 01001 51722 31/33 90000 11151 21184 40398 57009 705// 333 05355 11039 21153
AAXX 01001 51542 31963 00703 11238 21268 37593 57007 770// 333 05101 79999 92509
AAXX 01001 51704 31847 20000 11101 21132 40367 57009 710// 82/// 333 05252
AAXX 01001 51482 32/67 90000 11145 21186 40382 57003 333 05201 11101 21172 92525
AAXX 01001 51241 12780 51601 11096 21119 40382 57009 69931 85/// 333 05251 70018 92515
AAXX 01001 51368 31/17 92701 11145 21169 40409 57006 710// 333 05304 11133 21202 92518
AAXX 01001 51567 31946 00701 11175 21201 40417 57010 710// 333 05352
AAXX 01001 51701 32/80 93603 11181 21256 36634 57012 333 05101 92501
AAXX 01001 51705 32860 42001 11113 21141 37847 57011 84/// 333 05203
AAXX 01001 51377 31/17 90401 11163 21185 40415 57007 710// 333 05304 11125 21209 92518
AAXX 01001 51826 31/45 90701 11127 21179 40303 57023 706// 333 05454 11009 21127
AAXX 01001 51243 11841 70000 11150 21171 39812 40414 57008 69902 710// 87/// 333 05403 70017 92510
AAXX 01001 51642 32960 73603 11161 21197 40413 57006 87/// 333 05354
AAXX 01001 51730 32957 02701 11157 21194 40404 57009 333 05255 92501
AAXX 01001 51711 31736 70000 11171 21193 38040 57008 710// 87/// 333 05253 79999
AAXX 01001 51367 31926 82701 11142 21165 40411 57007 710// 88/// 333 05301 92514
AAXX 01001 51433 32957 00000 11139 21153 40366 52004 333 05357 31033 70003 92516
AAXX 01001 51357 31/18 90000 11136 21168 40411 57005 770// 333 05402 11132 21164 70023 92519
AAXX 01001 58601 31/55 93601 10004 21014 40395 52009 710// 333 10011 20000 30000 70046
AAXX 01001 58527 32957 80401 10015 20003 30310 40391 52013 88/// 333 05102 30018
AAXX 01001 57990 32/79 90201 10018 21004 40373 52012 333 00001 10040 20007 30034
AAXX 01001 57054 31/44 91101 11070 21112 40421 52001 710// 333 00251 11005 21074
AAXX 01001 52855 31/56 90201 11165 21194 37405 52003 710// 333 00454 10032 21166
AAXX 01001 59843 32/57 93602 10118 20095 40275 52013 333 00000 10126 20111
AAXX 01001 59855 11949 03203 10125 20114 40263 52016 69901 710// 333 00001 70004
AAXX 01001 59847 32/67 91106 10131 20103 40262 52012 333 00000 10165 20122
AAXX 01001 59758 32466 80202 10116 20092 30194 40273 52012 88/// 333 00000 79999
AAXX 01001 59845 11419 80701 10106 20101 40280 52014 69921 760// 88/// 333 00000 70005
AAXX 01001 59848 31/18 90201 10114 20108 40275 52017 710// 333 00000 10134 20110 70001
AAXX 01001 59757 32/61 93603 10122 20092 40270 52013 333 00000 10132 20112 79999
AAXX 01001 59940 32/74 93601 10151 20126 40247 52013 333 00000 10192 20146
AAXX 01001 59851 11/56 93403 10120 20104 40274 52017 69911 710// 333 00002 10123 20102 70010
AAXX 01001 59985 11455 70406 10232 20218 30190 40196 52017 60041 780// 87/// 333 00000 70051
AAXX 01001 59842 32/61 90402 10121 20097 40272 52011 333 00000 10127 20118
AAXX 01001 59951 31/56 93603 10137 20126 40257 52019 710// 333 00101 10166 20132
AAXX 01001 59838 32560 70410 10139 20114 30244 40255 52011 87/// 333 00001
AAXX 01001 59945 32/78 92501 10169 20134 40236 52013 333 00000 10219 20160
AAXX 01001 59854 11/25 93401 10109 20104 40276 52019 69912 760// 333 00000 10124 20108 70003
AAXX 01001 59948 32480 70205 10155 20128 39744 40239 52019 87/// 333 00101 91118 91502
AAXX 01001 59954 32580 70405 10165 20127 40244 52016 87/// 333 00101
AAXX 01001 59849 11522 83601 10118 20113 40277 52018 69921 760// 88/// 333 00002 70005
AAXX 01001 57889 32463 80404 11013 21019 40376 52014 88/// 333 00002 30001
AAXX 01001 57564 31/31 90401 11014 21023 40412 52018 710// 333 00005 10041 21065 31007
AAXX 01001 57772 31/43 93602 11011 21031 40404 52010 710// 333 05101 11009 21021 30000 92507
AAXX 01001 57866 11743 83602 11008 21008 30173 40396 52010 69911 710// 88/// 333 00001 31001 70002 93427
AAXX 01001 57774 31757 83602 11011 21028 40401 52007 760// 88/// 333 05101 31007 92501
AAXX 01001 57749 11/56 90401 11013 21024 40405 52013 60021 760// 333 00002 30002 70017
AAXX 01001 57962 31/19 93205 11010 21010 40389 52008 710// 333 00001 11002 21017 30008
AAXX 01001 57554 32857 83601 11002 21030 40408 52015 88/// 333 00003 30001 92501
AAXX 01001 57558 31/56 91101 10000 21023 40411 52015 710// 333 05104 10041 21040 30006
AAXX 01001 57874 31732 83402 11012 21019 40395 52004 710// 88/// 333 05100 30003 92500
AAXX 01001 57872 32558 83201 11004 21021 40394 52005 88/// 333 05101 30002 79999
AAXX 01001 57744 32/58 90701 11006 21020 40404 52010 333 05102 10012 21021 31001 92504
AAXX 01001 57966 12/62 90402 10000 21019 40383 52007 69901 333 00001 10018 21006 30005 79999 93427
AAXX 01001 57642 32658 80201 11002 21028 40403 52010 88/// 333 05104 30003 92504
AAXX 01001 57773 31/55 93402 11008 21020 40403 52018 710// 333 00001 11003 21019 31001
AAXX 01001 57763 31/46 93401 11021 21028 40402 52011 710// 333 05101 11002 21032 30003 92507
AAXX 01001 57584 31540 70402 11015 21018 40411 52015 710// 87/// 333 00001 30004 79999 92510
AAXX 01001 57965 32771 80402 10007 21023 40387 52009 88/// 333 00001 30010
AAXX 01001 57682 32862 82902 11007 21013 40397 52008 88/// 333 00001 30009 92509
AAXX 01001 57662 31849 83403 11020 21033 30217 40414 52016 710// 88/// 333 00004 31001 92510
AAXX 01001 57886 32/69 93403 10006 21012 40377 52006 333 00001 10017 21003 30010 79999
AAXX 01001 57574 31917 73401 11030 21031 40408 52014 710// 87/// 333 00002 31003 70015 92507
AAXX 01001 57766 11434 80901 11027 21027 40403 52011 69911 760// 88/// 333 00000 30002 70001 92504 93427
AAXX 01001 57842 31/56 90401 11013 21038 40395 52014 710// 333 05101 10005 21023 30002 92507 93427
AAXX 01001 57749 11456 80401 11013 21024 40405 52013 60021 760// 88/// 333 00002 30002 70017 92501 93428
AAXX 01001 53882 32958 41402 11101 21176 40436 52008 84/// 333 00151
AAXX 01001 53961 31/49 91601 11094 21140 40429 52005 710// 333 00200 10010 21100
AAXX 01001 53770 31/19 90201 11132 21177 40448 52014 705// 333 00151 11021 21133
AAXX 01001 53862 31/39 90402 11141 21177 40452 52010 710// 333 00100 11014 21146
AAXX 01001 53786 31/55 92701 11201 21228 40486 52014 705// 333 00256 11034 21202
AAXX 01001 53759 31/55 90000 11139 21167 40449 52005 705// 333 00354 11026 21139
AAXX 01001 53782 31/56 93602 11146 21197 40447 52011 705// 333 00051 11049 21148
AAXX 01001 53966 32/57 91801 11086 21148 40429 52002 333 00201 11013 21101
AAXX 01001 53778 31/55 90901 11132 21175 40446 52010 705// 333 00101 11021 21143
AAXX 01001 53753 31/22 90702 11137 21177 40463 52010 705// 333 00453 11017 21141
AAXX 01001 53878 31/56 91102 11124 21190 40442 52008 705// 333 00155 11011 21141
AAXX 01001 53574 31/10 90701 11196 21223 40485 52015 705// 333 00352 11085 21196 70002 92500
AAXX 01001 53783 31/45 91401 11142 21180 40450 52014 710// 333 00001 11037 21162
AAXX 01001 53584 31/20 93601 11173 21204 40475 52017 705// 333 00300 11077 21176
AAXX 01001 53771 31/38 91101 11138 21186 40447 52013 710// 333 00100 11020 21147
AAXX 01001 53760 32/44 90701 11177 21209 40494 52015 333 00353 11047 21177 79999
AAXX 01001 53872 32/58 90401 11164 21206 40462 52011 333 00151 11022 21169
AAXX 01001 53856 31/55 91101 11153 21181 40465 52006 710// 333 00351 11002 21154
AAXX 01001 53576 31/12 90401 11148 21187 40476 52022 705// 333 00303 11075 21183
AAXX 01001 53968 31950 71601 11076 21134 40419 52004 705// 87/// 333 05102
AAXX 01001 53772 31956 50401 11155 21202 39451 40454 52016 705// 85/// 333 00254
AAXX 01001 53776 31/29 90903 11162 21197 40457 52016 710// 333 00252 11026 21162
AAXX 01001 53963 31928 20000 11095 21136 40431 52005 710// 82/// 333 00251
AAXX 01001 53853 32962 73201 11150 21181 40461 52004 87/// 333 00251
AAXX 01001 53673 31955 20201 11148 21223 40458 52014 705// 82/// 333 00251
AAXX 01001 53888 32/61 92203 11125 21168 40447 52008 333 00153 11025 21136
AAXX 01001 53580 31/36 90402 11157 21198 40474 52017 705// 333 00300 11078 21164 79999
AAXX 01001 53865 32/63 93401 11105 21166 40437 52006 333 00200 11033 21115
AAXX 01001 53787 32966 30401 11174 21209 40467 52011 83/// 333 00152
AAXX 01001 53588 32980 02503 11176 21229 37829 52010 333 00100
AAXX 01001 53885 32/60 90901 11105 21172 40441 52008 333 00151 11026 21127
AAXX 01001 53877 31956 80701 11162 21194 40468 52003 710// 88/// 333 00151
AAXX 01001 53573 31/18 91801 11210 21237 40493 52017 710// 333 00351 11089 21211 70002
AAXX 01001 57052 31930 50901 11083 21116 40423 52002 710// 85/// 333 00254
AAXX 01001 53954 31/41 90902 11100 21146 40433 52007 705// 333 00253 10016 21100
AAXX 01001 53967 31/38 90401 11081 21124 40429 52004 710// 333 00253 10012 21112
AAXX 01001 53590 32/59 92501 11217 21244 40494 52017 333 00251 11063 21217
AAXX 01001 53579 32958 70401 11144 21192 40464 52017 87/// 333 00202 11044 21163
AAXX 01001 53676 31925 91801 11186 21226 40473 52016 705// 333 00252 11042 21186
AAXX 01001 53874 31/48 91801 11125 21162 40450 52003 710// 333 00153 10000 21134
AAXX 01001 53582 31/58 92901 11180 21206 40481 52016 710// 333 00301 11073 21206
AAXX 01001 53965 31/34 90701 11096 21134 40431 52004 710// 333 00200 11014 21107
AAXX 01001 53871 32/61 90403 11147 21195 40446 52010 333 00153 11030 21158
AAXX 01001 54539 31945 02702 11087 21155 30391 40404 52007 710// 333 05401
AAXX 01001 54540 31/56 90000 11130 21177 40400 52006 705// 333 05552 11026 21130
AAXX 01001 54541 32/58 93601 11112 21176 40401 52005 333 05501 11018 21124
AAXX 01001 54601 31/50 92901 11140 21184 40416 52009 710// 333 05253 11023 21141
AAXX 01001 54602 31927 80000 11145 21178 40416 52008 710// 88/// 333 05256
AAXX 01001 54603 31/28 92901 11124 21176 40418 52008 710// 333 05251 11021 21131
AAXX 01001 54605 31/49 93601 11128 21160 40414 52009 710// 333 05200 11022 21129
AAXX 01001 54606 31/14 90000 11123 21160 40416 52011 710// 333 05251
AAXX 01001 54607 31/25 93601 11134 21182 40418 52010 710// 333 05254 11018 21138
AAXX 01001 54609 31/19 93401 11109 21178 40420 52011 705// 333 05251 10004 21112
AAXX 01001 54610 31/23 90000 11112 21154 40415 52009 710// 333 05252 11014 21117
AAXX 01001 54611 31/46 92901 11120 21184 40416 52008 705// 333 05251 11025 21126
AAXX 01001 54612 31/39 90000 11138 21159 40415 52007 710// 333 05252 11016 21138
AAXX 01001 54613 31/39 90201 11116 21163 40420 52009 710// 333 05252 11011 21124
AAXX 01001 54614 31/29 90000 11131 21144 40416 52009 710// 333 05253 11001 21134
AAXX 01001 54615 31/55 93401 11117 21136 40415 52008 710// 333 05251 11008 21124
AAXX 01001 54617 31/44 93401 11127 21139 40418 52011 710// 333 05254 10003 21133
AAXX 01001 54618 31933 60000 11093 21127 30395 40414 52009 710// 86/// 333 05251
AAXX 01001 54620 31/20 93601 11123 21173 40418 52010 710// 333 05251 11006 21140
AAXX 01001 54621 32/57 92901 11114 21176 40420 52012 333 05251 10002 21116
AAXX 01001 54624 31955 60000 11104 21119 40412 52007 710// 86/// 333 05253
AAXX 01001 54626 31/24 93201 11131 21144 40418 52009 710// 333 05254 11002 21137
AAXX 01001 54627 32/58 92701 11066 21110 40411 52008 333 05201 11001 21079
AAXX 01001 54628 31/45 93201 11119 21127 40412 52008 710// 333 05252 11002 21126
AAXX 01001 54631 31/15 93403 11084 21156 40416 52011 705// 333 05200 10016 21104
AAXX 01001 54632 31/24 93402 11088 21148 40417 52010 705// 333 05252 10018 21100
AAXX 01001 54633 31/13 93602 11114 21126 40417 52010 728// 333 05200 10008 21128
AAXX 01001 54636 31/41 90000 11125 21165 40414 52008 710// 333 05200 11019 21138
AAXX 01001 54640 31/36 93401 11089 21155 40415 52009 705// 333 05252 10011 21096
AAXX 01001 54644 31/50 93601 11103 21119 40413 52009 710// 333 05252 10000 21105
AAXX 01001 58369 32/74 93403 10036 21006 40396 52021 333 00002 10060 20018 30031
AAXX 01001 58463 12/79 93602 10036 21022 40396 52020 69902 333 00003 10057 20007 30029 79999
AAXX 01001 58367 32/69 92701 10035 21020 40397 52020 333 05102 10051 20011 30028
AAXX 01001 58460 12/74 93403 10031 21011 40399 52019 69902 333 00003 10050 20001 30024 79999
AAXX 01001 58370 32/69 90000 10034 21017 40395 52019 333 00002 10056 20016 30030
AAXX 01001 58462 32/72 93603 10029 21015 40400 52021 333 00003 10049 20002 30026
AAXX 01001 58362 32968 83403 10031 21033 30390 40399 52018 88/// 333 05103 30019 70023
AAXX 01001 58461 32/66 93402 10030 21017 40400 52021 333 00003 10049 20004 30022
AAXX 01001 58366 32/67 93202 10023 21024 40398 52016 333 00003 10061 21005 30020
AAXX 01001 58361 32/69 93602 10034 21028 40397 52019 333 05103 10052 20007
AAXX 01001 58365 32/61 93403 10025 21024 40399 52019 333 00003 10047 21002 30020
AAXX 01001 58474 32/80 93408 10043 20006 40384 52020 333 00002 10057 20028 30040
AAXX 01001 59304 32/66 93402 10050 20025 40327 52018 333 00101
AAXX 01001 59268 32/67 92903 10049 20030 40327 52011 333 00002 10068 20031 70008
AAXX 01001 59462 12766 82702 10058 20049 40322 52011 69921 88/// 333 00001 70005
AAXX 01001 59090 32980 90402 10027 20001 40356 52011 333 00002 10052 20011 30038
AAXX 01001 59658 31757 73403 10085 20057 40282 52014 710// 87/// 333 00002
AAXX 01001 59656 32/64 93603 10102 20063 40281 52012 333 00002 10119 20081
AAXX 01001 59481 32/78 93403 10085 20033 40306 52015 333 00001 10087 20071 79999
AAXX 01001 59663 32668 83603 10090 20067 30175 40288 52016 88/// 333 00001
AAXX 01001 59114 32/75 93203 10057 20019 40336 52020 333 00101 10089 20047 79999
AAXX 01001 59324 32462 72903 10124 20092 40290 52023 87/// 333 00100
AAXX 01001 59485 32767 80403 10087 20043 40300 52014 88/// 333 00001 79999
AAXX 01001 59075 32/80 93401 10032 21008 40353 52006 333 00001 10044 20019 30029
AAXX 01001 59654 32/60 93404 10078 20043 40288 52014 333 00001 10091 20068
AAXX 01001 59480 12967 93403 10083 20035 40306 52014 69902 333 00001 10085 20066 79999
AAXX 01001 59298 32567 80702 10064 20026 40316 52022 88/// 333 00101 79999
AAXX 01001 59306 32/68 92503 10071 20038 40306 52021 333 00101
AAXX 01001 59106 12/80 93403 10043 20009 40338 52020 69921 333 00101 10067 20032 30041 70003
AAXX 01001 57996 32668 80704 10026 21004 40364 52012 88/// 333 00001 30030 79999
AAXX 01001 59493 32764 80203 10087 20041 40295 52018 88/// 333 00151
AAXX 01001 59278 32680 83403 10079 20046 40313 52016 88/// 333 00002 79999
AAXX 01001 59650 32/59 93403 10082 20049 40288 52014 333 00001 10102 20069
AAXX 01001 59271 32560 82901 10053 20036 40325 52012 88/// 333 00001 70008
AAXX 01001 59099 32/80 93602 10033 21003 40350 52018 333 00101 10041 20023 30037 70001
AAXX 01001 59476 32960 00204 10081 20035 40301 52015 333 00002 10084 20064 79999
AAXX 01001 59492 32/61 93405 10065 20033 40310 52021 333 00101 10084 20057
AAXX 01001 59289 32580 70403 10088 20048 40305 52014 87/// 333 00001 79999
AAXX 01001 59284 32/68 93403 10070 20034 40314 52013 333 00002 10076 20054 70003
AAXX 01001 59276 32/79 93602 10070 20034 40320 52015 333 00002 10076 20048 70008
AAXX 01001 59318 32/67 93602 10114 20067 40293 52022 333 00151 10190 20110 79999
AAXX 01001 59750 32/59 90204 10090 20050 40281 52012 333 00002 10112 20073
AAXX 01001 59754 32671 83602 10106 20076 40274 52013 88/// 333 00001
AAXX 01001 59314 32/60 90701 10092 20057 40300 52024 333 00151 10168 20088
AAXX 01001 59475 11/68 90203 10082 20032 40304 52015 69902 760// 333 00001 10086 20071 79999
AAXX 01001 59488 32472 83403 10090 20044 40294 52016 88/// 333 00001
AAXX 01001 59313 32/74 93405 10100 20065 40293 52023 333 00100 10187 20097
AAXX 01001 59312 32/71 93205 10094 20070 40297 52025 333 00151 10178 20089
AAXX 01001 59270 32/80 90202 10053 20019 40326 52011 333 05102 10088 20033 70003
AAXX 01001 59264 32/64 90202 10047 20017 40329 52013 333 00002 10075 20026 70001
AAXX 01001 59280 32558 70208 10060 20020 40319 52013 87/// 333 00001 70005
AAXX 01001 59471 11/46 90401 10061 20059 40318 52013 69912 710// 333 00001 10071 20049 70003
AAXX 01001 59317 32680 60205 10116 20036 40284 52021 86/// 333 00151
AAXX 01001 59316 32677 51401 10116 20065 30289 40293 52022 85/// 333 00100
AAXX 01001 59664 32677 73402 10104 20069 40278 52013 87/// 333 00002
AAXX 01001 59653 32/80 93405 10085 20050 40282 52012 333 00002 10100 20063
AAXX 01001 59107 12671 83403 10031 20011 40343 52019 69922 88/// 333 00101 30037 70007
AAXX 01001 59297 32/67 93601 10075 20035 40312 52018 333 00101 10094 20067
AAXX 01001 59097 12566 70704 10045 20016 40333 52014 69932 87/// 333 00001 30046 70014
AAXX 01001 59288 32/67 93602 10070 20037 40315 52015 333 00002 10076 20051 79999
AAXX 01001 59109 32/80 93403 10052 20009 40336 52020 333 00101 10086 20042 79999
AAXX 01001 59655 32/80 93403 10091 20056 40285 52013 333 00002 10112 20075
AAXX 01001 59473 11/61 93605 10074 20034 40308 52016 69902 720// 333 00002 10080 20057 79999
AAXX 01001 59088 32766 80205 10048 20012 40333 52007 88/// 333 05102 30046 70003
AAXX 01001 59659 32/75 93403 10097 20060 40283 52012 333 00002 10114 20075
AAXX 01001 59502 32970 93405 10085 20043 40289 52021 333 00100 10150 20075
AAXX 01001 59081 32978 90701 10033 20008 40353 52008 333 00001 10059 20019 30046 70001
AAXX 01001 59071 32970 90000 10022 20005 40361 52008 333 00001 10040 20013 30024
AAXX 01001 59469 32/73 90404 10080 20045 40301 52013 333 00001 10081 20066
AAXX 01001 59310 32/63 93204 10086 20044 40307 52026 333 00101 10129 20079
AAXX 01001 59082 12667 80203 10041 20014 30196 40350 52007 69902 88/// 333 00002 30040 70001
AAXX 01001 57988 32/80 93205 10031 21007 40353 52008 333 00001 10056 20021 30030 70001
AAXX 01001 57989 32/58 91601 10030 20015 40358 52011 333 00001 10057 20017 30046 70003
AAXX 01001 59269 32/63 92903 10053 20036 40323 52012 333 00001 10063 20039 70021
AAXX 01001 59478 32763 73604 10083 20035 40298 52015 87/// 333 00001
AAXX 01001 59500 32966 03608 10100 20059 40290 52021 333 00100 10147 20089
AAXX 01001 59319 32/69 93402 10109 20079 40294 52023 333 00151 10174 20099
AAXX 01001 59303 32565 83404 10048 20024 40335 52020 88/// 333 00101 70002
AAXX 01001 59456 32680 70203 10074 20043 40298 52010 87/// 333 00002
AAXX 01001 59072 32/73 93602 10026 21001 40361 52007 333 00001 30029
AAXX 01001 59094 32/78 90404 10039 20002 40345 52010 333 00002 10049 20018 30031 70009
AAXX 01001 59087 12572 20907 10055 20019 40321 52007 69911 82/// 333 00002 30045 70006
AAXX 01001 59487 32/65 93603 10093 20043 40293 52016 333 00001 10110 20080
AAXX 01001 59315 32/65 90000 10099 20075 40296 52022 333 00151 10170 20091
AAXX 01001 59096 12580 70705 10031 20001 40346 52013 69932 87/// 333 00101 30028 70010
AAXX 01001 59501 32980 60204 10098 20050 30267 40289 52022 86/// 333 00100
AAXX 01001 59470 32/68 90203 10072 20056 40313 52015 333 00002 10080 20057 79999
AAXX 01001 59116 12580 83602 10080 20044 40326 52022 69912 88/// 333 00101 70002
AAXX 01001 58605 32/// 9//// 333 10017 21014 30006
AAXX 01001 57609 11/12 90000 10037 20034 40366 52009 69961 710// 333 00251 10068 20036 30046 70009
AAXX 01001 54506 32/59 93401 11125 21183 40417 52009 333 05200 11027 21133
AAXX 01001 58512 33/// 90204 10004 20004 40399 52008 333 05102 10004 21015 30002 70006
AAXX 01001 56991 11521 82002 10041 20041 38521 52014 69971 724// 88/// 333 00002 70051
AAXX 01001 58813 12/78 91102 10009 20000 40379 52010 69931 333 00001 30011 70006
AAXX 01001 50973 32/59 92502 11148 21236 40288 57004 333 05951
AAXX 01001 50566 32/80 92703 11143 21214 40242 52008 333 06508 11135 21227 92519
AAXX 01001 52853 32/63 92901 11219 21246 37091 52002 333 00201 11010 21229
AAXX 01001 59294 32580 70403 10076 20040 40309 52016 87/// 333 00001
AAXX 01001 59290 11/75 90403 10067 20033 40326 52016 69902 721// 333 00001 10077 20054 79999
AAXX 01001 52754 31942 00702 11187 21257 36811 52003 705// 333 00201
AAXX 01001 56307 32/80 91601 11101 21156 36905 52009 333 05103
AAXX 01001 56342 42/80 90000 11162 21193 36405 52010 333 05102 92500
AAXX 01001 56331 32980 02701 11156 21209 36451 52011 333 05103
AAXX 01001 55655 32980 02202 11060 21224 36473 57002 333 05105
AAXX 01001 57065 32/61 92903 11091 21134 40419 52004 333 00053 11012 21095
AAXX 01001 53984 31/55 90201 11089 21134 40415 52013 705// 333 05155 10019 21116
AAXX 01001 57051 12958 61803 11071 21120 40424 52003 60071 86/// 333 00252 70082
AAXX 01001 57056 32/60 91403 11067 21118 40423 52004 333 00351 10008 21082
AAXX 01001 57067 31955 02901 11108 21137 39594 40440 52010 710// 333 00254
AAXX 01001 57070 32/61 90201 11066 21125 40417 52005 333 00000 11010 21079
AAXX 01001 57080 32/60 92202 11060 21131 40413 52003 333 00053 10003 21073
AAXX 01001 57173 32/59 92701 11096 21121 40418 52008 333 00056 11005 21098
AAXX 01001 57181 31956 01401 11093 21109 40422 52007 710// 333 00055
AAXX 01001 57183 31/26 90000 11100 21108 40417 52010 710// 333 00053 10004 21103
AAXX 01001 57390 31/56 90402 11071 21079 40425 52008 710// 333 00200 11019 21079 31006 92505
AAXX 01001 53983 31/57 90000 11106 21123 40418 52013 710// 333 05155 10021 21113
AAXX 01001 57081 32/68 90401 11067 21132 40412 52009 333 05153 10014 21067
AAXX 01001 57188 31921 01801 11073 21089 40420 52011 710// 333 00001 10016 21087
AAXX 01001 57197 31/20 93201 11073 21082 40418 52011 710// 333 00002 10026 21087 31040
AAXX 01001 57298 31/40 90000 11046 21056 40417 52012 710// 333 00101 10006 21056 31019
AAXX 01001 58100 31/33 93401 11065 21095 40417 52010 710// 333 00051 10025 21068 31043
AAXX 01001 57184 31940 92501 11086 21116 40433 52009 710// 333 00054 10000 21089 31046
AAXX 01001 53898 31956 72501 11074 21130 40416 52011 705// 87/// 333 05152
AAXX 01001 53993 32/60 93402 11079 21143 40414 52014 333 05252 10021 21108
AAXX 01001 53995 31/33 90000 11091 21129 40414 52015 710// 333 10021 21097
AAXX 01001 52418 32971 20201 11153 21212 38983 40411 57010 82/// 333 05202
AAXX 01001 52681 32977 03601 11188 21266 38740 40447 52008 333 05151
AAXX 01001 51437 32962 20000 11127 21143 38183 52001 82/// 333 05252 31019 92524
AAXX 01001 51571 31/50 92002 11149 21226 40427 57008 705// 333 05351 11073 21150
AAXX 01001 51644 31916 03401 11156 21189 39045 40406 57005 710// 333 05354
AAXX 01001 51814 31/47 93202 11113 21164 40367 57009 705// 333 05201 11018 21125
AAXX 01001 51526 32957 02902 11202 21243 40435 57011 333 05351
AAXX 01001 51568 32/59 90701 11189 21213 40427 57009 333 05354 11070 21190
AAXX 01001 51463 31912 01801 11157 21179 39202 40399 57005 710// 333 05253 31044 92514
AAXX 01001 54645 32/57 93202 11065 21134 40412 52009 333 05301 11013 21086
AAXX 01001 58049 31/55 92701 11043 21054 40407 52015 710// 333 05100 10038 21047 31036
AAXX 01001 50948 31939 02503 11203 21260 40359 57006 705// 333 05800
AAXX 01001 54049 32/60 92503 11197 21268 40373 57005 333 05701
AAXX 01001 54069 32/60 91803 11194 21237 40377 57006 333 05704 11113 21236 92501
AAXX 01001 54161 32977 02002 11179 21236 30054 40377 57006 333 05704 92501
AAXX 01001 54186 31932 03201 11200 21260 40373 57001 705// 333 05603
AAXX 01001 54187 32/63 90403 11216 21250 40371 54000 333 05602 11093 21231
AAXX 01001 54263 31940 00000 11253 21282 40425 57001 710// 333 05601 92501
AAXX 01001 54267 31/31 92201 11229 21259 40399 52001 710// 333 05601 11107 21238
AAXX 01001 54274 31/16 90701 11232 21257 40402 52001 710// 333 05601 11108 21250
AAXX 01001 54284 31934 00000 11236 21260 40405 57001 710// 333 05502 92505
AAXX 01001 54285 32980 01801 11260 21289 40414 57002 333 05500
AAXX 01001 54374 31648 23602 11215 21245 39889 40408 52002 705// 82/// 333 05601 92502
AAXX 01001 54377 32956 30201 11178 21211 40384 52006 83/// 333 05501
AAXX 01001 57027 31/29 90000 11084 21097 40421 52004 710// 333 00155 11001 21085
AAXX 01001 53950 32958 00000 11059 21137 40419 52001 333 00200 11011 21076
AAXX 01001 57128 31956 90701 11004 21031 40399 52006 710// 333 00200 10010 21009 31001 79999
AAXX 01001 57047 31938 90901 11112 21131 40431 52002 710// 333 00254 11002 21114
AAXX 01001 57248 32/58 91601 11035 21058 40415 52008 333 00351 10005 21045 31004
AAXX 01001 57003 31932 80201 11097 21125 40427 52004 710// 88/// 333 00153
AAXX 01001 53946 32/58 93403 11117 21148 40442 57002 333 00355 11020 21138 79999
AAXX 01001 57126 31957 90401 11006 21035 40402 52006 710// 333 00200 10013 21009 30000 79999
AAXX 01001 57176 32/61 90000 11090 21125 40425 52009 333 00156 11001 21091
AAXX 01001 53992 32/59 90201 11091 21136 40413 52014 333 05253 10018 21107
AAXX 01001 57063 31950 90000 11060 21131 40419 52002 705// 333 00000 11021 21107
AAXX 01001 57091 32958 00000 11067 21114 40415 52011 333 05153
AAXX 01001 57093 32961 90701 11081 21117 40417 52012 333 05100 10012 21087
AAXX 01001 57169 32961 90401 11083 21094 40424 52012 333 00155 10001 21085
AAXX 01001 57177 31/38 90000 11071 21080 40418 52010 710// 333 00001 10009 21077 31031
AAXX 01001 57179 31956 90000 11089 21107 40422 52011 710// 333 00152 10005 21091
AAXX 01001 57191 31/55 91101 11098 21113 40416 52012 710// 333 05153 10006 21099
AAXX 01001 57292 32/59 90000 11051 21077 40415 52010 333 00001 10023 21056 31032
AAXX 01001 58006 31/55 93601 11077 21091 40418 52014 710// 333 05100 10025 21090 31037
AAXX 01001 58007 31956 93401 11075 21096 40415 52011 710// 333 05101 10024 21082
AAXX 01001 59122 32/80 92701 10131 20086 40305 52024 333 00101 10171 20117
AAXX 01001 58819 12/64 92902 10011 21001 40373 52019 69981 333 00100 10036 20008 30028 70008
AAXX 01001 59321 32580 80205 10145 20095 40291 52022 88/// 333 00001
AAXX 01001 59320 32/64 92702 10097 20076 40294 52022 333 00152 10196 20091
AAXX 01001 59126 32670 83602 10139 20081 40306 52023 88/// 333 00001
AAXX 01001 59127 32/62 92903 10135 20088 40301 52023 333 00001 10176 20128
AAXX 01001 57514 31/38 93401 10039 20019 40362 52009 710// 333 00200 10062 20038 30042
AAXX 01001 59113 12563 82002 10053 20027 40335 52021 69902 88/// 333 00101 70001
AAXX 01001 59129 32/68 93604 10139 20085 40300 52022 333 00101 10168 20127
AAXX 01001 59322 32/80 93202 10149 20099 40295 52022 333 00101 10187 20140
AAXX 01001 59125 32/65 90402 10131 20094 40303 52023 333 00101 10166 20120
AAXX 01001 59124 32/62 92901 10133 20105 40306 52024 333 00101 10169 20125
AAXX 01001 58928 12/71 90204 10105 20063 40323 52025 69902 333 00101 10112 20093 79999
AAXX 01001 57738 32/// 90000 11013 21040 40398 52012 333 00001 11001 21027 30003
AAXX 01001 57614 11432 82002 11017 21021 40387 52009 69911 760// 88/// 333 00101 30000 70001 92500 93427
AAXX 01001 57742 31/11 90000 11045 21045 40415 52011 710// 333 00002 11045 21065 31002
AAXX 01001 56793 11424 83401 10008 20004 38273 52010 69921 760// 88/// 333 00151 30030 70002
AAXX 01001 57808 32/67 90203 11006 21033 40359 52007 333 00151 10028 21008 31002
AAXX 01001 56693 11/14 93401 11021 21029 38261 52010 60021 710// 333 00152 31001 70024
AAXX 01001 57718 31824 93602 11032 21039 40387 52008 710// 333 00101 31001 79999
AAXX 01001 57923 32/59 91101 10001 21018 40384 52010 333 05101 10015 21013 30002
AAXX 01001 57728 32/57 90203 11041 21045 40395 52011 333 00002 11026 21062 30000 92500
AAXX 01001 57909 11/43 90201 10027 20020 40355 52017 60011 710// 333 00251 10058 20026 30039 70013
AAXX 01001 57821 12/66 90902 11030 21044 40389 52010 69911 333 05102 11026 21053 30003 70001 92507 93427
AAXX 01001 57908 11/28 90704 11010 21013 40354 52016 69911 750// 333 00151 10042 21010 31001 70002
AAXX 01001 57717 32/74 91801 11029 21045 40395 52011 333 00101 11022 21039 30004 70003
AAXX 01001 56691 11313 83401 11033 21034 37826 52007 69902 766// 88/// 333 00051 30001 79999 93427
AAXX 01001 57712 12664 81601 11025 21042 40394 52010 69901 88/// 333 00101 31005 79999 92505
AAXX 01001 57811 31/44 90401 11035 21049 40384 52008 710// 333 00101 11011 21047 30005 79999
AAXX 01001 57634 32/56 92201 11009 21031 40382 52009 333 00001 11005 21018 30003
AAXX 01001 57816 32/64 90203 11035 21049 38901 40378 52006 333 00101 30004 79999
AAXX 01001 57835 31/56 93201 11016 21029 40397 52011 710// 333 00001 11003 21029 30000
AAXX 01001 57800 11/55 93402 11015 21022 40350 52009 69932 710// 333 00200 10005 21017 30000 70004 93428
AAXX 01001 57907 11446 81401 10015 20012 40334 52013 69961 760// 88/// 333 00100 30034 70014
AAXX 01001 57731 32663 80000 10004 21028 40391 52008 88/// 333 05101 30007 92504
AAXX 01001 57737 32/59 90000 11011 21035 40398 52013 333 00001 10003 21024 30013 92505
AAXX 01001 57623 32/63 90401 11001 21025 40384 52009 333 00101 10007 21008 30015
AAXX 01001 57834 32/60 90000 11021 21041 40397 52012 333 00002 11009 21037 30005 92506
AAXX 01001 57827 32461 83603 11036 21040 40396 52013 88/// 333 00003 30005 79999 92505 93427
AAXX 01001 57911 32957 93201 11035 21046 40412 52005 333 00101 11013 21045 30003 92501
AAXX 01001 57844 32/62 9//// 11020 21058 40395 52014 333 00001 11005 21031 30003 92501
AAXX 01001 57921 32969 00902 11020 21040 40380 52009 333 00002 11009 21044 31013 92501
AAXX 01001 57606 12658 81601 11013 21035 40385 52009 69902 88/// 333 00101 31001 79999
AAXX 01001 57813 11/39 93602 11031 21042 40373 52004 69902 710// 333 00100 11004 21038 30004 79999 92501 93427
AAXX 01001 57720 32/65 90401 11017 21042 40392 52008 333 00001 11011 21028 31001
AAXX 01001 57734 32/65 93201 10000 21030 40393 52010 333 05102 10010 21018 30001 92504
AAXX 01001 57932 11342 80000 10006 20002 40383 52011 69951 760// 88/// 333 00001 30022 70005 92501
AAXX 01001 57729 12580 80403 11007 21031 40398 52011 69981 88/// 333 05102 30001 70008 92501
AAXX 01001 57637 32/58 90201 11016 21032 40396 52008 333 00001 11002 21029 30008
AAXX 01001 57714 12/56 90702 11016 21029 40389 52011 69911 333 00101 11009 21027 31001 70001 92502 93427
AAXX 01001 57825 11461 80402 11022 21047 40400 52014 69922 760// 88/// 333 00002 30002 70003 92505 93427
AAXX 01001 57824 32/75 91101 11025 21045 40385 52008 333 00002 11024 21050 30007 79999 92504
AAXX 01001 57708 11/02 93201 11033 21036 38364 52008 69911 747// 333 00100 11010 21035 30001 70009 92502 93428
AAXX 01001 57732 32/64 90901 11007 21037 40397 52011 333 00001 10009 21021 30001 79999 92504
AAXX 01001 57922 32/// 9////
AAXX 01001 57906 12461 82501 10029 20008 40352 52014 69931 88/// 333 00151 30038 70005
AAXX 01001 57832 31656 80202 11024 21040 40400 52012 710// 88/// 333 00002 30007 92507
AAXX 01001 57905 11/55 90701 10000 21006 40361 52016 69981 710// 333 00200 10022 21003 30012 70013
AAXX 01001 57806 12562 80202 11026 21039 40367 52010 69901 88/// 333 00151 31005 79999 93428
AAXX 01001 57913 31/57 90701 11027 21047 40381 52006 710// 333 00001 11007 21040 31008
AAXX 01001 57625 12458 80000 11015 21034 40392 52010 69912 88/// 333 00101 30004 70001
AAXX 01001 57736 31/20 90000 11020 21020 40400 52009 710// 333 05102 11002 21037 30008 70002 92501
AAXX 01001 57910 12559 80402 11009 21033 40356 52008 69902 88/// 333 00151 31002 79999
AAXX 01001 57903 12/60 93601 10003 21018 40352 52009 69962 333 00151 10039 20002 30019 70007
AAXX 01001 57936 11/45 90000 10003 21008 40372 52011 69931 761// 333 05101 10024 21005 30000 70003 92501
AAXX 01001 57916 11458 81401 10024 21005 40365 52013 69901 721// 88/// 333 00101 30035 79999
AAXX 01001 57805 11460 83601 11014 21030 40374 52006 69911 760// 88/// 333 00151 31005 70002 92500 93427
AAXX 01001 57900 11/26 90702 11016 21016 38542 52011 69911 728// 333 00151 10016 21017 30002 70012
AAXX 01001 57926 11558 80703 10009 21013 40367 52010 60031 760// 88/// 333 00001 30012 70028
AAXX 01001 57803 12658 80701 11026 21046 40381 52008 69901 88/// 333 00100 31005 70003 93427
AAXX 01001 57822 31/57 90902 11031 21039 40412 52012 710// 333 00002 11020 21050 30005
AAXX 01001 57713 33/// 92001 11010 21026 40391 52010 333 00102 11004 21025 30001 70004
AAXX 01001 57809 32/66 93601 11005 21034 40351 52009 333 00151 10033 21008 30003 79999
AAXX 01001 57741 11739 80000 11007 21024 40402 52013 69911 760// 88/// 333 00002 30001 70001
AAXX 01001 56978 11/11 90202 10078 20077 38420 52007 60011 750// 333 00051 10126 20077 70062
AAXX 01001 57295 31/56 93402 11046 21075 40415 52009 710// 333 00002 10014 21061 31021
AAXX 01001 56596 12/60 90201 11001 21014 40369 52008 69951 333 00200 10020 21002 30004 70011
AAXX 01001 51468 32/80 92004 11140 21224 36571 57007 333 05200 11096 21152 92515
AAXX 01001 58826 11/26 93201 10061 20060 40358 52021 69991 760// 333 00002 10066 20046 70012
AAXX 01001 59131 32/80 93605 10120 20077 40309 52017 333 00002 10133 20101
AAXX 01001 59130 32/80 92902 10146 20085 40301 52020 333 00002 10167 20131
AAXX 01001 58850 32/65 93604 10098 20031 40341 52023 333 00003 10099 20064 70001 91117 91536
AAXX 01001 58748 32/73 93202 10091 20041 40348 52017 333 00003 10092 20062
AAXX 01001 58936 11680 73402 10127 20080 40316 52019 69902 721// 87/// 333 00002 79999
AAXX 01001 58821 11/59 90000 10050 20037 40361 52020 69911 721// 333 00001 10069 20041 70003
AAXX 01001 59133 32764 70207 10118 20069 40301 52015 87/// 333 05102 79999
AAXX 01001 58828 11/55 90701 10058 20051 40355 52020 60011 760// 333 00102 10059 20043 70010
AAXX 01001 58837 11228 80000 10059 20055 40354 52021 60021 728// 88/// 333 00001 70027
AAXX 01001 58844 32/71 92703 10094 20070 40337 52021 333 00002 10094 20075
AAXX 01001 58824 11/66 92701 10035 20031 40361 52020 60011 721// 333 00101 10060 20030 30049 70011
AAXX 01001 58735 31/55 93602 10031 20021 40365 52016 710// 333 00002 10054 20015 30032
AAXX 01001 59134 32680 80207 10137 20083 30130 40301 52021 88/// 333 00002
AAXX 01001 58918 32461 82903 10035 20006 40347 52019 88/// 333 00101 30039
AAXX 01001 58843 32580 80204 10103 20036 40343 52020 88/// 333 00003 79999
AAXX 01001 58754 32680 83601 10092 20032 40349 52017 88/// 333 05104 70001
AAXX 01001 58932 31/56 90401 10096 20085 40333 52020 710// 333 00001 10099 20084
AAXX 01001 58933 12258 80202 10042 20036 40350 52017 69921 88/// 333 00002 70004
AAXX 01001 58942 32/80 90407 10098 20062 40325 52021 333 05501 10099 20081
AAXX 01001 58926 11656 80902 10092 20075 40336 52024 69912 710// 88/// 333 00101 70001
AAXX 31181 57816 32/58 90702 11040 21051 38909 40382 52002 333 00151 11008
AAXX 31181 53543 32/58 93601 11151 21176 38647 40444 57001 333 11084
AAXX 31211 56106 32/// 9////
AAXX 31181 56106 32/// 9//// 333 11023
AAXX 01001 50468 32967 63403 11146 21227 30027 40250 52010 86/// 333 06507 92509
AAXX 01001 50953 32961 72503 11197 21251 30175 40339 57007 87/// 333 05902
AAXX 01001 51076 32963 70201 11150 21170 39449 40408 57007 87/// 333 05301 31044 92519
AAXX 01001 51243 11841 70000 11150 21171 39812 40414 57008 69902 710// 87/// 333 05403 70017 92510
AAXX 01001 51288 12980 73202 11129 21150 38377 57008 69932 87/// 333 05201 70005 92514
AAXX 01001 51463 31912 01801 11157 21179 39202 40399 57005 710// 333 05253 31044 92514
AAXX 01001 51573 31955 70202 11118 21213 30365 40420 57008 705// 87/// 333 05300
AAXX 01001 51709 31/43 72702 11117 21145 38691 40371 57009 710// 87/// 333 05200
AAXX 01001 52533 32966 71801 11159 21186 38605 40440 57009 87/// 333 05205 92507
AAXX 01001 52652 32950 31602 11211 21241 38632 40462 52006 83/// 333 05101
AAXX 01001 52866 31921 00000 11148 21170 37636 52002 710// 333 00352
AAXX 01001 52983 31920 31801 11156 21169 38184 52004 705// 83/// 333 00152 92501
AAXX 01001 53463 32964 03203 11192 21230 39015 40491 52015 333 00557 70002
AAXX 01001 53513 32957 00902 11187 21214 39140 40479 52004 333 00452
AAXX 01001 53588 32980 02503 11176 21229 37829 52010 333 00100
AAXX 01001 53772 31956 50401 11155 21202 39451 40454 52016 705// 85/// 333 00254
AAXX 01001 53915 32765 72902 11111 21139 38634 40410 54000 87/// 333 00102
AAXX 01001 54218 32757 62902 11165 21243 39562 40443 52013 86/// 333 05405
AAXX 01001 54337 32980 30000 11139 21223 30310 40400 52008 83/// 333 05501
AAXX 01001 54342 31956 51101 11206 21233 30326 40395 52005 710// 85/// 333 05551
AAXX 01001 54401 12780 12906 11155 21225 39469 40478 52021 69902 81/// 333 00204 79999
AAXX 01001 54471 32768 70901 11114 21212 30388 40394 57001 87/// 333 05503
AAXX 01001 54497 32967 63406 11102 21221 30342 40362 52008 86/// 333 05501
AAXX 01001 54511 31956 60401 11119 21168 30371 40414 52010 705// 86/// 333 05351
AAXX 01001 54823 32978 21102 11064 21156 30192 40416 52010 82/// 333 05100
AAXX 01001 56080 32965 73401 11143 21178 37180 52005 87/// 333 00203
AAXX 01001 56096 32767 70402 11048 21101 39079 40391 52001 87/// 333 00456
AAXX 01001 57083 31956 02501 11082 21123 30267 40414 52008 710// 333 05155
AAXX 01001 56187 11912 82701 10016 20015 40369 52005 69902 710// 88/// 333 00200 30015 79999
AAXX 01001 56778 31556 70000 10066 20063 38170 52010 710// 87/// 333 05105 30046
AAXX 01001 57265 31955 10000 11063 21090 30248 40422 52011 710// 81/// 333 00200 31034
AAXX 01001 57461 31955 71401 11014 21063 30079 40409 52012 710// 87/// 333 00103 31023
AAXX 01001 57494 31921 80000 11051 21056 30381 40413 52008 710// 88/// 333 00103 30003 92503
AAXX 01001 57516 31729 82901 10050 20020 30034 40358 52009 710// 88/// 333 00100 30044
AAXX 01001 57687 32458 83603 11016 21029 30241 40397 52007 88/// 333 05101 30003 92510
AAXX 01001 57816 32664 80203 11035 21049 38901 40378 52006 88/// 333 00101 30004 79999
AAXX 01001 58040 31933 02701 11071 21086 30402 40411 52013 710// 333 05200
AAXX 01001 58102 31945 00000 11061 21079 30361 40414 52011 710// 333 00000 31047
AAXX 01001 58150 32960 03202 11017 21045 30399 40403 52015 333 05151 31027
AAXX 01001 58221 31950 00201 11047 21057 30380 40417 52018 710// 333 05101 31040
AAXX 01001 58238 32958 80000 10009 21036 30366 40413 52020 88/// 333 05103 30008
AAXX 01001 58251 31955 03202 11011 21025 30397 40403 52014 710// 333 05151 31013
AAXX 01001 58362 32968 83403 10031 21033 30390 40399 52018 88/// 333 05103 30019 70023
AAXX 01001 58457 32457 83402 10022 21007 30347 40402 52018 88/// 333 05102 30020 70003
AAXX 01001 58606 32759 80202 10007 21020 30331 40393 52008 88/// 333 05102 30003 92502
AAXX 01001 58752 12770 83203 10074 20017 40358 52015 69902 88/// 333 05104 70001
AAXX 01001 58847 11573 82901 10098 20065 30232 40338 52021 69902 760// 88/// 333 00002 79999
AAXX 01001 59117 32676 82904 10061 20029 30187 40333 52019 88/// 333 00101 79999
AAXX 01001 59134 32680 80207 10137 20083 30130 40301 52021 88/// 333 00002
AAXX 01001 59287 32965 60204 10070 20032 30221 40310 52017 86/// 333 00001
AAXX 01001 59316 32677 51401 10116 20065 30289 40293 52022 85/// 333 00100
AAXX 01001 59431 32580 80405 10047 20014 30137 40330 52014 88/// 333 00001 30045
AAXX 01001 59644 31556 83605 10059 20031 30276 40294 52015 710// 88/// 333 00001
AAXX 01001 59758 32466 80202 10116 20092 30194 40273 52012 88/// 333 00000 79999
AAXX 31211 53543 31/56 90000 11160 21178 40447 57007 710// 333 70001
AAXX 31181 55585 32/80 90000 11139 21206 36417 52008 333 05201 10037
AAXX 01001 50136 32980 82203 11170 21252 39752 40349 57001 88/// 333 06322 92524
AAXX 01001 50745 32980 72702 11159 21256 30121 40322 57007 87/// 333 06107
AAXX 01001 50774 32967 52905 11176 21255 39924 40282 57002 85/// 333 06205 92501
AAXX 01001 50788 32966 82508 11141 21214 30148 40239 57004 88/// 333 06204 92503
AAXX 01001 51133 31956 83401 11092 21117 39676 40366 57004 770// 88/// 333 05251 31007 70016 92521
AAXX 01001 51431 31918 83601 11043 21055 39514 40341 57002 710// 88/// 333 05252 31004 70002 92516
AAXX 01001 51747 32959 00000 11221 21271 40429 57015 333 05352
AAXX 01001 52203 32959 70401 11143 21208 39454 40411 57009 87/// 333 05304
AAXX 01001 52418 32971 20201 11153 21212 38983 40411 57010 82/// 333 05202
AAXX 01001 52681 32977 03601 11188 21266 38740 40447 52008 333 05151
AAXX 01001 53564 32960 30202 11186 21206 39150 40476 52013 83/// 333 00554
AAXX 01001 53614 32961 70202 11137 21219 39046 40446 52002 87/// 333 00300
AAXX 01001 53646 32980 73202 11177 21217 39001 40462 52006 87/// 333 00556
AAXX 01001 53798 32960 62703 11084 21172 30175 40418 52011 86/// 333 05251
AAXX 01001 53845 31956 30401 11149 21169 38974 40445 52002 710// 83/// 333 00354 79999
AAXX 01001 53959 31938 80901 11085 21124 39935 40423 52002 710// 88/// 333 00254
AAXX 01001 54094 32972 02206 11175 21242 39926 40339 57007 333 05803 92501
AAXX 01001 54102 32960 01602 11256 21287 39190 40524 52015 333 00002
AAXX 01001 54161 32977 02002 11179 21236 30054 40377 57006 333 05704 92501
AAXX 01001 54292 32980 02705 11150 21243 30002 40348 54000 333 05701
AAXX 01001 54374 31648 23602 11215 21245 39889 40408 52002 705// 82/// 333 05601 92502
AAXX 01001 54423 31955 20000 11163 21237 39866 40428 52013 705// 82/// 333 05404
AAXX 01001 54618 31933 60000 11093 21127 30395 40414 52009 710// 86/// 333 05251
AAXX 01001 54843 31931 22901 11058 21100 30381 40411 52012 710// 82/// 333 05300
AAXX 01001 54909 31925 21601 11090 21120 40419 52014 710// 82/// 333 05100
AAXX 01001 56029 32980 20000 11158 21188 36483 52004 82/// 333 05105
AAXX 01001 57127 32959 80901 11002 21041 39761 40402 52005 88/// 333 00201 31010 79999
AAXX 01001 57131 31935 10202 11073 21117 40422 52005 710// 81/// 333 00254
AAXX 01001 48855 12560 80000 10208 20172 30219 40227 52017 69902 888// 333 01020 20192 3/019 58003 84895 8869 7
AAXX 01001 48848 32598 83203 10143 20118 30244 40252 53011 888// 333 01015 20136 3/014 59002 82895 88697
AAXX 01001 48852 11498 82702 10164 20155 30228 40238 52017 60062 72162 888// 333 01017 20155 3/016 59002 8689 4 88697
AAXX 01001 58464 12680 83402 10030 21005 40398 52020 69902 88/// 333 00003 30026 70002
AAXX 31151 58500 32/66 92501 11002 21032 40411 52007
AAXX 31031 58557 41456 80203 10011 21008 40396 57007 72000 88///
AAXX 01001 57475 32/57 90401 11022 21042 40410 52008 333 00104 10033 21060 31016 92500
AAXX 01001 57475 31/57 90401 11022 21042 40410 52008 710// 333 00104 10033 21060 31016 92500
AAXX 01001 57762 11/56 90000 11010 21020 40404 52013 69902 760// 333 05102 10010 21027 30001 79999 92506
AAXX 01001 53944 31/45 92901 11124 21158 40442 57001 710// 333 00356 11002 21127 79999
AAXX 31061 53352 11658 73604 11132 21175 38709 40440 57005 69931 77077 87/// 333 21209
AAXX 01001 57740 11/49 90201 11013 21037 39957 40404 52014 69912 721// 333 00002 10007 21034 30002 70001 92509 93427
AAXX 01001 57475 31/57 90401 11022 21042 30368 40410 52008 710// 333 00104 10033 21060 31016 92500
AAXX 01001 57298 31/40 90000 11046 21056 30343 40417 52012 710// 333 00101 10006 21056 31019
AAXX 31061 53352 11658 73604 11132 21175 40440 57005 69931 77077 87/// 333 21209
AAXX 01001 57475 31/57 90401 11022 21042 40410 52008 710// 333 00104 10033 21060 31016 92500
AAXX 01001 58415 32/58 90402 10006 21012 40404 52010 333 05102 10021 21016 30002
AAXX 01001 57728 32/57 90000 11041 21045 40395 52011 333 00002 11026 21062 30000 92500
AAXX 31001 56792 11901 80701 11007 21008 38428 52011 69902 745// 88/// 333 00002 30000 79999 92501 93427
AAXX 01001 57768 31/43 90902 11015 21020 30084 40397 52013 750// 333 00001 10007 21022 31001 92503
AAXX 01001 53543 31956 01601 11165 21187 38647 40466 52007 710// 333 00455 70001
AAXX 01001 52323 32970 21401 11190 21225 38282 52001 82/// 333 05207 92501
AAXX 01001 58507 12664 80203 10001 21023 30251 40402 52008 69902 88/// 333 05102 30001 70001 92507
AAXX 01001 58822 11/48 90201 10000 21004 40383 52011 69902 721// 333 00101 10005 21011 30010 79999
AAXX 31211 53543 31/56 90000 11160 21178 40447 57007 710// 333 70001
AAXX 01001 58443 11958 93402 10018 21006 40406 52018 69901 722// 333 05102 10028 21003 30021 79999
AAXX 01001 53950 32958 00000 11059 21137 40419 52001 333 00200 11011 21076
AAXX 01001 57554 32857 83601 11002 21030 40408 52015 88/// 333 00003 30001 92505
AAXX 01001 57776 12/00 93603 11061 21064 40393 52005 69902 333 00002 31021 79999 92505 93461
AAXX 01001 57722 32580 80402 11025 21039 40397 52009 88/// 333 00001 30006 70675
AAXX 01001 54778 11/48 92503 11050 21074 40386 52009 69902 722// 333 05300 11014 21063 31021 79999
AAXX 01001 57883 32/58 91602 10004 21012 40382 52008 333 00001 10016 21006 31001 70001
AAXX 01001 57636 32961 91401 11006 21025 40399 52009 333 00001 10012 21020 30004 70001 92500
AAXX 01001 57719 11/02 90202 11047 21053 40387 52007 69902 749// 333 00101 11035 21061 30002 79999 92504 93432
AAXX 01001 57960 11/55 90205 11005 21021 40385 52007 69901 770// 333 05100 10018 21009 31006 79999
AAXX 01001 57859 11/68 93603 11010 21042 40383 52006 69902 770// 333 05101 10005 21023 30008 79999 93427
AAXX 31181 55585 32/80 90000 11139 21206 36417 52008 333 05201 10037
AAXX 01001 58507 12664 80203 10001 21023 40402 52008 69902 88/// 333 05102 30001 70001 92507
AAXX 01001 54616 31/42 90000 11131 21145 40412 52006 710// 333 05252 11002 21137
AAXX 31121 53352 11658 60000 11191 21218 40502 52018 69911 77070 86/// 333 92501
AAXX 01001 57634 31/56 92201 11009 21031 40382 52009 710// 333 00001 11005 21018 30003 92500
AAXX 01001 57754 31/55 90202 11014 21014 40401 52012 722// 333 05101 10005 21027 30000 92509 93427
AAXX 01001 57887 11/15 93602 11009 21009 40385 52006 69942 710// 333 00000 11003 21012 30006 70006 93428
AAXX 01001 54604 31/23 93601 11136 21172 40416 52009 710// 333 05252 11006 21140
AAXX 01001 54616 31/42 90000 11131 21145 40412 52006 710// 333 05252 11002 21137
AAXX 01001 51839 31946 10000 11139 21174 40372 57017 710// 81/// 333 05454
AAXX 01001 57175 32/58 93402 11047 21115 30104 40416 52010 333 00152 11003 21057
AAXX 01001 58464 12680 83402 10030 21005 30391 40398 52020 69902 88/// 333 00003 30026 70002
AAXX 01001 58510 11/56 93403 10003 20000 40398 52008 69902 710// 333 05101 10007 21011 31001 79999 92505
AAXX 01001 58524 31/56 93601 10009 21004 40390 52014 710// 333 05102 10012 21011 30001
AAXX 01001 52267 11973 70701 11174 21202 39236 40460 57004 69902 770// 87/// 333 05205 79999 92500
AAXX 01001 53562 12/60 92001 11210 21240 40484 52016 69902 333 00556 11067 21212 70004 92500
AAXX 01001 57558 31/56 91101 10000 21023 40411 52015 710// 333 05104 10041 21040 30006 92501
AAXX 01001 57544 32/71 90000 11003 21035 40408 52013 333 00001 10008 21016 30005 92500
AAXX 01001 57744 32/58 90701 11006 21020 40404 52010 333 05102 10012 21021 31001 92504
AAXX 01001 57960 31/55 90205 11005 21021 40385 52007 770// 333 05100 10018 21009 31006
AAXX 01001 55585 32980 00000 11167 21217 36430 52009 333 05102
AAXX 01001 55279 32880 12902 11140 21290 35722 54000 81/// 333 00153
AAXX 01001 57377 32/// 90205 11018 21077 40407 52005 333 00002 10033 21033 31031
AAXX 31211 56106 32/// 9////
AAXX 31181 56106 32/// 9//// 333 11023
AAXX 31061 53352 11658 73604 11132 21175 40440 57005 69931 77077 87/// 333 21209
AAXX 01001 57827 32461 83603 11036 21040 40396 52013 88/// 333 00003 30005 79999 92505 93427
AAXX 01001 57829 11/55 93403 11041 21048 40392 52009 69901 710// 333 00002 11032 21061 30001 70001 92502 93432
AAXX 01001 51145 11/18 93401 11094 21113 40369 57006 69941 710// 333 05251 11058 21115 31018 70026 92525
AAXX 01001 53732 31/57 90000 11220 21268 40464 52003 705// 333 00458 11038 21223
AAXX 01001 58377 32/64 93402 10024 21037 40399 52017 333 00003 10049 21008 30017
AAXX 01001 57647 31557 80000 11005 21022 39888 40403 52012 710// 88/// 333 00001 30007 92506
AAXX 01001 57809 12/66 93601 11005 21034 40351 52009 69902 333 00151 10033 21008 30003 79999
AAXX 01001 57273 31/49 90000 11068 21090 30262 40390 52011 710// 333 00100 10027 21069
AAXX 01001 58601 31/55 93601 10004 21014 40395 52009 710// 333 10011 20000 30000 70046
AAXX 01001 57825 11461 80402 11022 21047 39501 40400 52014 69922 766// 88/// 333 00002 30002 70003 92505 93427
AAXX 01001 57936 11/45 90000 10003 21008 30043 40372 52011 69931 761// 333 05101 10024 21005 30000 70003 92501
AAXX 01001 58502 11/55 92701 11006 21007 30305 40403 52008 69902 710// 333 05102 10002 21021 30000 79999 92510
AAXX 01001 57396 32/66 90402 11014 21054 30246 40414 52011 333 00103 10011 21045 31003
AAXX 01001 58337 31/31 90000 10005 21002 30330 40410 52020 710// 333 05103 10005 21022 30015
AAXX 01001 58508 11/44 90000 10000 21017 40400 52008 69912 710// 333 05102 10015 21017 30006 70001
AAXX 31031 58464 32665 83204 10022 20007 40391 57010 88///
AAXX 31061 58464 32679 83405 10042 20011 40371 57020 88/// 333 21003
AAXX 01001 57475 32/57 90401 11022 21042 40410 52008 333 00104 10033 21060 31016 92500
AAXX 01001 48863 11597 83402 10204 20202 30201 40212 52014 60102 76166 888// 333 01021 20200 3/021 58007 8389 5 88696 96160
AAXX 01001 50844 32957 02702 11183 21269 40343 57009 333 06005
AAXX 01001 50854 32975 32203 11200 21256 40331 57007 83/// 333 06001
AAXX 01001 50968 31620 22502 11207 21249 40364 57005 705// 82/// 333 05802 92502
AAXX 01001 51379 31713 20000 11211 21239 40415 57006 705// 82/// 333 05302 92517
AAXX 01001 51467 32979 00701 11163 21185 38257 57008 333 05252
AAXX 01001 53480 11919 00000 11224 21258 40511 52017 69902 705// 333 00300 70002 92500
AAXX 01001 53673 31955 20201 11148 21223 40458 52014 705// 82/// 333 00251
AAXX 01001 53698 31949 73602 11081 21167 40419 52011 705// 87/// 333 00001
AAXX 01001 53898 31956 72501 11074 21130 40416 52011 705// 87/// 333 05152
AAXX 01001 54308 32976 73202 11156 21205 40445 52017 87/// 333 05208
AAXX 01001 54602 31927 80000 11145 21178 40416 52008 710// 88/// 333 05256
AAXX 01001 54725 32958 80000 11119 21138 40414 52011 88/// 333 05254
AAXX 01001 54751 12573 73209 11012 21091 40387 52004 69902 87/// 333 05402 31040 79999
AAXX 01001 54916 31932 01401 11102 21118 40420 52016 710// 333 00051
AAXX 01001 57014 32962 73201 11085 21100 40407 52005 87/// 333 00356 70002
AAXX 01001 57025 31956 82001 11092 21119 40421 52006 710// 88/// 333 00153 79999
AAXX 01001 57046 32980 11402 11094 21231 38004 52002 81/// 333 00301 70001 92501
AAXX 01001 58208 31955 60000 11033 21046 40415 52013 710// 86/// 333 00000 31016
AAXX 01001 56146 32775 40901 11132 21162 36769 52014 84/// 333 05101
AAXX 01001 56444 32980 02702 11090 21125 36846 52008 333 05101
AAXX 01001 56492 11715 83401 10029 20029 39746 40370 52007 69981 710// 88/// 333 00200 30032 70024
AAXX 01001 56571 32962 00201 10019 20004 38451 52016 333 05201 30008
AAXX 01001 57799 32762 80201 10011 20007 30294 40387 52004 88/// 333 05102 30020
AAXX 01001 57866 11743 83602 11008 21008 30173 40396 52010 69911 710// 88/// 333 00001 31001 70002 93427
AAXX 01001 57957 11462 83603 10012 21014 30153 40364 52013 69901 760// 88/// 333 00001 30013 79999
AAXX 01001 57993 32760 83402 10013 20000 30204 40381 52013 88/// 333 00001 30021
AAXX 01001 58027 31955 00000 11072 21097 30360 40416 52014 710// 333 00052 31046
AAXX 01001 58141 31955 03201 11044 21061 40411 52014 710// 333 05101 31017
AAXX 01001 58265 32567 73204 10023 21024 30385 40391 52011 87/// 333 05104 30014 70004
AAXX 01001 58472 11470 83409 10055 20022 30272 40374 52014 69902 750// 88/// 333 05102 30043 79999
AAXX 01001 58477 12480 80000 10051 20016 30336 40383 52020 69902 88/// 333 00001 30045 79999
AAXX 01001 58527 32957 80401 10015 20003 30310 40391 52013 88/// 333 05102 30018
AAXX 01001 58633 31656 80703 10025 20004 30283 40390 52014 710// 88/// 333 05103 30027 79999
AAXX 01001 58666 32462 80210 10065 20042 30249 40359 52015 88/// 333 00003 30046 79999
AAXX 01001 58725 11657 82502 10024 20014 30098 40375 52017 69912 710// 88/// 333 00001 30037 70001
AAXX 01001 58921 11457 83601 10064 20052 30097 40355 52020 69941 760// 88/// 333 00101 70004
AAXX 01001 59082 12667 80203 10041 20014 30196 40350 52007 69902 88/// 333 00002 30040 70001
AAXX 01001 59211 11637 81601 10060 20043 30124 40343 52016 69901 710// 88/// 333 00100 79999
AAXX 01001 59265 32757 82902 10042 20014 30185 40331 52014 88/// 333 00002 30049 70002
AAXX 01001 59293 12772 80705 10053 20014 30243 40334 52018 69912 88/// 333 00101 70002
AAXX 01001 59501 32980 60204 10098 20050 30267 40289 52022 86/// 333 00100
AAXX 01001 59663 32668 83603 10090 20067 30175 40288 52016 88/// 333 00001
AAXX 01001 59838 32560 70410 10139 20114 30244 40255 52011 87/// 333 00001
AAXX 01001 59948 32480 70205 10155 20128 39744 40239 52019 87/// 333 00101 91118 91502
AAXX 01001 59981 11463 80407 10237 20208 30189 40196 52018 69951 780// 88/// 333 00001 70013
AAXX 01001 47401 11/50 72804 11039 21084 30129 40144 52008 69902 78582 872// 333 21039 4/008 79999
AAXX 01001 47412 11/60 63004 11019 21074 30136 40169 51002 60012 70282 86200 333 21036 4/032 70025
AAXX 01001 47420 15/70 /2502 11037 21071 30112 40147 58006 60002 333 21060
AAXX 01001 47426 17/18 /3403 11025 21036 30114 40163 58006 60022 77170 333 21035
AAXX 01001 47582 11/65 72907 10030 21047 30209 40236 51004 60022 78582 873// 333 20004 4/010 70025
AAXX 01001 47590 12/65 22602 10046 21034 30174 40229 58002 69902 82330 333 20003 79999
AAXX 01001 47600 17/68 /2004 10019 21003 30261 40270 51004 60032 76760 333 20005
AAXX 01001 47648 12/80 23105 10051 21025 30217 40252 51002 60002 82800 333 20011 70000
AAXX 01001 47662 12/81 13303 10058 21067 30228 40258 51006 60002 81500 333 20009 70000
AAXX 01001 47678 17/70 /2706 10107 20033 30082 40268 51020 69902 70060 333 20068
AAXX 01001 47740 17/70 /3001 10029 20028 30239 40275 58004 60022 72360 333 21018
AAXX 01001 47778 15/70 /3001 10073 21006 30208 40294 51006 60002 333 20036
AAXX 01001 47807 11/70 62403 10080 21002 30293 40312 53011 69902 70282 86800 333 20039 79999
AAXX 01001 47827 12/84 73202 10074 20025 30272 40312 53010 60002 878// 333 20037 70000
AAXX 01001 47843 17/70 /2905 10071 20020 30297 40331 53014 69902 76160 333 20067
AAXX 01001 47909 11/75 70502 10165 20095 30289 40299 51019 69902 78082 872// 333 20157 79999
AAXX 01001 47918 11/50 80609 10187 20176 30255 40273 52024 60102 78182 888// 333 20184 70130
AAXX 01001 47936 11/80 70604 10180 20106 30232 40292 51017 69902 70262 82830 333 20166 79999
AAXX 01001 47945 11/70 60105 10195 20118 30258 40283 51019 69902 702// 82830 333 20184 79999
AAXX 01001 47971 11/75 60504 10199 20101 30242 40252 51014 69902 72581 86230 333 20176 79999
AAXX 01001 47991 16/// /0105 10227 20148 30200 40210 50009 69902 333 20210
AAXX 01001 50353 31956 70203 11158 21236 30024 40257 52006 705// 87/// 333 06419 92509
AAXX 01001 50557 32957 72703 11139 21249 39966 40293 57004 87/// 333 06313 92501
AAXX 01001 50756 32960 62502 11195 21251 30002 40341 57008 86/// 333 06101 92500
AAXX 01001 50949 32980 02502 11196 21254 30168 40357 57007 333 05903
AAXX 01001 50963 31736 62002 11213 21246 30180 40333 57007 705// 86/// 333 05953
AAXX 01001 50978 32963 22206 11164 21244 39929 40295 57002 82/// 333 05951 92500
AAXX 01001 51156 32971 20402 11193 21217 38743 40424 57005 82/// 333 05255 70022 92505
AAXX 01001 51644 31916 03401 11156 21189 39045 40406 57005 710// 333 05354
AAXX 01001 51656 31934 00701 11170 21199 39262 40416 57007 710// 333 05254
AAXX 01001 51886 32974 20000 11173 21221 37146 57004 82/// 333 00153
AAXX 01001 52602 32980 02701 11198 21256 37312 57001 333 00102
AAXX 01001 52713 32980 03602 11148 21210 36944 54000 333 00103
AAXX 01001 52754 31942 00702 11187 21257 36811 52003 705// 333 00201
AAXX 01001 52818 32958 00000 11135 21227 37277 57002 333 00151
AAXX 01001 52836 32980 01802 11163 21226 36934 52001 333 00252 92505
AAXX 01001 52955 32980 01401 11208 21238 37005 52010 333 00253
AAXX 01001 53068 32980 02501 11269 21300 39244 40530 52008 333 00354
AAXX 01001 53276 12956 02203 11230 21258 39021 40530 52009 69902 333 00402 70002
AAXX 01001 54135 32963 02702 11194 21256 30145 40391 52004 333 05651
AAXX 01001 54236 32960 02901 11183 21253 30281 40392 52006 333 05600
AAXX 01001 54539 31945 02702 11087 21155 30391 40404 52007 710// 333 05401
AAXX 01001 54662 32980 00204 11082 21178 30268 40391 52007 333 05401
AAXX 01001 54753 11525 83201 11027 21040 30389 40397 52005 60011 722// 88/// 333 05302 31006 70025 92504
AAXX 01001 54857 32957 23603 11036 21070 30303 40404 52011 82/// 333 05302
AAXX 01001 57067 31955 02901 11108 21137 39594 40440 52010 710// 333 00254
AAXX 01001 57178 31930 03402 11079 21121 30185 40423 52012 710// 333 00154
AAXX 01001 57245 32959 81402 11020 21069 30041 40414 52009 88/// 333 00352 31033
AAXX 01001 57297 31946 02501 11047 21048 30267 40418 52010 710// 333 00101
AAXX 01001 48806 32460 80000 10091 20065 39480 40288 53011 888// 333 01011 20090 3/010 59002 86894 88696
AAXX 01001 48802 11000 80000 10040 20039 38502 48585 53004 60022 76062 888// 333 01006 20036 3/006 58002 8689 0 88696 96160
AAXX 01001 48803 32460 80000 10124 20112 30174 40293 52014 888// 333 00013 20120 3/013 59003 83894 88696
AAXX 01001 48810 32470 80502 10099 20069 30080 40336 53010 888// 333 00012 20098 3/010 59004 83894 88696
AAXX 01001 48831 32470 80502 10102 20053 30253 40293 53008 888// 333 00011 20101 3/011 59010 82894 88697
AAXX 31211 55585 32/80 93201 11158 21209 36421 52004 333 05100
AAXX 01001 47575 11/20 82207 11009 21029 30206 40211 53004 60032 78588 883// 333 21017 4/044 70060
AAXX 01001 47624 12/80 12602 10027 21067 30121 40264 50006 60002 81100 333 21005 70000
AAXX 01001 47629 12/80 10102 11004 21044 30220 40260 51008 60002 81800 333 21042 70000
AAXX 01001 47636 12/80 13602 10019 21059 30225 40297 51012 60002 81500 333 21014 70000
AAXX 01001 47655 15/70 /2808 10048 21067 30203 40266 53012 60002 333 20006
AAXX 01001 47750 15/70 /2503 10014 20001 30293 40298 51005 60002 333 21004
AAXX 01001 47772 12/82 11601 10034 21008 30198 40303 50012 60002 81130 333 20010 79999
AAXX 01001 47800 15/70 /0202 10037 21023 30306 40311 51009 69902 333 20011
AAXX 01001 47815 12/82 51903 10028 21001 30286 40303 53002 60002 85800 333 20001 70000
AAXX 01001 47817 12/80 72903 10080 20005 30276 40321 53015 69902 872// 333 20048 79999
AAXX 01001 47830 12/82 13004 10044 20013 30287 40306 50010 60002 81500 333 20005 79999
AAXX 01001 47891 12/75 12101 10033 21028 30289 40303 50004 60002 81500 333 21003 70000
AAXX 01001 47895 12/82 12901 10035 21035 30294 40302 50006 60002 81800 333 20004 70000
AAXX 01001 47927 11/60 80607 10192 20159 30227 40276 51019 60032 72582 888// 333 20176 70080
AAXX 31211 58464 32/80 93403 10030 20002 40378 57006
AAXX 01001 50434 32967 71801 11292 21331 39424 40448 57003 87/// 333 05908 92508
AAXX 01001 50527 32980 51804 11292 21325 39562 40466 57004 85/// 333 05705 92503
AAXX 01001 50603 32980 22504 11274 21299 39696 40448 57005 82/// 333 05602
AAXX 01001 50632 32966 62904 11215 21281 39419 40409 57007 86/// 333 05703 92501
AAXX 01001 50727 32963 70000 11300 21340 39160 40528 52001 87/// 333 05306 92506
AAXX 01001 50915 31945 00201 11296 21335 39383 40530 52003 705// 333 05251
AAXX 01001 51716 32960 00000 11138 21164 38998 40387 57011 333 05355
AAXX 01001 51765 32958 03601 11190 21219 39329 40426 57013 333 05352 92507
AAXX 01001 51777 32962 02201 11175 21210 39276 40412 57014 333 05355
AAXX 01001 51811 31950 72501 11131 21155 38862 40372 57011 710// 87/// 333 05200
AAXX 01001 51828 31932 02901 11104 21155 38693 40352 57024 705// 333 05452
AAXX 01001 52267 11973 70701 11174 21202 39236 40460 57004 69902 770// 87/// 333 05205 79999 92500
AAXX 01001 52323 32970 21401 11190 21225 38282 52001 82/// 333 05207 92501
AAXX 01001 52495 32980 00701 11203 21253 38796 40480 52007 333 00051
AAXX 01001 53149 12674 70000 11215 21249 38924 40512 52002 69902 87/// 333 00453 70001
AAXX 01001 53192 32980 22701 11238 21268 39014 40518 52012 82/// 333 00101
AAXX 01001 53231 32980 31805 11217 21259 38578 52002 83/// 333 00151 79999 92502
AAXX 01001 53336 31914 20701 11230 21263 38844 40507 52003 705// 82/// 333 00460 70003 92501
AAXX 01001 53391 12958 03204 11223 21252 38622 40496 52012 69912 333 00351 70005 92500
AAXX 01001 53529 32980 30000 11227 21258 38741 40499 52005 83/// 333 00454
AAXX 01001 53543 31956 01601 11165 21187 38647 40466 52007 710// 333 00455 70001
AAXX 01001 53723 32947 43201 11184 21244 38769 40455 54000 84/// 333 00355
AAXX 01001 54012 32964 20000 11322 21357 39181 40550 52010 82/// 333 05100 92501
AAXX 01001 54026 32969 12904 11143 21255 30027 40385 57002 81/// 333 05702
AAXX 01001 54027 32980 23207 11144 21245 39642 40418 52008 82/// 333 05402
AAXX 01001 54208 32959 62703 11210 21252 38890 40485 52021 86/// 333 00008
AAXX 01001 54776 31571 73410 11017 21072 30311 40374 52006 722// 87/// 333 05401 31038
AAXX 01001 56004 32980 02905 11205 21230 35840 52003 333 00102
AAXX 01001 56033 32673 30401 11252 21279 36034 52004 83/// 333 00000 92512
AAXX 01001 56046 32972 00000 11190 21233 36281 52010 333 00001
AAXX 01001 56196 31655 81401 10022 20015 40370 52004 710// 88/// 333 00200 30023
AAXX 01001 56287 11816 80000 10018 20008 40375 52002 69902 710// 88/// 333 00200 30023 70004
AAXX 01001 56684 31404 80702 11003 21007 37876 52011 746// 88/// 333 00002 31013
AAXX 01001 56751 32780 12001 10040 20019 38071 52012 81/// 333 05106 30013
AAXX 01001 56786 32580 72002 10063 20045 38163 52016 87/// 333 05103 30040
AAXX 01001 56977 11355 81101 10093 20088 38806 40252 52009 69921 710// 88/// 333 00000 70046
AAXX 01001 57259 31934 71401 11059 21067 40427 52013 710// 87/// 333 00353 31021
AAXX 01001 57279 31942 00701 11040 21045 40422 52010 710// 333 00101 31034
AAXX 01001 57348 32862 83601 10044 21027 39996 40371 52010 88/// 333 00101 30035
AAXX 01001 57399 32963 83602 11002 21036 40409 52008 88/// 333 00005 30004
AAXX 01001 57554 32857 83601 11002 21030 40408 52015 88/// 333 00003 30001 92505
AAXX 01001 57793 11416 80902 10007 20001 40385 52002 69921 710// 88/// 333 05101 30005 70002
AAXX 01001 58345 32957 80000 10018 21023 40407 52020 88/// 333 05103 30024
AAXX 01001 58506 11/24 90000 11056 21056 40411 52007 69912 710// 333 00103 31002 70001 92518 93428
AAXX 01001 58813 12478 81102 10009 20000 40379 52010 69931 88/// 333 00001 30011 70006
AAXX 01001 58834 11426 80201 10059 20058 40356 52019 69912 710// 88/// 333 00002 70001
AAXX 01001 58926 11656 80902 10092 20075 40336 52024 69912 710// 88/// 333 00101 70001
AAXX 01001 58944 12461 80207 10101 20079 40322 52022 69962 88/// 333 00002 70007 91118 91504
AAXX 01001 59096 12580 70705 10031 20001 40346 52013 69932 87/// 333 00101 30028 70010
AAXX 01001 59102 32680 80403 10023 21008 40357 52015 88/// 333 00100 30035
AAXX 01001 59278 32680 83403 10079 20046 40313 52016 88/// 333 00002 79999
AAXX 01001 59456 32680 70203 10074 20043 40298 52010 87/// 333 00002
AAXX 01001 59493 32764 80203 10087 20041 40295 52018 88/// 333 00151
AAXX 01001 59658 31757 73403 10085 20057 40282 52014 710// 87/// 333 00002
AAXX 01001 59673 32573 83612 10102 20059 40282 52016 88/// 333 00001 91119 91502
AAXX 01001 59845 11419 80701 10106 20101 40280 52014 69921 760// 88/// 333 00000 70005
AAXX 01001 55299 31780 30201 11187 21244 35870 52003 705// 83/// 333 00100 92501
AAXX 01001 55591 32980 00701 11108 21167 36561 52007 333 05100
AAXX 01001 56739 32561 60000 10049 20043 38355 52007 86/// 333 00002 30020
AAXX 01001 56951 32670 83401 10089 20074 38557 52008 88/// 333 00004
AAXX 01001 56964 12580 81601 10119 20100 38764 40225 52010 69931 88/// 333 00051 70003
AAXX 01001 57328 31856 81101 10038 20018 39934 40365 52006 710// 88/// 333 00101 30030
AAXX 01001 57411 31710 80701 10027 20026 39933 40368 52006 710// 88/// 333 00200 30032
AAXX 01001 57447 32958 81601 10014 21001 39821 40391 52013 88/// 333 00101 30021
AAXX 01001 57662 31849 83403 11020 21033 30217 40414 52016 710// 88/// 333 00004 31001 92510
AAXX 01001 57745 11439 80703 11012 21016 30055 40405 52013 60011 760// 88/// 333 00002 30002 70012 92505 93428
AAXX 01001 57972 11407 83201 11023 21024 39916 40388 52007 69902 720// 88/// 333 00001 31002 70002 92500 93430
AAXX 01001 58203 31957 00000 11051 21063 30374 40419 52013 710// 333 00051 31035
AAXX 01001 58314 32657 80201 11004 21033 30299 40413 52013 88/// 333 00002 31002
AAXX 01001 58424 32560 80902 10005 21025 30324 40406 52013 88/// 333 05102 30002 92504
AAXX 01001 59023 11439 82201 10027 20020 30028 40357 52012 69961 760// 88/// 333 00001 30039 70006
AAXX 01001 59417 32458 81103 10070 20038 30166 40328 52018 88/// 333 00100 70001
AAXX 01001 59985 11455 70406 10232 20218 30190 40196 52017 60041 780// 87/// 333 00000 70051
AAXX 01001 53478 32758 70901 11262 21290 40526 52015 87/// 333 00354 70004 92501
AAXX 01001 54171 31956 02002 11195 21227 40388 57001 705// 333 05605
AAXX 01001 54237 32966 62502 11151 21239 40398 52003 86/// 333 05606
AAXX 01001 54335 32660 22901 11166 21237 40395 54000 82/// 333 05651
AAXX 01001 54339 32780 61402 11135 21204 40395 52003 86/// 333 05551
AAXX 01001 54351 31934 00402 11238 21270 40405 52007 705// 333 05551 92502
AAXX 01001 54365 32580 22902 11189 21221 40394 52004 82/// 333 05501
AAXX 01001 54429 31910 20000 11120 21180 40406 52006 710// 82/// 333 05400
AAXX 01001 54454 32961 23602 11124 21200 40397 52004 82/// 333 05503
AAXX 01001 54518 31935 80000 11153 21184 40415 52008 710// 88/// 333 05251
AAXX 01001 54563 32968 03602 11104 21226 40385 52003 333 05401
AAXX 01001 54623 32962 02902 11078 21140 40412 52010 333 05301
AAXX 01001 54705 31927 43401 11114 21153 40417 52011 710// 84/// 333 05254
AAXX 01001 54744 32963 00000 11075 21097 40412 52011 333 05251
AAXX 01001 52101 32980 70901 11149 21193 38352 57010 87/// 333 05311 92502
AAXX 01001 57633 31557 80000 11032 21043 39376 40404 52009 710// 88/// 333 00003 30005 92506
AAXX 01001 57633 11557 80000 11032 21043 39376 40404 52009 69902 710// 88/// 333 00003 30005 79999 92506
AAXX 01001 53391 12958 03204 11223 21252 38622 40496 52012 69912 333 00351 70005 92500
AAXX 01001 57728 32/57 90000 11041 21045 39017 40395 52011 333 00002 11026 21062 30000 92500
AAXX 31211 58464 32/80 93403 10030 20002 40378 57006
AAXX 01001 57794 11/31 90402 10003 21006 40385 52004 69902 710// 333 05101 10005 21004 30005 79999
AAXX 01001 57051 32958 61803 11071 21120 39686 40424 52003 86/// 333 00252
AAXX 01001 57835 11/56 93201 11016 21029 39732 40397 52011 69922 710// 333 00001 11003 21029 30000 70002 92501 93427
AAXX 01001 58804 12/65 93601 10011 21010 30145 40382 52013 69912 333 00001 10017 21001 30015 70003
AAXX 01001 58118 31942 00000 11059 21070 40414 52014 710// 333 05151 31050
AAXX 01001 57767 11/58 90701 11016 21032 40397 52007 69902 721// 333 05101 10014 21025 30000 79999 92502 93427
AAXX 01001 57922 32560 83202 11032 21043 39138 40378 52011 88/// 333 00002 31004 79999 92501 93428
AAXX 31211 58236 32/64 93402 11004 21054 40397 57012
AAXX 01001 54534 32959 72901 11137 21173 40406 52008 87/// 333 05400
AAXX 01001 54608 31/23 93602 11084 21170 40418 52011 705// 333 05252 10006 21089
AAXX 31091 58464 32680 83403 10041 20008 40383 52012 88///
AAXX 31121 58464 31680 83202 10037 20011 40385 52002 72165 88///
AAXX 31181 58464 31/77 93203 10035 20006 40384 54000 76050 333 10043
AAXX 31211 55585 32/80 93201 11158 21209 36421 52004 333 05100
AAXX 01001 57955 11/55 90205 11005 21016 30089 40377 52009 69901 721// 333 05101 10024 21012 30000 79999
AAXX 31121 57699 31950 00701 10006 21012 40391 52006 71000
AAXX 01001 57661 31/32 92701 11010 21010 40414 52016 710// 333 00003 10030 21044 31002 92506
AAXX 01001 58464 12680 83402 10030 21005 40398 52020 69902 88/// 333 00003 30026 79999
AAXX 31061 53464 11/60 92701 11082 21170 40387 57012 69901 77000 333 21161
AAXX 01001 57913 31/57 90701 11027 21047 40381 52006 710// 333 00001 11007 21040 31008 92503
AAXX 31061 58557 11459 83602 10022 21004 40370 57025 69901 70050 88/// 333 21007
AAXX 31121 58557 31435 83602 10015 20000 40388 54000 71000 88///
AAXX 31211 58118 31/56 93601 11042 21071 40400 57011 710//
AAXX 01001 59027 12560 82501 10039 20033 30028 40348 52012 69921 88/// 333 00000 10085 20037 30041 70005
AAXX 01001 58225 32962 00201 11032 21070 40412 52016 333 05101 31014
AAXX 01001 48845 32498 83402 10133 20097 30263 40270 52012 888// 333 01014 20133 3/014 59005 83894 88697
AAXX 01001 48840 32498 83602 10125 20066 30264 40270 52010 888// 333 00012 20123 3/011 59006 82894 88696
AAXX 01001 48846 12798 83203 10133 20100 30251 40254 52009 69982 885// 333 01014 20125 3/013 59004 88697
AAXX 01001 48914 32598 70902 10250 20200 30141 40143 52018 86801 333 00023 20246 3/022 58012 82895 86696
AAXX 01001 48917 32598 60206 10267 20176 30134 40140 52004 83208 222// 00286 2//00 333 00024 20252 3/023 5800 4 83895 86299
AAXX 01001 48918 32570 83402 10262 20210 30129 40140 52018 889// 222// 00270 2//00 333 00026 20255 3/025 5800 5 83995 85696
AAXX 01001 48916 32598 70203 10274 20190 30098 40145 52016 83208 333 00/// 20272 3//// 58015 83895 87299
AAXX 01001 48907 32598 70202 10235 20202 30141 40144 52015 83808 333 00023 20229 3/022 58012 82895 87299
AAXX 01001 48877 11470 83607 10240 20218 30144 40149 53011 60062 70382 889// 333 01023 20225 3/022 58000 8389 4 86995
AAXX 01001 48887 11572 72902 10236 20202 30125 40131 53014 69962 70262 878// 333 01023 20235 3/023 58003 8289 5 87697
AAXX 01001 48870 11450 83404 10264 20254 30168 40175 53015 60082 76066 8672/ 333 01027 20210 3/021 58003 8689 4 88499 96163
AAXX 01001 51711 31736 70000 11171 21193 38040 57008 710// 87/// 333 05253 79999
AAXX 01001 51730 32957 02701 11157 21194 40404 57009 333 05255 92501
AAXX 01001 52112 32979 71101 11124 21216 40413 57006 87/// 333 05407
AAXX 01001 52737 32980 33201 11168 21233 37122 52004 83/// 333 00151 92508
AAXX 01001 52787 32780 11605 11143 21229 37040 54000 81/// 333 00200
AAXX 01001 53352 12966 21803 11262 21297 40540 52008 69911 82/// 333 00458 70005 92501
AAXX 01001 53593 32757 72501 11178 21208 40479 52019 87/// 333 00201
AAXX 01001 53705 32963 70902 11134 21207 40424 52002 87/// 333 00000
AAXX 01001 53863 31955 62203 11078 21143 40427 52011 705// 86/// 333 00106
AAXX 01001 53975 32966 51401 11115 21163 40440 52005 85/// 333 00151
AAXX 01001 54273 31955 00000 11249 21275 40402 52001 705// 333 05601 92503
AAXX 01001 54324 32964 31602 11162 21238 40409 52009 83/// 333 05603
AAXX 01001 54405 32980 02704 11121 21202 40448 52017 333 00005
AAXX 01001 54436 31934 00000 11157 21217 40413 52006 705// 333 05502
AAXX 01001 54808 31918 81801 11095 21123 40416 52015 710// 88/// 333 05254
AAXX 01001 54826 32968 03409 11110 21201 38558 52011 333 00000
AAXX 01001 54836 31942 00000 11084 21138 40420 52012 710// 333 05200
AAXX 01001 54863 31957 40000 11053 21082 40397 52009 710// 84/// 333 05301 79999
AAXX 01001 56018 12961 82501 11168 21193 36210 52005 60012 88/// 333 05104 70018 92506
AAXX 01001 56021 32763 80000 11177 21209 36096 52004 88/// 333 00005 92501
AAXX 01001 57071 32960 72702 11057 21116 40412 52001 87/// 333 05100
AAXX 01001 50548 32955 80202 11160 21271 40331 54000 88/// 333 06110
AAXX 01001 50564 31939 22702 11133 21227 40259 52003 705// 82/// 333 06413 92505
AAXX 01001 51334 117// 73401 11135 21158 39970 40412 57004 69902 774// 87/// 333 05202 70005
AAXX 01001 51818 31956 63401 11141 21176 40377 57015 710// 86/// 333 05251
AAXX 01001 52378 32980 70901 11217 21251 40479 57005 87/// 333 05252
AAXX 01001 53487 32980 12702 11168 21222 40484 52017 81/// 333 00305
AAXX 01001 53502 32980 70203 11197 21228 40485 52006 87/// 333 00251
AAXX 01001 53923 32959 70902 11086 21122 40397 57002 87/// 333 00101 79999
AAXX 01001 54049 32960 02503 11197 21268 40373 57005 333 05701
AAXX 01001 54115 32680 73606 11171 21253 40452 52015 87/// 333 05208
AAXX 01001 54157 31944 01401 11228 21259 40393 57001 705// 333 05601
AAXX 01001 54186 31932 03201 11200 21260 40373 57001 705// 333 05603
AAXX 01001 54311 32977 23603 11191 21259 40448 52013 82/// 333 05407
AAXX 01001 54346 32659 61102 11187 21223 40401 52007 86/// 333 05501
AAXX 01001 54377 32956 30201 11178 21211 40384 52006 83/// 333 05501
AAXX 01001 54386 32980 00702 11248 21288 40414 52004 333 05502 92501
AAXX 01001 54493 31913 02201 11169 21200 40378 52003 710// 333 05503 92501
AAXX 01001 54715 31944 80000 11111 21127 40415 52011 710// 88/// 333 05153
AAXX 01001 54929 32959 00000 11079 21112 40419 52017 333 05200
AAXX 01001 54945 32961 20000 11042 21114 40409 52012 82/// 333 05201
AAXX 01001 56065 32662 71601 11174 21206 36645 52005 87/// 333 00104
AAXX 01001 57193 32957 03401 11065 21089 40417 52010 333 00000 31034
AAXX 01001 57290 31957 02501 11059 21077 40420 52011 710// 333 00002 31036
AAXX 01001 50658 32967 82703 11177 21250 40298 57005 88/// 333 06205
AAXX 01001 50888 32979 82202 11129 21229 40248 57005 88/// 333 06205
AAXX 01001 50983 32978 72507 11141 21227 40261 57006 87/// 333 06103
AAXX 01001 51053 32977 80904 11120 21149 40386 57007 88/// 333 05351 92504
AAXX 01001 51542 31963 00703 11238 21268 37593 57007 770// 333 05101 79999 92509
AAXX 01001 52436 32969 13402 11133 21206 38541 40417 57013 81/// 333 05207
AAXX 01001 52908 12680 72002 11205 21238 35770 57002 69932 87/// 333 00151 70003
AAXX 01001 52996 32480 71808 11059 21300 37603 57004 87/// 333 00107 70003 92502
AAXX 01001 53083 32980 03601 11244 21274 40518 52009 333 00151
AAXX 01001 53764 31950 80202 11141 21184 40468 52011 705// 88/// 333 00353
AAXX 01001 53787 32966 30401 11174 21209 40467 52011 83/// 333 00152
AAXX 01001 54096 32980 02706 11169 21258 39550 40298 57005 333 05901 92501
AAXX 01001 54226 32973 53204 11128 21245 40405 52002 85/// 333 05504
AAXX 01001 54259 32660 10000 11242 21268 40408 52004 81/// 333 05600 92501
AAXX 01001 54527 32960 23401 11090 21149 40412 52008 82/// 333 05201
AAXX 01001 54534 32959 72901 11137 21173 40406 52008 87/// 333 05400
AAXX 31211 55585 32/80 93201 11158 21209 36421 52004 333 05100
AAXX 01001 89058 32668 81107 10019 20001 39731 49752 52003 885//
AAXX 01001 89573 35980 10924 11010 21114 39860 49882 57010 80001
AAXX 01001 58138 32959 03402 11023 21072 40412 52014 333 05151 31014
AAXX 01001 58241 32957 43601 11013 21061 40410 52015 84/// 333 05100 31011
AAXX 01001 58259 32566 73203 10014 21045 40398 52013 87/// 333 05103 30008
AAXX 01001 58343 32664 83601 10019 21053 40406 52017 88/// 333 05102 30012
AAXX 01001 58358 32762 80202 10025 21026 40401 52019 88/// 333 00002 30023
AAXX 01001 58464 12680 83402 10030 21005 40398 52020 69902 88/// 333 00003 30026 79999
AAXX 01001 58549 31655 80903 10028 20000 40392 52018 710// 88/// 333 05103 30040
AAXX 01001 58562 32458 83204 10032 20012 40391 52017 88/// 333 00002 30027 70017
AAXX 01001 58665 31956 73204 10054 20017 30359 40366 52015 710// 87/// 333 05103 30024 70003
AAXX 01001 58667 32777 73405 10068 20021 30234 40356 52021 87/// 333 00004 30040 79999
AAXX 01001 58737 11222 82901 10045 20042 40361 52018 69941 760// 88/// 333 00001 70008
AAXX 01001 58820 11536 82002 10002 21001 40377 52018 69911 710// 88/// 333 00100 30019 70001
AAXX 01001 58846 32970 82501 10094 20080 30303 40344 52018 88/// 333 00002 70002
AAXX 01001 58918 32461 82903 10035 20006 40347 52019 88/// 333 00101 30039
AAXX 01001 59126 32670 83602 10139 20081 40306 52023 88/// 333 00001
AAXX 01001 59133 32764 70207 10118 20069 40301 52015 87/// 333 05102 79999
AAXX 01001 56671 32667 41601 10011 21005 38263 52012 84/// 333 05102 31008
AAXX 01001 57378 31956 30402 11022 21039 40412 52007 710// 83/// 333 00102 31031
AAXX 01001 57426 31756 80401 10022 21001 39799 40365 52007 710// 88/// 333 00100 30023
AAXX 01001 57476 32920 60201 11021 21022 40409 52011 86/// 333 00003 31016
AAXX 01001 57584 31540 70402 11015 21018 40411 52015 710// 87/// 333 00001 30004 79999 92510
AAXX 01001 57598 31643 80201 11003 21006 40402 52010 710// 88/// 333 05102 30006 70003 92506
AAXX 01001 57655 31455 80000 11004 21033 40405 52013 710// 88/// 333 05105 31016 92506
AAXX 01001 57776 12/00 93603 11061 21064 40393 52005 69902 333 00002 31021 79999 92505 93461
AAXX 01001 58321 32558 80201 11005 21034 40404 52014 88/// 333 05104 31005 70009
AAXX 01001 58437 31649 72504 11021 21024 38248 52011 710// 87/// 333 00102 92509 93440
AAXX 01001 58556 31629 80401 10018 20005 30263 40398 52019 710// 88/// 333 05102 30019 79999
AAXX 01001 58569 32465 73405 10046 20016 40371 52015 87/// 333 05103 30021
AAXX 01001 58646 11641 80701 10034 20011 40385 52014 69902 710// 88/// 333 05102 30037 70001
AAXX 01001 58652 32558 80902 10042 20012 40383 52015 88/// 333 05103 30047 79999
AAXX 01001 58715 11727 83203 10006 21004 40388 52013 69961 710// 88/// 333 00001 30011 70016
AAXX 01001 58730 32762 80000 10044 20009 30085 40365 52018 88/// 333 05102 30048
AAXX 01001 58731 31230 83402 10020 20011 40375 52016 710// 88/// 333 00002 30026
AAXX 01001 58754 32680 83601 10092 20032 40349 52017 88/// 333 05104 70001
AAXX 01001 58911 12469 82501 10015 20003 39971 40363 52013 69921 88/// 333 00100 30036 70002
AAXX 01001 58931 11/00 90705 10023 20022 38444 52020 69991 760// 333 00101 30023 70009
AAXX 01001 59254 11403 80902 10043 20039 40329 52014 69921 754// 88/// 333 00001 70003
AAXX 01001 59632 32565 83606 10055 20028 40312 52015 88/// 333 00001 30050
AAXX 01001 59855 11449 83203 10125 20114 30233 40263 52016 69901 760// 88/// 333 00001 70004
AAXX 01001 52754 31942 00702 11187 21257 36811 52003 705// 333 00201
AAXX 01001 52955 32980 01401 11208 21238 37005 52010 333 00253 92501
AAXX 01001 56144 32777 20000 11100 21202 36913 52013 82/// 333 05203
AAXX 01001 56152 32639 13201 11174 21217 36335 52013 81/// 333 05105
AAXX 01001 56167 32/80 90000 11123 21168 37109 52019 333 05202
AAXX 01001 56182 32980 00203 11126 21182 37213 52010 333 05103
AAXX 01001 56357 32980 02502 11149 21226 36485 52008 333 05202
AAXX 01001 56586 31459 80201 11035 21039 38122 52010 710// 88/// 333 00153 31004
AAXX 01001 56748 32560 70000 10058 20040 38404 52009 87/// 333 05101 30035
AAXX 01001 56763 32662 30000 10070 20058 40226 52014 83/// 333 05203
AAXX 01001 56768 32680 81802 10073 20058 38235 52009 88/// 333 05101
AAXX 01001 56838 31/04 91801 10096 20091 40219 52010 747// 333 00001
AAXX 01001 56886 11555 81801 10032 20032 38368 52013 60031 710// 88/// 333 00051 70040
AAXX 01001 56946 32556 60000 10099 20093 40225 52012 86/// 333 00003
AAXX 01001 56959 12562 80000 10153 20143 40220 52010 60011 88/// 333 00000 70039
AAXX 01001 56969 12471 80901 10142 20126 39493 40232 52007 69911 88/// 333 00001 70005
AAXX 01001 57503 31925 80901 10031 20030 40367 52006 710// 88/// 333 00200 30025
AAXX 01001 57731 32663 80000 10004 21028 40391 52008 88/// 333 05101 30007 92504
AAXX 01001 57766 11434 80901 11027 21027 40403 52011 69911 760// 88/// 333 00000 30002 70001 92504 93427
AAXX 01001 57845 11746 83603 11009 21022 39877 40382 52007 69941 760// 88/// 333 05101 30007 70005 92503 93427
AAXX 01001 57853 11439 80401 11011 21025 39964 40399 52010 69931 760// 88/// 333 00002 30000 70004 92503 93427
AAXX 01001 57916 11458 81401 10024 21005 40365 52013 69901 721// 88/// 333 00101 30035 79999
AAXX 01001 57922 32560 83202 11032 21043 39138 40378 52011 88/// 333 00002 31004 79999 92501 93428
AAXX 01001 57932 11342 80000 10006 20002 40383 52011 69951 760// 88/// 333 00001 30022 70005 92501
AAXX 01001 58338 32659 80202 10008 21023 40406 52018 88/// 333 05103 30005
AAXX 01001 59007 12580 80401 10024 20020 40327 52014 60011 88/// 333 00101 30048 70040
AAXX 01001 59046 12560 83606 10003 21003 40355 52015 69922 88/// 333 00001 30012 70002
AAXX 01001 59058 12762 83405 10021 20003 40347 52011 69902 88/// 333 00001 30027 79999
AAXX 01001 59072 32/73 93602 10026 21001 40361 52007 333 00001 30029
AAXX 01001 59087 12572 20907 10055 20019 40321 52007 69911 82/// 333 00002 30045 70006
AAXX 01001 59209 32380 83404 10042 20024 40327 52013 88/// 333 00101 30045
AAXX 01001 50425 32928 82501 11347 21383 40483 57006 88/// 333 05804 92510
AAXX 01001 53664 32971 60902 11158 21205 39180 40472 52015 86/// 333 00455
AAXX 01001 53853 32962 73201 11150 21181 40461 52004 87/// 333 00251
AAXX 01001 54134 31921 02702 11195 21259 40398 52005 705// 333 05602
AAXX 01001 54142 31927 02501 11229 21266 40389 54000 705// 333 05602
AAXX 01001 54284 31934 00000 11236 21260 40405 57001 710// 333 05502 92505
AAXX 01001 54363 31955 01801 11215 21242 40405 52003 710// 333 05500 92503
AAXX 01001 54624 31955 60000 11104 21119 40412 52007 710// 86/// 333 05253
AAXX 01001 54774 11544 83404 11028 21064 40387 52009 69911 770// 88/// 333 05401 31035 70001 92500
AAXX 01001 54936 31924 20000 11081 21099 40415 52012 710// 82/// 333 05351
AAXX 01001 57077 32957 00000 11103 21120 40439 52008 333 00254
AAXX 01001 57091 32958 00000 11067 21114 40415 52011 333 05153
AAXX 01001 57181 31956 01401 11093 21109 40422 52007 710// 333 00055
AAXX 01001 45007 12560 70205 10101 20047 30285 40295 51017 60002 8353/ 333 20098 58006 70000 81620 83650 85362
AAXX 01001 45011 15461 70105 10089 20053 40289 52016 60002 333 20083 58006 70000
AAXX 01001 57274 31/48 92701 11076 21091 30266 40426 52012 710// 333 00151 10017 21081
AAXX 01001 57964 11/56 90202 11002 21026 40380 52007 69901 774// 333 05101 10012 21014 30003 79999
AAXX 01001 52754 31942 00702 11187 21257 36811 52003 705// 333 00201
AAXX 01001 57783 11/55 92202 10002 21009 40393 52008 69902 710// 333 00001 10009 21008 30000 70002 92500
AAXX 01001 52955 32980 01401 11208 21238 37005 52010 333 00253 92501
AAXX 31091 57839 32568 8//// 11010 21040 40365 52001 88///
AAXX 01001 51087 32/70 90000 11160 21188 39294 40410 57008 333 05301 31048 92528
AAXX 01001 58212 31/42 92701 11039 21056 40414 52015 710// 333 05100 10026 21047 31029
AAXX 31121 57839 32467 8//// 11017 21039 40382 52015 88///
AAXX 01001 59034 11/31 90203 10019 20013 40357 52013 69921 710// 333 00000 10041 20014 30027 70003
AAXX 01001 57237 32868 83602 10006 21058 40386 52009 88/// 333 00200 31009
AAXX 01001 58557 31443 83403 10022 21004 40394 52015 710// 88/// 333 05102 30019 70003
AAXX 31211 55585 32/80 93201 11158 21209 36421 52004 333 05100
AAXX 01001 58454 11/23 90000 10009 20009 40404 52018 69912 710// 333 05102 10019 21010 30010 70001
AAXX 01001 57822 31/57 90902 11031 21039 40412 52012 710// 333 00002 11020 21050 30005 92505
AAXX 01001 57090 31/56 91601 11065 21122 40415 52010 705// 333 05152 10012 21075
AAXX 01001 55585 32980 00000 11167 21217 36430 52009 333 05102
AAXX 31181 55585 32/80 90000 11139 21206 36417 52008 333 05201 10037
AAXX 31121 57398 32/61 93602 11003 21053 30314 40413 52009
AAXX 01001 57760 11/55 93402 11015 21033 30082 40404 52014 69902 760// 333 00002 10002 21031 31001 79999 92506 93427
AAXX 01001 59053 11/56 92901 10020 20019 40355 52013 69902 710// 333 00001 10036 20008 30029 79999
AAXX 01001 59051 12/72 92902 10023 21008 40355 52013 69921 333 00001 10043 20009 30019 70006
AAXX 01001 53392 12/70 93402 11259 21289 40516 52014 69921 333 00203 11118 21289 70002 92501
AAXX 31061 57839 32567 8//// 11013 21050 40364 57033 88/// 333 21037
AAXX 01001 55690 32972 02201 11262 21290 36003 57001 333 05101 31026
AAXX 01001 57955 11/55 90205 11005 21016 30089 40377 52009 69901 721// 333 05101 10024 21012 30000 79999
AAXX 01001 58519 31938 83401 10010 21009 40393 52012 710// 88/// 333 05102 30000 92503
AAXX 01001 57947 11574 80404 10011 21005 40366 52010 69911 721// 88/// 333 05102 30012 70001
AAXX 01001 57996 32668 80704 10026 21004 40364 52012 88/// 333 00001 30030 79999
AAXX 01001 59021 11456 83602 10023 21001 40355 52012 69991 710// 88/// 333 00001 30027 70033
AAXX 01001 59065 32763 82905 10022 21009 40351 52011 88/// 333 00001 30019
AAXX 01001 59218 12580 80402 10044 20019 40327 52016 69902 88/// 333 00100 79999
AAXX 01001 59228 31542 83204 10048 20038 40339 52015 710// 88/// 333 00100 70001
AAXX 01001 59242 12580 83404 10034 20005 30224 40348 52013 69902 88/// 333 00001 30038 79999
AAXX 01001 59271 32560 82901 10053 20036 40325 52012 88/// 333 00001 70008
AAXX 01001 59298 32567 80702 10064 20026 40316 52022 88/// 333 00101 79999
AAXX 01001 59303 32565 83404 10048 20024 40335 52020 88/// 333 00101 70002
AAXX 01001 59317 32680 60205 10116 20036 40284 52021 86/// 333 00151
AAXX 01001 59446 32560 83605 10040 20024 40324 52015 88/// 333 00101 30042
AAXX 01001 59453 32575 83405 10054 20041 30159 40313 52015 88/// 333 00002 70001
AAXX 01001 59462 12766 82702 10058 20049 40322 52011 69921 88/// 333 00001 70005
AAXX 01001 59478 32763 73604 10083 20035 40298 52015 87/// 333 00001
AAXX 01001 59626 32580 83201 10093 20060 40287 52012 88/// 333 00001
AAXX 01001 59664 32677 73402 10104 20069 40278 52013 87/// 333 00002
AAXX 01001 59754 32671 83602 10106 20076 40274 52013 88/// 333 00001
AAXX 01001 59849 11522 83601 10118 20113 40277 52018 69921 760// 88/// 333 00002 70005
AAXX 01001 59954 32580 70405 10165 20127 40244 52016 87/// 333 00101
AAXX 01001 48823 32697 80203 10104 20051 30284 40287 52016 885// 333 01011 20104 3/010 58004 88696
AAXX 01001 48825 32497 83603 10110 20055 30283 40292 52015 888// 333 01011 20102 3/010 59007 83894 88696
AAXX 01001 48866 32798 70505 10188 20144 39291 40183 52015 82548 333 00018 20177 3/016 58000 82697 85299
AAXX 01001 48875 11460 80502 10198 20188 39631 40175 53022 69902 76062 888// 333 01021 20194 3/019 58006 8389 4 88696 96160
AAXX 01001 50246 32980 80701 11114 21215 40279 52004 88/// 333 06419 92511
AAXX 01001 50442 32964 73203 11150 21259 40303 52003 87/// 333 06209 92503
AAXX 01001 50834 32980 12905 11165 21252 40390 57003 81/// 333 05709
AAXX 01001 51232 11956 71603 11150 21170 39917 40415 57003 69902 710// 87/// 333 05303 79999 92510
AAXX 01001 51705 32860 42001 11113 21141 37847 57011 84/// 333 05203
AAXX 01001 51839 31946 10000 11139 21174 40372 57017 710// 81/// 333 05454
AAXX 01001 51855 31957 02001 11155 21206 40398 57017 705// 333 05300
AAXX 01001 51931 31955 01601 11132 21172 40360 57022 705// 333 05454
AAXX 01001 52424 32960 01102 11167 21248 40430 57010 333 05151
AAXX 01001 52446 32980 12701 11180 21205 40450 57004 81/// 333 05303
AAXX 01001 52447 32956 02003 11181 21215 40455 57009 333 05205 92506
AAXX 01001 52576 32969 20000 11169 21238 38575 52009 82/// 333 00001
AAXX 01001 52633 32666 50000 11217 21272 36764 52005 85/// 333 00202
AAXX 01001 52674 32980 22201 11142 21251 37948 52006 82/// 333 00006
AAXX 01001 52707 32980 02501 11185 21253 37308 57002 333 00151
AAXX 01001 52765 32959 00000 11179 21220 37214 52006 333 00302
AAXX 01001 52825 32980 61601 11152 21245 37297 54000 86/// 333 00200
AAXX 01001 52856 31956 00000 11153 21183 37249 52008 710// 333 00201
AAXX 01001 52895 31956 70901 11123 21142 40418 52001 710// 87/// 333 00101
AAXX 01001 53738 32971 00201 11172 21219 40469 57002 333 00352
AAXX 01001 53821 32976 23401 11141 21193 40436 57001 82/// 333 00251
AAXX 01001 53929 31926 70000 11117 21141 40424 57002 710// 87/// 333 00154 79999
AAXX 01001 56034 32680 23202 11260 21291 35926 52002 82/// 333 00151
AAXX 01001 56067 32580 21401 11181 21222 36557 52012 82/// 333 00155
AAXX 01001 56093 32948 70000 11125 21151 37755 52002 87/// 333 00201
AAXX 01001 56125 32968 02701 11134 21191 36550 52006 333 05102
AAXX 01001 57106 32461 80902 11013 21055 39415 40396 52001 88/// 333 00201 30000 79999
AAXX 01001 57134 32964 00000 11076 21095 40413 52006 333 00354 79999
AAXX 01001 57144 32957 81601 11041 21070 40413 52007 88/// 333 00352
AAXX 01001 50742 32963 72703 11154 21257 30089 40310 57006 87/// 333 06205
AAXX 01001 50853 32661 82502 11199 21250 40323 57005 88/// 333 06053 92502
AAXX 01001 51068 12958 21801 11206 21233 40413 57006 69952 82/// 333 05356 70013 92507
AAXX 01001 51186 32959 00000 11183 21208 40425 57009 333 05308 92525
AAXX 01001 51241 12780 51601 11096 21119 40382 57009 69931 85/// 333 05251 70018 92515
AAXX 01001 51330 11447 80000 11083 21096 40356 57003 69902 770// 88/// 333 05204 79999 92509
AAXX 01001 51365 31916 73601 11155 21182 40419 57005 710// 87/// 333 05308 92514
AAXX 01001 51526 32957 02902 11202 21243 40435 57011 333 05351
AAXX 01001 52661 32980 01401 11158 21215 38302 52014 333 05103
AAXX 01001 52797 32959 02901 11118 21161 38430 52002 333 05204
AAXX 01001 52984 32960 02701 11124 21137 38152 52003 333 00154 79999
AAXX 01001 52986 31738 71601 11150 21158 38176 57002 710// 87/// 333 00154 79999
AAXX 01001 53195 31943 00000 11248 21287 40514 52011 705// 333 00253
AAXX 01001 53362 32967 01802 11291 21326 40520 52006 333 00458 70004 92500
AAXX 01001 53740 32961 62001 11186 21237 40477 52005 86/// 333 00554
AAXX 01001 53754 32959 20000 11160 21197 40465 52008 82/// 333 00454
AAXX 01001 54041 32956 02201 11229 21283 40371 57006 333 05851
AAXX 01001 54063 32957 02203 11215 21259 40353 57012 333 05903 92506
AAXX 01001 54326 32962 52903 11145 21241 40419 52013 85/// 333 05504
AAXX 01001 57034 31955 00201 11085 21113 40415 52007 710// 333 00154
AAXX 01001 57089 31937 01401 11101 21111 40416 52009 710// 333 00054
AAXX 01001 57156 31957 73202 11070 21114 40425 52009 710// 87/// 333 00155
AAXX 01001 57232 31733 81401 11040 21051 39800 40417 52008 710// 88/// 333 00353 31046
AAXX 01001 58005 31932 03401 11098 21120 40420 52013 710// 333 05100
AAXX 01001 56188 11906 83601 10011 20008 40368 52003 69912 746// 88/// 333 00200 30018 70009
AAXX 01001 56475 32474 80702 11010 21042 38414 52007 88/// 333 00104 31021
AAXX 01001 56485 11463 80701 11004 21018 40367 52006 69902 768// 88/// 333 00200 30006 70002
AAXX 01001 56533 32480 00000 10004 20001 38497 52014 333 05201 31009
AAXX 01001 56543 32680 10000 11121 21140 36829 52008 81/// 333 05103
AAXX 01001 56565 32980 00000 11041 21070 37556 52013 333 05101
AAXX 01001 56643 32676 12701 10068 20051 40250 52013 81/// 333 05151 30045 79999
AAXX 01001 56875 11547 80000 10089 20083 38342 52007 69961 750// 88/// 333 05103 70047
AAXX 01001 56991 11521 82002 10041 20041 38521 52014 69971 724// 88/// 333 00002 70051
AAXX 01001 57251 32959 03401 11078 21089 40427 52010 333 00256 31027
AAXX 01001 57313 31956 83601 10017 20005 40369 52007 710// 88/// 333 00100 30007
AAXX 01001 57432 32868 80903 10057 21017 30131 40367 52011 88/// 333 00102 30043
AAXX 01001 57458 31926 80000 11012 21026 40408 52015 710// 88/// 333 00005 31003
AAXX 01001 57545 32965 82001 11007 21024 40401 52013 88/// 333 00001 30010 79999
AAXX 01001 57562 31931 70000 11013 21013 40414 52018 710// 87/// 333 00004 30000 92506
AAXX 01001 57574 31917 73401 11030 21031 40408 52014 710// 87/// 333 00002 31003 70015 92507
AAXX 01001 57583 31923 83401 11029 21036 40411 52013 710// 88/// 333 00151 31004 92505
AAXX 01001 57608 11440 83401 10042 20041 39893 40363 52008 69921 760// 88/// 333 00200 30044 70020
AAXX 01001 57649 32/58 91601 11007 21026 40405 52011 333 05104 31001
AAXX 01001 57669 32659 80201 11011 21027 40407 52009 88/// 333 05105 30000 92509
AAXX 01001 57671 31756 80202 11004 21024 30355 40405 52009 710// 88/// 333 05102 30000 92516
AAXX 01001 57682 32862 82902 11007 21013 40397 52008 88/// 333 00001 30009 92509
AAXX 01001 57774 31757 83602 11011 21028 40401 52007 760// 88/// 333 05101 31007 92501
AAXX 01001 51087 32/70 90000 11160 21188 39294 40410 57008 333 05301 31048 92528
AAXX 01001 50349 32980 72707 11115 21211 40275 54000 87/// 333 06323 92508
AAXX 01001 50514 32967 22906 11274 21306 40474 57004 82/// 333 05606 92501
AAXX 01001 50758 32980 62504 11187 21242 40315 57006 86/// 333 06104
AAXX 01001 50862 32963 82003 11197 21244 40313 57011 88/// 333 06053 92502
AAXX 01001 50877 32965 82512 11168 21248 40294 57009 88/// 333 06000
AAXX 01001 52645 32965 33603 11243 21284 36813 52006 83/// 333 00201
AAXX 01001 52657 32975 01101 11192 21246 37296 52007 333 00203
AAXX 01001 52868 32980 02501 11106 21165 37797 52012 333 00300
AAXX 01001 52876 31955 72904 11087 21143 38261 54000 705// 87/// 333 00100 79999 92502
AAXX 01001 52943 32680 13401 11228 21257 36827 52007 81/// 333 00252 92502
AAXX 01001 53942 32962 73404 11139 21156 39075 40441 57001 87/// 333 00254 79999
AAXX 01001 54195 32968 01402 11213 21246 40350 57004 333 05751
AAXX 01001 54213 32680 33205 11139 21235 40428 52011 83/// 333 05409
AAXX 01001 54285 32980 01801 11260 21289 40414 57002 333 05500
AAXX 01001 56074 32667 72502 11108 21199 36679 52010 87/// 333 00005
AAXX 01001 57143 32962 42902 11095 21117 39484 40431 52008 84/// 333 00355
AAXX 01001 55248 32980 91101 11226 21324 35955 52005 333 00253
AAXX 01001 55294 32980 00405 11220 21271 35734 52001 333 00154
AAXX 01001 55437 32980 02702 11127 21244 36405 52002 333 00151 92501
AAXX 01001 55493 32767 42201 11144 21207 36051 52004 84/// 333 05104
AAXX 01001 55569 32964 02701 11131 21239 36269 52009 333 00001
AAXX 01001 55585 32980 00000 11167 21217 36430 52009 333 05102
AAXX 01001 55598 32980 00000 11139 21165 36643 52007 333 05101
AAXX 01001 55680 32980 00901 11195 21239 36267 52010 333 00002 92500
AAXX 01001 55690 32972 02201 11262 21290 36003 57001 333 05101 31026
AAXX 01001 56173 32980 01801 11152 21194 36665 52012 333 00004
AAXX 01001 56202 32977 00000 11158 21202 35882 52003 333 05107
AAXX 01001 56986 11/11 90902 10046 20046 40290 52007 69911 760// 333 00000 70073
AAXX 01001 59647 32560 83606 10077 20055 40284 52014 88/// 333 00001
AAXX 01001 56038 32668 21801 11183 21236 36108 52007 82/// 333 00002
AAXX 01001 56178 32980 02002 11067 21149 37656 52020 333 05302
AAXX 01001 56251 32980 03201 11132 21172 37001 52015 333 05202
AAXX 01001 56386 31824 80901 10040 20020 39841 40368 52005 710// 88/// 333 00201 30046
AAXX 01001 56459 42968 00000 11007 21098 37688 52015 333 05202
AAXX 01001 56548 32980 00000 11030 21058 37748 52009 333 05102
AAXX 01001 56664 32963 03601 10035 20017 38835 40247 52018 333 05100 30006
AAXX 01001 56793 11424 83401 10008 20004 38273 52010 69921 760// 88/// 333 00151 30030 70002
AAXX 01001 56856 32669 80000 10130 20114 38909 40218 52010 88/// 333 05103
AAXX 01001 57405 31823 83401 10027 20026 39923 40368 52006 710// 88/// 333 00251 30034 79999
AAXX 01001 57606 12658 81601 11013 21035 40385 52009 69902 88/// 333 00101 31001 79999
AAXX 01001 57803 12658 80701 11026 21046 40381 52008 69901 88/// 333 00100 31005 70003 93427
AAXX 01001 57806 12562 80202 11026 21039 40367 52010 69901 88/// 333 00151 31005 79999 93428
AAXX 01001 57825 11461 80402 11022 21047 39501 40400 52014 69922 766// 88/// 333 00002 30002 70003 92505 93427
AAXX 01001 57872 32558 83201 11004 21021 40394 52005 88/// 333 05101 30002 79999
AAXX 01001 57906 12461 82501 10029 20008 40352 52014 69931 88/// 333 00151 30038 70005
AAXX 01001 57965 32771 80402 10007 21023 40387 52009 88/// 333 00001 30010
AAXX 01001 58015 31/47 90000 11075 21093 40419 52014 710// 333 05100 31045
AAXX 01001 58122 31942 03201 11068 21079 40419 52017 710// 333 05100
AAXX 01001 58215 31956 10000 11036 21050 40415 52015 710// 81/// 333 00002 31024
AAXX 01001 58402 32960 81401 11010 21034 40410 52007 88/// 333 00002 31004
AAXX 01001 58407 31955 83401 11002 21008 40406 52008 710// 88/// 333 00001 30001 92506
AAXX 01001 58519 31938 83401 10010 21009 40393 52012 710// 88/// 333 05102 30000 92503
AAXX 01001 58531 31656 80401 10012 21003 40397 52018 710// 88/// 333 00002 30016
AAXX 01001 58608 31/33 90701 10003 21001 40391 52007 710// 333 00002 30000
AAXX 01001 58626 11628 83601 10020 20020 40386 52013 69931 710// 88/// 333 05102 30024 70003
AAXX 01001 58634 31656 81101 10024 20005 40388 52014 710// 88/// 333 00002 30020
AAXX 01001 51818 31956 63401 11141 21176 40377 57015 710// 86/// 333 05251
AAXX 01001 51839 31946 10000 11139 21174 40372 57017 710// 81/// 333 05454
AAXX 01001 55228 32980 00701 11173 21294 36068 54000 333 00152
AAXX 01001 55578 32970 01601 11177 21202 36415 52009 333 05102
AAXX 01001 55664 32980 00201 11188 21234 36043 52008 333 00001
AAXX 01001 55773 32980 02201 11211 21239 36023 57003 333 05102 92506
AAXX 01001 56116 32961 02902 11125 21183 36373 52005 333 05105
AAXX 01001 56137 32980 02701 11107 21176 36849 52009 333 05204
AAXX 01001 56172 32980 00901 11098 21155 37396 52020 333 05201
AAXX 01001 56247 32880 01601 11064 21156 37501 52018 333 05301
AAXX 01001 56312 32980 00000 11112 21144 37145 52006 333 05153
AAXX 01001 56462 32980 03402 11078 21146 37189 52011 333 05201
AAXX 01001 56651 32665 21401 11025 21050 37688 52009 82/// 333 05103
AAXX 01001 56691 11313 83401 11033 21034 37826 52007 69902 766// 88/// 333 00051 30001 79999 93427
AAXX 01001 56985 12577 82002 10082 20074 38762 40257 52011 60022 88/// 333 05203 70019
AAXX 01001 57633 11557 80000 11032 21043 39376 40404 52009 69902 710// 88/// 333 00003 30005 79999 92506
AAXX 01001 57902 11456 81103 11003 21010 38730 40349 52016 69921 760// 88/// 333 00151 30009 70006
AAXX 01001 55279 32880 12902 11140 21290 35722 54000 81/// 333 00153
AAXX 01001 55472 32780 10000 11182 21275 35672 57008 81/// 333 06057
AAXX 01001 55696 32580 23201 11208 21233 36385 52006 82/// 333 05103 92512
AAXX 01001 56079 32976 11101 11181 21229 36706 52012 81/// 333 00101
AAXX 01001 56106 32/// 9////
AAXX 01001 56257 32980 02001 11135 21206 36308 52009 333 05204
AAXX 01001 56374 32980 02001 11087 21111 37466 52011 333 05152
AAXX 01001 56385 11/03 92703 11131 21147 37032 52007 69902 749// 333 05162 79999
AAXX 01001 56954 11242 82201 10137 20132 39021 40216 52010 60161 762// 88/// 333 00002 70237
AAXX 01001 56966 11572 80000 10108 20087 40262 52010 60011 750// 88/// 333 05151 70047
AAXX 01001 57237 32868 83602 10006 21058 40386 52009 88/// 333 00200 31009
AAXX 01001 57306 32960 80000 10033 20021 39891 40369 52007 88/// 333 00201 30026 70003
AAXX 01001 57604 11731 81601 10039 20030 39908 40368 52009 69902 710// 88/// 333 00200 30040 79999
AAXX 01001 57707 11438 80901 11019 21026 38591 52008 69901 766// 88/// 333 00251 31007 79999 93427
AAXX 01001 57832 31656 80202 11024 21040 40400 52012 710// 88/// 333 00002 30007 92507
AAXX 01001 51437 32962 20000 11127 21143 38183 52001 82/// 333 05252 31019 92524
AAXX 01001 51477 32964 01407 11131 21223 40392 57008 333 05300
AAXX 01001 51633 31936 03601 11168 21196 40407 57006 705// 333 05254
AAXX 01001 51642 32960 73603 11161 21197 40413 57006 87/// 333 05354
AAXX 01001 51701 32/80 93603 11181 21256 36634 57012 333 05101 92501
AAXX 01001 51720 31955 02901 11163 21184 40401 57011 710// 333 05354
AAXX 01001 52101 32980 70901 11149 21193 38352 57010 87/// 333 05311 92502
AAXX 01001 52974 32958 00201 11129 21166 37590 52008 333 00252 92503
AAXX 01001 53519 32959 21401 11169 21225 39075 40463 52003 82/// 333 00455
AAXX 01001 53602 32960 21601 11149 21224 38523 52003 82/// 333 00002
AAXX 01001 53615 32965 73601 11174 21233 39060 40464 57001 87/// 333 00300
AAXX 01001 53810 32957 72201 11120 21174 40415 57001 87/// 333 05102
AAXX 01001 53817 32934 72001 11132 21167 38321 57001 87/// 333 00100 79999 92502
AAXX 01001 53903 31655 82501 11146 21168 38149 57001 710// 88/// 333 00254 79999 92500
AAXX 01001 56043 32959 00000 11198 21231 36484 52008 333 00200
AAXX 01001 56151 31018 00000 11161 21215 36658 52018 705// 333 049//
AAXX 01001 47008 31935 03201 11082 21151 30234 40285 53002 71000 333 21101 4////
AAXX 01001 47014 32970 00000 11226 21238 39938 40389 53003 333 21230 49001
AAXX 01001 47016 32970 00501 11242 21273 39451 40379 53008 333 21257 49001
AAXX 01001 47020 32970 00000 11198 21214 39977 40346 52008 333 21216 47002
AAXX 01001 47025 32565 20000 11080 21117 30260 40291 53001 82500 333 21087 4////
AAXX 01001 47035 32970 83602 11105 21218 30358 40367 52009 80002 333 21105 4////
AAXX 01001 47041 32770 60000 11086 21144 30268 40297 58004 86030 333 21108 4////
AAXX 01001 47055 32970 52701 11046 21144 30256 40305 54000 85050 333 21064
AAXX 01001 47058 32760 60000 11113 21127 30300 40349 54000 84032 333 21118 4////
AAXX 01001 47069 32960 40000 11072 21111 30235 40340 53002 84030 333 21093 4////
AAXX 01001 47105 36982 02304 11017 21178 30272 40306 52004 333 21027 3/103
AAXX 01001 47108 32968 72901 11070 21156 30232 40345 55004 87030 333 21082 3/105
AAXX 01001 47115 32670 50701 10024 21077 30004 40282 58003 82501 333 20010 3/001 92031
AAXX 01001 47135 36968 62702 11046 21101 30028 40342 56001 333 21061 3/104
AAXX 01001 47138 32970 62504 11014 21088 30311 40316 50001 86030 333 21022 3/101 92023
AAXX 01001 47159 12970 10904 10005 21115 30219 40308 55001 69902 80001 333 21019 3/000 92023
AAXX 01001 47165 32670 73605 10017 21039 30303 40352 53009 87500 333 21004 3/002 92023
AAXX 01001 47184 11570 72905 10057 21012 30325 40351 52013 69902 72162 87500 333 20051 3/005 92033
AAXX 01001 23914 41498 82102 11081 21092 39947 40215 50001 77172 8802/ 333 93630
AAXX 01001 23921 42997 50601 11193 21219 30069 40198 52008 80001
AAXX 01001 23955 11384 82503 11158 21192 30152 40217 52001 69972 78582 883// 333 21161 47031 55035 86707
AAXX 01001 24641 12999 02503 11195 21221 30107 40259 57014 60002 333 21227 47025 55000
AAXX 01001 28044 42599 80000 11168 21191 30056 40224 52007 885//
AAXX 01001 28440 41997 82603 11121 21157 39905 40274 50000 70232 8802/
AAXX 01001 28748 42997 22101 11247 21280 30056 40324 58003 80001
AAXX 01001 28900 41996 80000 11205 21226 30143 40336 58003 71022 80001
AAXX 01001 29231 12998 01502 11194 21215 30198 40303 58004 60002 333 21202 47048 55000
AAXX 01001 29838 11996 82802 11118 21130 30113 40359 53002 60012 77172 8802/ 333 21123 48037 55000
AAXX 01001 30372 12999 50501 11373 21418 39528 40551 53010 60002 82041 333 21376 47013 55011
AAXX 01001 30673 12999 80000 11229 21278 39554 40398 52004 60002 86075 333 21295 47019 55023
AAXX 01001 30823 11997 81005 11323 21362 39814 40551 55001 69922 77172 8802/ 333 21324 47005 55063
AAXX 01001 30935 12999 00000 11398 21438 39499 40620 53006 60002 333 21400 47007 55051
AAXX 01001 30965 12998 00000 11371 21418 39547 40518 56005 60002 333 21385 47002 55074
AAXX 01001 31004 11596 82901 11179 21198 39459 40351 52021 60032 77172 85537 333 21179 47048 55000
AAXX 01001 31088 42999 60206 11202 21282 30120 40127 54000 80001 333 55050
AAXX 01001 31137 12699 80000 11357 21391 39220 40380 52016 60002 885// 333 21376 47049
AAXX 01001 31168 42999 61902 11152 21268 30176 40184 51011 80009 333 55000
AAXX 01001 31300 12999 50202 11114 21214 39949 40254 50004 60002 80002 333 21201 47014
AAXX 01001 31329 12999 00000 11342 21383 39543 40304 52008 69972 333 21343 47027 55003
AAXX 01001 31369 42599 52603 11192 21214 30119 40181 52014 82501 333 21192
AAXX 01001 31371 12999 83005 11136 21234 39987 40266 52003 60002 85031 333 21147 47020 55019
AAXX 01001 31388 12999 00000 11292 21324 39973 40266 52009 60002 333 21292 47024 55004
AAXX 01001 31416 41999 82001 11241 21272 30125 40226 52014 77072 86016 333 21256 55026
AAXX 01001 31510 12999 63503 11121 21220 30022 40245 52009 60002 80001 333 21124 47009
AAXX 01001 31538 41999 20201 11235 21270 39767 40243 52008 70271 80001 333 21242
AAXX 01001 31594 12998 01501 11231 21257 30052 40240 55001 60002 333 21258 47023
AAXX 01001 31707 42599 82602 11122 21234 30139 40235 52001 8657/ 333 21013 55066
AAXX 01001 31735 42960 81803 11169 21221 30115 40210 52009 8807/ 333 21179
AAXX 01001 31866 42999 82502 11109 21248 30176 40180 52008 85025
AAXX 01001 31873 42998 82105 11162 21224 30127 40264 57009 80005
AAXX 01001 31909 42999 83007 11110 21247 30114 40195 51006 8805/ 333 55078 91013 91118
AAXX 01001 31960 42999 03406 11141 21263 30040 40292 58007 333 21149 55075
AAXX 01001 32053 42599 72602 11135 21168 30095 40148 52009 86532 333 91004 91104
AAXX 01001 32061 41512 80202 11126 21147 30126 40168 52010 78683 889// 333 55063 91004 91105
AAXX 01001 32098 41598 83604 11111 21147 30148 40160 52011 70281 82933 333 55068 91007 91107
AAXX 01001 32150 41598 73402 11083 21117 30112 40141 53008 72682 86330 333 55041 91004 91106
AAXX 01001 32165 42598 52801 11006 21059 30081 40139 57006 82931 333 55010 91001 91107
AAXX 01001 55690 32972 02201 11262 21290 36003 57001 333 05101 31026
AAXX 01001 47003 32980 03201 11081 21162 30297 40311 53015 333 21119
AAXX 01001 47005 32970 00000 11267 21285 38633 52002 333 21299 49018
AAXX 01001 47022 32970 43601 11220 21264 38876 57020 80002 333 21230
AAXX 01001 47028 32967 33201 11097 21138 30255 40346 57004 83010 333 21102 4////
AAXX 01001 47031 32970 00000 11217 21237 38995 57015 333 21230
AAXX 01001 47037 32968 53202 11098 21164 30182 40314 57005 85030 333 21103 4////
AAXX 01001 47039 32970 80000 11148 21171 30168 40376 52018 80002 333 21161 4////
AAXX 01001 47046 32569 80000 11073 21098 30267 40291 53001 82502 333 21089
AAXX 01001 47050 32565 60000 11124 21144 30300 40337 54000 86500 333 21134
AAXX 01001 47052 32965 40000 11167 21187 39967 40338 57013 80002 333 21175 4////
AAXX 01001 47060 32963 72701 11078 21094 30286 40348 53002 80001 333 21098 4////
AAXX 01001 47061 32980 80000 11027 21090 30262 40307 52002 80001 333 21052
AAXX 01001 47065 32560 80000 11100 21132 30271 40341 57005 84402 333 21115 4////
AAXX 01001 47067 32960 00000 11120 21138 3//// 4//// 5//// 333 21134
AAXX 01001 47068 32560 80000 11090 21112 30306 40344 54000 885// 333 21108 4////
AAXX 01001 47070 32870 60000 11107 21125 30263 40357 57004 86070 333 21129 4////
AAXX 01001 47075 32980 50000 11147 21171 39912 40374 57013 80002 333 21168 4////
AAXX 01001 98223 11460 80503 10257 20202 40171 52020 69904 70564 8287/ 333 20245 55020 56999 58006 79999 82618 88360 91010
AAXX 01001 98325 11460 70902 10240 20226 40164 53023 69924 70544 83570 222// 20000 333 20225 56999 59010 70002 83616 86358 98308
AAXX 01001 98328 11464 71602 10182 20170 38556 40142 53020 60024 70586 81270 333 20144 50430 55038 56999 58008 70020 81815 87359
AAXX 01001 98429 11560 63602 10248 20233 40156 52020 60294 70564 83830 333 20232 56999 58003 70290 83822 85360
AAXX 01001 98440 11466 50906 10268 20247 30155 40120 52029 60264 71562 84302 333 20245 56299 58008 70260 83915 81816 84078
AAXX 01001 98444 11465 60602 10267 20248 30142 40160 53021 61144 70282 84302 333 20240 56999 58012 71135 81918 83820
AAXX 01001 98543 32470 30902 10282 20258 30145 40156 52016 82101 333 20248 55042 56999 58012 82818
AAXX 01001 98550 11460 21601 10262 20246 30143 40146 52021 60074 70280 81201 333 20240 56999 58014 70070 81818
AAXX 01001 98618 32480 40705 10278 20250 40132 52020 82262 333 20268 56999 58001 82819 83074
AAXX 01001 98630 32568 50403 10272 20248 30115 40120 54/// 82208 222// 333 20260 56999 59012 82818 85275
AAXX 01001 98755 11560 60901 10263 20248 30142 40146 52017 60424 70584 83208 333 20242 56299 58014 70416 83820 85280
AAXX 01001 98836 31461 70000 10270 20241 30128 40136 52019 70544 81208 333 20230 56999 58010 81817 87280
AAXX 01001 57127 32959 80901 11002 21041 39761 40402 52005 88/// 333 00201 31010 79999
AAXX 31121 53420 32/71 90704 11127 21205 40448 52016
AAXX 01001 53547 32968 70000 11236 21265 40504 52005 87/// 333 00458 11068 21237
AAXX 01001 55690 32972 02201 11262 21290 36003 57001 333 05101 31026
AAXX 01001 58418 32/62 90404 11001 21015 40399 52010 333 05102 11001 21021 31001 92500
AAXX 31001 58623 11/31 90401 10000 20000 40392 52012 69941 710// 333 00152 10026 21007 30005 70074 92501
AAXX 31181 57839 32/60 9//// 11024 21038 40396 54000 333 11009
AAXX 31121 56190 11/59 93401 10026 20005 39726 40372 52020 69901 70060 333 00200
AAXX 01001 53397 12/57 90000 11266 21298 40524 52013 69922 333 00351 11121 21266 70004 92501
AAXX 31211 57839 41/46 9//// 11022 21030 40376 57018 710// 333 70001
AAXX 01001 57839 11458 8//// 11025 21042 40390 52012 69921 722// 88/// 333 00001 30000 70002 92503
AAXX 01001 58918 12461 82903 10035 20006 40347 52019 69902 88/// 333 00101 30039 79999
AAXX 01001 57027 31/29 90000 11084 21097 39787 40421 52004 710// 333 00155 11001 21085
AAXX 01001 53499 11957 92701 11167 21216 40485 52022 69902 705// 333 00302 11094 21188 79999 92500
AAXX 01001 58509 32/58 93404 10006 21021 40398 52008 333 05102 10011 21014 30011
AAXX 01001 50755 33/// 9////
AAXX 01001 57514 31/38 93401 10039 20019 40362 52009 710// 333 00200 10062 20038 30042
AAXX 01001 57571 31/11 92201 11036 21046 40410 52013 710// 333 00004 10020 21078 31032 92504
AAXX 01001 51818 31956 63401 11141 21176 40377 57015 710// 86/// 333 05251
AAXX 01001 51839 31946 10000 11139 21174 40372 57017 710// 81/// 333 05454
AAXX 01001 57127 32959 80901 11002 21041 39761 40402 52005 88/// 333 00201 31010 79999
AAXX 01001 56128 32/80 93401 11162 21207 36431 52007 333 05204 92502
AAXX 31151 57839 32/66 9//// 11021 21043 40397 52015
AAXX 01001 57390 31/56 90402 11071 21079 40425 52008 710// 333 00200 11019 21079 31006 92505
AAXX 01001 56996 32/61 93601 10065 20062 40295 52012 333 00001 10101 20050 70001
AAXX 31121 58704 31/25 93603 11002 21002 40390 52005 71000
AAXX 01001 57754 11/55 90202 11014 21014 30076 40401 52012 69922 722// 333 05101 10005 21027 30000 70002 92509 93427
AAXX 01001 57835 11/56 93201 11016 21029 39732 40397 52011 69921 710// 333 00001 11003 21029 30000 70002 92501 93427
AAXX 01001 53553 32/60 90000 11184 21210 38930 40479 52014 333 00554 11068 21185 79999
AAXX 31061 58747 11/48 90402 10034 20025 40340 57019 69901 71000 333 20009
AAXX 01001 44207 329// 02501 11358 21399 38378 40650 57006 333 21369 47015 91202
AAXX 01001 44212 329// 30901 11360 21407 39292 40637 57007 83010 333 21419 47011 55000 91202
AAXX 01001 44214 32998 00000 11288 21324 38303 40548 57008 333 21294 47001 91202
AAXX 01001 44218 129// 20000 11325 21361 38677 40592 55007 69902 82040 333 21334 47002 91202
AAXX 01001 44231 319// 00000 11334 21372 38827 40605 57004 70400 333 21335 55049 91200
AAXX 01001 44232 329// 00000 11319 21340 39253 40559 54000 333 21322 91200
AAXX 01001 44239 329// 23101 11328 21366 38909 40581 54001 82040 333 21330 41998 91203
AAXX 01001 44241 329// 01202 11328 21362 39428 40575 53001 333 21347 43002 91202
AAXX 01001 44259 32997 02604 11262 21292 39478 40512 56001 333 21270 46000 91205
AAXX 01001 44272 32999 01901 11303 21343 38246 40569 57004 333 21318 43012 55068 91203
AAXX 01001 44277 329// 22701 11283 21330 37803 40572 57002 80004 333 21306 46001 91204
AAXX 01001 44282 32999 03201 11289 21334 38343 40569 57004 333 21293 45997 91202
AAXX 01001 44284 32999 00000 11328 21371 37874 40643 57003 333 21328 46001 91202
AAXX 01001 44285 32999 00000 11332 21359 38382 40597 57006 333 21333 42002 91200
AAXX 01001 44287 32999 10505 11246 21309 38159 40533 57003 80001 333 21259 91205
AAXX 01001 44288 32999 01801 11251 21305 38210 40536 58003 333 21257 41001 91202
AAXX 01001 44292 329// 01103 11257 21297 38814 40556 53001 333 21257 91204 55034 46997
AAXX 01001 44294 329// 00000 11308 21350 38671 40602 52003 333 21311 91202
AAXX 01001 44298 32999 01303 11235 21267 38833 40531 55002 333 21242 45999 91203
AAXX 01001 44304 32999 02303 11326 21360 39143 40588 53001 333 21331 46001 91204
AAXX 01001 44305 32999 02903 11244 21269 39203 40532 53004 333 21279 42001 91203
AAXX 01001 44314 32998 00000 11215 21249 39286 40504 52002 333 21295 46002 91200
AAXX 01001 44341 329// 20201 11220 21266 38698 40512 53002 80004 333 21235 91202
AAXX 01001 44347 32999 20703 11233 21262 38802 40511 52001 80008 333 21237 45998 91203
AAXX 01001 44352 32999 02903 11214 21247 39065 40491 53005 333 21240 91203
AAXX 01001 44354 31996 00000 11259 21316 39269 40550 52001 70400 333 21266 91200
AAXX 01001 44358 32999 00000 11270 21308 39241 40575 52009 333 21274 91200
AAXX 01001 44373 32999 61901 11218 21253 38607 40509 54000 83048 333 21233 45997 91202
AAXX 01001 28661 42997 62003 11237 21269 30206 40310 58004 86030
AAXX 01001 28838 42997 00000 11253 21284 39820 40351 58005
AAXX 01001 28879 429// 02106 11185 21207 30040 40353 58007
AAXX 01001 28952 429// 21602 11260 21284 30130 40344 57007 82030
AAXX 01001 29023 11998 81802 11190 21209 30150 40255 57007 69922 70272 8801/ 333 21210 47048 55000
AAXX 01001 29122 12999 01903 11188 21213 30188 40266 57002 60002 333 21188 47043
AAXX 01001 29807 429// 02302 11246 21283 30239 40371 52005
AAXX 01001 30230 129// 20000 11386 21414 30120 40508 57005 60002 80001 333 21394 48037 55057
AAXX 01001 30309 129// 02801 11247 21272 39868 40446 55000 60002 333 21248 47031 55035
AAXX 01001 30385 12999 33401 11327 21358 39782 40411 53006 60002 82031 333 21328 47018 55000
AAXX 01001 30650 129// 20201 11370 21409 39260 40562 53004 60002 80001 333 21384 47010
AAXX 01001 30710 129// 00801 11231 21262 39801 40446 55006 60002 333 21249 47020 55052
AAXX 01001 30844 12999 00000 11387 21438 39440 40596 52005 60002 333 21390 47003
AAXX 01001 31532 41999 01401 11288 21316 39881 40261 51009 70271 333 21303 55065
AAXX 01001 31989 42999 00204 11078 21280 30178 40234 50000
AAXX 01001 35078 414// 82304 11178 21197 39968 40380 58007 77777 886//
AAXX 01001 35108 425// 70000 11189 21222 30290 40338 52000 87500
AAXX 01001 35188 413// 81801 11172 21191 39926 40397 58008 77174 886//
AAXX 01001 35229 429// 80901 11174 21200 30057 40354 57005 8805/
AAXX 01001 35394 41998 41201 11229 21258 39676 40427 58004 70271 80001
AAXX 01001 35416 425// 80000 11046 21062 30206 40330 52001 885//
AAXX 01001 35576 429// 71801 11227 21244 39914 40411 58012 80001
AAXX 01001 35671 41596 83301 11179 21207 39925 40392 57008 77072 885//
AAXX 01001 35746 429// 00303 11110 21138 30284 40355 57003
AAXX 01001 35796 42997 00503 11199 21233 39925 40402 58002
AAXX 01001 36003 41998 00000 11221 21252 30235 40403 52006 70271
AAXX 01001 36177 415// 72702 11127 21144 30132 40394 52013 78582 87300
AAXX 01001 36428 427// 80401 11150 21172 39857 40391 53002 8257/ 333 95090
AAXX 01001 36498 429// 00405 11209 21232 39554 40419 52001
AAXX 01001 36665 429// 82202 11164 21188 39621 40400 57002 8807/
AAXX 01001 36729 41498 80000 11092 21117 39870 40374 54000 70272 886// 333 91104
AAXX 01001 36859 41/// 90000 11030 21031 39540 40339 58006 74542 333 91106
AAXX 01001 36870 41/// 90000 11052 21055 39284 40332 58014 74575 333 93603
AAXX 01001 38081 426// 80606 11057 21087 30078 40325 57004 885//
AAXX 01001 38198 429// 03402 11040 21045 39994 40257 57017
AAXX 01001 38341 42697 83601 11039 21039 39492 40302 57019 884//
AAXX 01001 48838 32498 80701 10094 20059 30280 40287 53013 888// 333 01010 20093 3/010 59004 82894 88696
AAXX 01001 58918 12461 82903 10035 20006 40347 52019 69902 88/// 333 00101 30039 79999
AAXX 01001 42348 31995 00000 10098 20034 40210 70500 333 59008
AAXX 01001 42361 31995 00000 10060 20056 40207 70500 333 59011
AAXX 01001 42369 31993 04951 10074 20056 40206 71100 333 59004
AAXX 01001 42452 31996 00000 10084 20048 40227 70500 333 59010
AAXX 01001 42559 32996 00000 10088 20048 40204 333 58003
AAXX 01001 42667 31996 00202 10094 20038 39594 40212 70500 333 59002
AAXX 01001 42724 31995 00000 10116 20104 40181 71000 333 58007
AAXX 01001 42779 32996 00000 10090 20023 39486 40221 333 58003
AAXX 01001 42809 31995 00000 10136 20116 40186 70500 333 58006
AAXX 01001 42867 31995 00000 10970 20027 40216 70500 333 59001
AAXX 01001 43003 31995 00000 10156 20119 40169 70500 333 58006
AAXX 01001 43014 31996 00000 10094 20028 39522 40202 70544 333 58001
AAXX 01001 43063 32996 00000 10092 20076 39548 40205 333 58003
AAXX 01001 43117 32996 00000 10118 20038 40197 333 58001
AAXX 01001 43128 31995 00000 10104 20072 39572 40211 71010 333 58011
AAXX 01001 43185 31996 02901 10172 20162 30177 40181 70500 333 58004
AAXX 01001 43189 31995 00000 10162 20118 30175 40184 70500 333 58002
AAXX 01001 43192 32996 23602 10206 20133 40155 80002 333 58006
AAXX 01001 43233 32996 00000 10144 20127 39349 40183 333 58009
AAXX 01001 43237 31996 00000 10158 20133 39775 40183 70500 333 58001
AAXX 01001 43245 32996 00000 10190 20156 30153 40180 333 58005
AAXX 01001 43279 32596 50000 10192 20165 30163 40181 83501 333 58008 83620 82075
AAXX 01001 43284 32996 00903 10218 20147 30032 40149 333 58009
AAXX 01001 43295 31495 40701 10150 20140 39143 48534 71000 83501 333 58006 83615 84075
AAXX 01001 43321 31495 60503 10198 20172 39724 40181 71022 83531 333 58006 83615 83070
AAXX 01001 43344 31494 40203 10204 20175 30057 40158 71011 81501 333 58007 81616 83075
AAXX 01001 43371 32596 20000 10238 20226 30071 40141 81501 333 58007 81620
AAXX 01001 20107 41597 20107 11154 21206 39945 40046 52005 73683 82500 333 91009
AAXX 01001 22550 42569 81804 11085 21111 30065 40075 58026 8455/
AAXX 01001 22583 41582 82202 11083 21101 30006 40090 57004 70288 885// 333 88626
AAXX 01001 22768 41997 82005 11131 21149 30120 40174 58009 70232 80007
AAXX 01001 22845 41396 81803 11134 21149 30004 40170 57027 77171 8672/ 333 86708
AAXX 01001 26063 42497 82004 11016 21046 30097 40105 57048 885// 333 88612 91010 91110
AAXX 01001 26298 41496 81703 11031 21044 39951 40189 56033 71022 886//
AAXX 01001 26477 42597 82102 11016 21025 30063 40196 57026 885//
AAXX 01001 26702 41597 82303 10029 20005 30155 40183 57042 72522 888// 333 91008 91110
AAXX 01001 26850 41342 80000 11005 21013 39933 40223 57018 77772 886// 333 88708
AAXX 01001 26997 41440 82002 11048 21061 30030 40259 58009 78582 889// 333 86915
AAXX 01001 27595 41597 82303 11086 21108 30132 40289 52002 77172 8652/
AAXX 01001 27612 415// 81701 11044 21064 30043 40246 57011 71022 885//
AAXX 01001 27947 41660 80901 11106 21126 30112 40288 57008 77122 8802/ 333 88543
AAXX 01001 27962 41396 81002 11168 21180 30086 40320 57005 77071 886// 333 88709
AAXX 01001 33008 42470 72301 11002 21010 30080 40265 58012 87500 333 87615
AAXX 01001 34009 41596 82401 11069 21077 39962 40283 58004 71082 885//
AAXX 01001 34247 42897 80000 11083 21111 30162 40283 52001 8807/
AAXX 01001 34391 41496 80703 11138 21147 30283 40316 57004 77172 887// 333 88517
AAXX 01001 37018 81697 81002 10046 20013 30180 40257 52008 70182 86902
AAXX 01001 37054 41497 80601 10015 21012 39872 40265 53008 885//
AAXX 01001 44203 329// 01601 11427 21467 38494 40739 57006 333 21435 48002 91201
AAXX 01001 44213 32999 00000 11427 21479 38901 40682 57006 333 21429 47017 91200
AAXX 01001 44215 32998 50000 11292 21328 38454 40560 57007 85030 333 21298 91200
AAXX 01001 44225 319// 00000 11426 21470 38327 40748 57003 74444 333 21428 44006 91200
AAXX 01001 44230 329// 00201 11306 21348 38908 40600 57002 333 21306 46000 91202
AAXX 01001 44237 32999 02502 11325 21362 38558 40597 56002 333 21326 91203
AAXX 01001 44256 32999 22904 11256 21287 39519 40480 57004 80001 333 21294 45002 91206
AAXX 01001 44265 329// 03502 11193 21229 38917 40460 58007 333 21250 43003 91202
AAXX 01001 44275 32999 02601 11338 21376 37730 40658 57005 333 21347 45000 91205
AAXX 01001 44302 32999 02704 11287 21319 39269 40536 53001 333 21303 45999 91206
AAXX 01001 44313 32999 30000 11314 21342 39551 40516 57003 83040 333 21353 47002 91200
AAXX 01001 44336 329// 03201 11299 21349 38756 40535 57006 333 21300 41998 91201
AAXX 01001 23711 42498 82203 11090 21110 39992 40169 57002 889// 333 85711
AAXX 01001 23804 41496 82103 11090 21102 30025 40176 57015 77172 8652/ 333 86614
AAXX 01001 24125 63/// /2503 11159 21211 39855 40146 52005 60002 333 21160
AAXX 01001 24143 12999 02004 11270 21301 30100 40154 56012 60002 333 21273 48024
AAXX 01001 24343 11998 81802 11304 21321 30068 40200 57022 69924 77172 80007 333 21316 47034 55000
AAXX 01001 24738 12998 22003 11189 21215 30148 40337 58002 60002 80001 333 21196 47024 55000
AAXX 01001 24951 11999 02703 11188 21221 30146 40325 52012 69982 70271 333 21190 47019
AAXX 01001 24959 11998 82701 11281 21305 30140 40283 54000 69952 77172 84035 333 21329 47022 55009
AAXX 01001 24966 42999 80000 11378 21399 30061 40311 52007 86077 333 21395 55000
AAXX 01001 29313 12998 81902 11222 21249 30161 40296 57001 69902 84072 333 21231 47049 55015
AAXX 01001 29612 12998 01903 11222 21253 30171 40338 54000 60002 333 21222 48032 55026
AAXX 01001 29698 129// 00000 11372 21411 39862 40464 55002 60002 333 21372 47016 55054
AAXX 01001 30758 11925 00000 11356 21397 39584 40545 53003 60002 77670 333 21358 47004 55055
AAXX 01001 30949 12999 00000 11346 21391 39297 40571 53002 60002 333 21348 47001 55061
AAXX 01001 32027 42599 73206 11120 21140 30159 40168 53026 87900 333 55054 91006 91108
AAXX 01001 32411 42998 70401 11170 21210 30038 40045 52007 80001 333 55054
AAXX 01001 35361 419// 81802 11165 21191 30174 40366 57009 77172 8802/
AAXX 01001 35406 425// 80000 11043 21042 30317 40319 53002 885//
AAXX 01001 38049 42997 00702 11106 21116 30211 40329 57003
AAXX 01001 38062 429// 00304 11076 21094 30135 40306 57011
AAXX 01001 38232 42598 80903 11024 21034 30180 40282 57003 885//
AAXX 01001 38388 42598 80902 11008 21036 30200 40273 57005 889//
AAXX 01001 38413 429// 80804 11014 21026 39968 40267 57006 8802/
AAXX 01001 38457 41/93 90801 10005 21001 39633 40234 57016 74744
AAXX 01001 38507 41396 40702 11006 21009 30144 40250 54000 71011 84600
AAXX 01001 38545 42598 80203 10008 21006 30070 40249 57005 889//
AAXX 01001 38656 42698 83402 10018 20007 30152 40265 55000 885//
AAXX 01001 38687 41496 83602 10022 20006 39995 40236 54000 71022 886// 333 88711
AAXX 01001 38880 41396 80502 10034 20021 39991 40253 58002 71052 886//
AAXX 01001 38895 42996 80000 10038 20012 39955 40250 53005 8807/
AAXX 01001 38927 32860 82305 10070 20015 39814 40191 56001 8895/ 333 83966
AAXX 01001 38974 42998 83402 10040 20028 39908 40249 58002
AAXX 01001 48826 32560 83401 10105 20094 30141 40284 53016 888// 333 00013 20100 3/012 59001 82895 88697
AAXX 01001 48808 32470 81801 10076 20060 30314 52015 888// 333 01010 20076 3/009 59006 83894 88696
AAXX 01001 48830 83604 10056 20031 39989 40316 52019 885// 333 01006 20056 3/006 59001 88697
AAXX 01001 48894 32598 73603 10276 20182 30140 40144 52017 83508 333 00025 20246 3/025 58013 83697 87299
AAXX 01001 51495 32963 00204 11144 21237 40419 57008 333 05300
AAXX 01001 57545 32965 82001 11007 21024 40401 52013 88/// 333 00001 30010 79999
AAXX 01001 98232 11562 80406 10232 20227 30205 40208 51030 60134 76186 8352/ 222// 20102 333 20/// 56999 58009 70134 83820 88358
AAXX 01001 98526 12575 80404 10284 20215 40151 5//// 81107 333 20253 56299 58013 81820 88274 98335
AAXX 01001 98653 11468 60402 10282 20253 30115 40160 52017 60174 70544 82270 333 20239 56999 58015 70173 82818 86358 66464
AAXX 01001 22113 41597 71902 11064 21075 39831 49895 57040 78582 87900 333 91003
AAXX 01001 22271 41598 82206 11051 21056 39976 49982 58015 70231 885// 333 91110
AAXX 01001 22820 41497 82107 11061 21078 39952 40092 57046 70272 8652/ 333 91117
AAXX 01001 22887 41997 71803 11101 21121 30125 40199 57008 70282 84031
AAXX 01001 26781 41496 81801 11027 21029 39919 40223 57016 71072 8802/
AAXX 01001 27037 41498 81902 11101 21114 30048 40220 57020 70242 885// 333 86710
AAXX 01001 33345 32697 82002 11021 21039 30054 40268 58002 885// 333 88636
AAXX 01001 33393 /1260 82802 10000 21009 39875 40280 58003 77172 8672/ 333 86704
AAXX 01001 33658 32475 82906 10018 21004 39972 40280 52005 886// 333 88711
AAXX 01001 33791 31417 80603 11060 21068 30132 40292 52007 71022 886// 333 88712
AAXX 01001 33837 32567 83501 11006 21048 30237 40291 51004 885// 333 88622
AAXX 01001 33946 41548 80601 10000 21004 30047 40276 52005 71022 885// 333 88628
AAXX 01001 34300 31228 82201 11073 21086 30092 40294 52005 71022 885// 333 86706
AAXX 01001 34560 41196 80904 11111 21124 30087 40291 57001 71074 886// 333 88703
AAXX 01001 34691 42998 80000 11071 21092 30303 40390 52003 8802/
AAXX 01001 34866 81996 80602 10000 20000 30276 40267 52004 71022 8007/
AAXX 01001 34880 41495 80701 11002 21016 30299 40272 52001 77372 8672/
AAXX 01001 37472 42597 72803 10018 21017 30273 40250 52008 85531
AAXX 01001 48008 31920 30000 10110 20105 40199 71044 82240 333 20100 56990 58013 60002
AAXX 01001 48018 32930 00000 10110 20110 40196 70200 80000 333 20095 56000 58011 60002
AAXX 01001 48025 31008 33201 10116 20102 40210 74011 83600 333 20084 56700 59011 60002
AAXX 01001 48035 31520 41402 10111 20110 40195 71000 82800 333 20094 56900 58018 60002
AAXX 01001 48042 31550 10000 10135 20121 40180 71011 81400 333 20130 56900 58007 60002
AAXX 01001 48053 32950 03601 10130 20113 40186 80000 333 20128 56000 58009 60002
AAXX 01001 48060 32440 60000 10165 20157 40202 70122 86800 333 20155 56600 58015 60002
AAXX 01001 48062 31440 50402 10162 20160 40164 71011 83830 333 20123 56990 58009
AAXX 01001 48078 32550 20000 10170 20162 40174 81501 333 20158 56509 58014
AAXX 01001 48080 32556 30000 10171 20154 40167 83800 333 20112 56900 58013
AAXX 01001 48108 31491 40000 10200 20185 40158 74044 83405 333 20190 56909 58010
AAXX 01001 48110 31595 50000 10225 20200 40155 71022 81406 333 20220 56909 58012
AAXX 01001 48112 32597 80410 10255 20217 40145 83876 333 20200 56199 58015
AAXX 01001 48327 32560 30000 10200 20187 39841 40205 52016 82535 333 20197 58015
AAXX 01001 48331 32960 50000 10173 20165 39968 40207 52015 85030 333 20169 58018
AAXX 01001 48353 32660 20000 10157 20136 39917 40218 52015 82501 333 20155 58017
AAXX 01001 48356 32662 60000 10137 20112 30008 40214 52009 82136 333 20134 58003
AAXX 01001 48375 31556 60000 10205 20194 39957 40188 52014 71022 83536 333 20201 58012
AAXX 01001 48378 32560 80602 10220 20185 30136 40189 52018 84546 333 20205 58014
AAXX 01001 48381 32560 60202 10160 20123 39987 40215 52021 82556 333 20157 58021
AAXX 01001 48407 32960 60102 10170 20129 30046 40192 52008 82036 333 20164 58007
AAXX 01001 48431 32560 60603 10174 20131 39989 40211 52016 82536 333 20172 58023
AAXX 01001 48432 31550 60201 10155 20122 30025 40201 52009 71011 82576 333 20150 58008
AAXX 01001 48455 31957 30000 10233 20207 30173 40178 52015 71011 80005 333 20233 58017
AAXX 01001 48456 32960 30303 10208 20174 30163 40177 52015 80005 333 20208 58016
AAXX 01001 48480 31958 50504 10214 20144 30162 40167 52015 70511 80006 333 20212 58016
AAXX 01001 48500 32560 50103 10234 20180 30153 40161 52011 83846 333 20188 58013
AAXX 01001 58546 31/40 91101 10018 20009 40395 52016 710// 333 05102 10026 21001 30022 79999
AAXX 01001 54621 32/57 92901 11114 21176 40420 52012 333 05251 10002 21116
AAXX 31121 51571 31/37 91801 11098 21212 30380 40449 54000 70500 333 00101
AAXX 31211 56106 32/80 93201 11137 21172 36240 52001 333 00001 92502
AAXX 01001 57776 12/00 9//// 11061 21064 40393 52005 69902 333 00002 31021 79999 92505 93461
AAXX 01001 58968 11562 80905 10162 20144 30256 40293 52020 60022 76166 885//
AAXX 01001 59158 32670 20301 10167 20138 30149 40252 51018 82501
AAXX 01001 59358 32962 73504 10171 20140 30220 40252 53020 8705/
AAXX 01001 59559 32568 80410 10223 20169 30200 40228 52013 8212/
AAXX 01001 59562 12681 83301 10202 20152 30257 40269 51028 69902 8222/
AAXX 01001 59567 11230 80213 10187 20187 39856 40239 51016 60042 71062 886//
AAXX 01001 56106 32780 63201 11155 21192 36246 52006 86/// 333 00003 92502
AAXX 01001 51465 32/80 92001 11121 21185 38142 57005 333 05351 11033 21127 31024 92525
AAXX 01001 56167 32980 00000 11123 21168 37109 52019 333 05202
AAXX 01001 59254 11403 80902 10043 20039 30164 40329 52014 69921 754// 88/// 333 00001 70003
AAXX 01001 57545 32965 82001 11007 21024 40401 52013 88/// 333 00001 30010 79999
AAXX 31121 58609 12/44 90203 10007 21006 30354 40391 52005 69921 333 92501
AAXX 31121 58433 32/58 90000 10007 21012 30351 40393 57002
AAXX 31001 58704 11/40 93403 11011 21017 30259 40396 52009 69981 710// 333 00051 11002 21016 30017 70008 92500
AAXX 31001 57837 32/60 90204 11053 21070 40392 52009 333 00000 11015 21054 30000 70001 92504
AAXX 31001 53857 32/61 92701 11105 21187 40413 52014 333 05208 10000 21183
AAXX 31061 58433 32/60 93602 10002 21023 40383 57024 333 21019
AAXX 01001 56298 11/12 93401 10026 20026 40366 52004 69902 710// 333 00200 10048 20026 30024 79999
AAXX 31121 51571 31/37 91801 11098 21212 30380 40449 54000 70500 333 00101
AAXX 31061 57839 32567 8//// 11013 21050 39649 40364 57033 88/// 333 21037 93427
AAXX 01001 58427 11/49 90702 10008 21008 30383 40404 52018 69922 710// 333 00002 10008 21012 30000 70002 92502
AAXX 01001 57453 31/56 90000 11011 21055 40410 52012 710// 333 00104 10040 21050 31009
AAXX 31121 58433 32/58 90000 10007 21012 40393 57002
AAXX 31181 56106 32/76 92901 11105 21146 36239 52003 333 05103 11023 92502
AAXX 01001 53968 31950 71601 11076 21134 40419 52004 705// 87/// 333 05102
AAXX 31211 58637 31/30 91601 10017 20016 40374 57009 710//
AAXX 01001 57839 11458 8//// 11025 21042 40390 52012 69921 723// 88/// 333 00001 30000 70002 92503 93427
AAXX 01001 57840 32662 80401 11012 21032 40396 52013 88/// 333 05102 30003 92501
AAXX 31001 58616 41/46 93202 11003 21007 40398 52011 710// 333 00100 10010 21008 30001 92502
AAXX 01001 58441 31/40 92901 10007 21002 40405 52018 710// 333 05102 10013 21015 30016 92500
AAXX 01001 51495 32963 00204 11144 21237 40419 57008 333 05300
AAXX 01001 24266 42998 12301 11346 21374 39965 40162 58021 81030 333 55000
AAXX 01001 24329 11999 02705 11106 21169 39889 40196 56003 60002 73630 333 21346 47017 55000
AAXX 01001 24382 41999 80000 11293 21318 39871 40144 58020 70272 82036 333 55000
AAXX 01001 24507 119// 23001 11296 21320 30053 40326 52005 69902 70271 80001 333 21356 47039 55000
AAXX 01001 24671 42999 20000 11425 21444 39739 40338 53009 80001 333 55000
AAXX 01001 24688 42999 80000 11415 21437 39258 40318 57015 8802/ 333 55000
AAXX 01001 24817 129// 01201 21278 30001 40397 58019 60002 333 21285 47039 55000
AAXX 01001 24908 12998 00000 11395 21434 30040 40429 55000 60002 333 21397 47046 55011
AAXX 01001 24944 12998 82504 11199 21218 30041 40356 53011 60002 80001 333 21218 47022 55000
AAXX 01001 29594 129// 30000 11291 21325 39986 40423 54000 60002 80005 333 21291 48014 55059
AAXX 01001 29676 12998 03601 11318 21353 39931 40415 53002 60002 333 21318 47005
AAXX 01001 30054 12998 20000 11364 21388 30204 40486 57007 60002 80001 333 21365 47047 55015
AAXX 01001 30393 11599 83406 11168 21210 39229 40335 52018 60002 73632 82531 333 21169 47034 91011 91112
AAXX 01001 30433 129// 20000 11246 21272 39822 40484 57006 60002 80001 333 21258 47033 55062
AAXX 01001 30521 129// 00000 11405 21458 39923 40549 57004 60002 333 21409 47018 55040
AAXX 01001 30554 129// 40000 11358 21403 39267 40537 52002 60002 81041 333 21360 47012 55046
AAXX 01001 30603 129// 00000 11311 21346 39807 40457 57005 60002 333 21314 47019
AAXX 01001 30612 129// 02702 11302 21337 39864 40471 57003 60002 333 21304 47011 55065
AAXX 01001 30627 12999 80205 11269 21281 39445 40486 57005 60002 8807/ 333 21270 47010 55061
AAXX 01001 30635 129// 01003 11288 21322 39850 40501 55000 60002 333 21304 47043
AAXX 01001 30664 129// 80000 11355 21400 39376 40523 54000 60002 85041 333 21370 47014 55063
AAXX 01001 30802 12999 00000 11329 21360 38794 48541 57004 60002 333 21332 46997 55066
AAXX 01001 30879 12999 80000 11297 21331 39581 40443 57003 60002 85032 333 21322 47007 55059
AAXX 01001 30925 129// 00000 11306 21342 39439 40548 57001 60002 333 21307 47003 55070
AAXX 01001 35358 429// 81602 11095 21111 30176 40356 57007 8802/
AAXX 01001 35700 42598 81003 11022 21054 30341 40317 52003 885//
AAXX 01001 35715 42597 81103 11057 21083 30344 40329 53009 885//
AAXX 01001 35925 415// 80901 11055 21069 30215 40331 53006 71022 887//
AAXX 01001 36034 11497 82703 11111 21129 30088 40379 52010 60032 77172 886// 333 21111 47018 85710
AAXX 01001 36061 11596 80000 11209 21230 39944 40391 58004 69932 78582 86971 333 21222 55000
AAXX 01001 36982 429// 30000 11217 21265 36530 47160 57001 83030
AAXX 01001 38001 42997 60905 10011 21015 30295 40265 52002 86030
AAXX 01001 38353 419// 80901 11037 21042 39378 40310 57019 70242 8801/
AAXX 01001 38392 42497 70504 11017 21041 30167 40274 57002 87500 333 87615
AAXX 01001 38613 429// 00101 11018 21059 39336 40266 57026
AAXX 01001 38696 329// 20000 11002 21020 39457 40246 57007 80003
AAXX 01001 38750 42997 00403 10021 20011 30264 40235 53006
AAXX 31211 56106 32/80 93201 11137 21172 36240 52001 333 00001 92502
AAXX 01001 57776 12/00 9//// 11061 21064 40393 52005 69902 333 00002 31021 79999 92505 93461
AAXX 01001 58968 11562 80905 10162 20144 30256 40293 52020 60022 76166 885//
AAXX 01001 59358 32962 73504 10171 20140 30220 40252 53020 8705/
AAXX 01001 59559 32568 80410 10223 20169 30200 40228 52013 8212/
AAXX 01001 59158 32670 20301 10167 20138 30149 40252 51018 82501
AAXX 01001 59562 12681 83301 10202 20152 30257 40269 51028 69902 8222/
AAXX 01001 59567 11230 80213 10187 20187 39856 40239 51016 60042 71062 886//
AAXX 01001 59254 11403 80902 10043 20039 30164 40329 52014 69921 754// 88/// 333 00001 70003
AAXX 01001 56167 32980 00000 11123 21168 37109 52019 333 05202
AAXX 01001 56106 32780 63201 11155 21192 36246 52006 86/// 333 00003 92502
AAXX 01001 48930 32460 80000 10160 20137 39875 40236 52015 8387/ 333 20150 58015
AAXX 01001 48935 31450 80903 10083 20081 39010 48477 52010 71044 8487/ 333 20081 58000
AAXX 01001 48940 31650 51201 10172 20136 30001 40203 52015 71022 85500 333 20172 58006
AAXX 01001 48955 32570 40404 10194 20134 30052 40176 52014 81102 333 20180 58006
AAXX 01001 01001 11560 83505 11065 21123 30187 40199 53052 60001 78532 888// 333 91122
AAXX 01001 01028 11560 83605 11079 21137 39993 40013 51008 69901 72682 885// 333 91114
AAXX 01001 01055 46/// /0706 11009 21037 39875 49893 52006 333 91118
AAXX 01001 01152 11475 72205 10042 20007 39790 49806 50005 60061 70286 8687/ 333 91119
AAXX 01001 01384 11675 12202 10046 20007 56051 69921 70120 81600
AAXX 01001 01415 17661 82707 10078 20029 30067 40078 58023 60021 700// 333 91122
AAXX 01001 02186 07883 82002 10014 20008 39792 49816 56027 69921 72284 333 69905 88/57 91005 90710 91106 90710 91205
AAXX 01001 02226 45/83 /2502 10021 21011 39440 49889 56026 8//// 333 82/19 85/26 88/32
AAXX 01001 02590 35483 82305 10059 20044 39979 40040 56059 60001 333 60005 81/13 88/16 91013 90710 91114 90710 91210
AAXX 01001 02836 47316 81202 11051 21053 39611 49834 57028 77475 88/// 90000
AAXX 01001 02935 47219 81903 11005 21005 39773 49946 57050 77170 88/// 90000
AAXX 01001 04018 42681 21201 11054 21088 40349 52033 81501
AAXX 01001 04250 073// 83408 11050 21051 30068 40176 52004 60011 7//77 333 55300 20000 69917 81/08 83/15 88/18
AAXX 01001 04320 45/84 03105 11219 21289 30177 40193 52010 333 55300 20000
AAXX 01001 04360 05981 70000 11097 21146 30225 40300 52010 6///1 333 55300 20000 6///7 83/64 87/66
AAXX 01001 07149 02480 83103 10079 20054 30251 40363 56002 60001 885// 333 60007 88615 90710 91110 93100
AAXX 01001 07510 04131 80503 10052 20051 30287 40348 57003 60001 710// 333 4/000 60007 90710 91109
AAXX 01001 07650 04945 /1602 10014 20005 30230 40271 50000 60001 710// 333 4/000 60007 90710 91106
AAXX 01001 07761 04970 /0403 10048 20023 30258 40269 53001 60001 700// 333 4/000 60007 90710 91110
AAXX 01001 12330 11256 82205 10033 20023 30139 40250 57031 60001 71022 885// 333 88705 91205 93000
AAXX 01001 12375 12560 72403 10018 21005 30130 40265 56018 60001 8453/ 333 91204 93000
AAXX 01001 13272 11760 63403 10026 20017 30172 40296 52008 69921 70162 83530 333 83650 86359
AAXX 01001 16560 12960 03103 10062 20052 30260 40264 52002 60001
AAXX 01001 41571 119// 50000 10055 20032 39600 40211 60002 71022 80001 333 56009 59034
AAXX 01001 41640 01994 00000 10080 20058 39946 40207 60002 71000 333 59019 60007
AAXX 01001 41660 117// 71803 10070 21062 38453 48544 60002 70522 82530 333 56990 59024 82650 85360
AAXX 01001 41675 01994 00000 10070 20047 30049 40193 60002 71000 333 59024 60007
AAXX 01001 42410 31395 10000 10110 20102 40207 71000 81700 333 58013 81610
AAXX 01001 42492 31994 00000 10070 20062 40194 71100 333 58001
AAXX 01001 42675 31996 00000 10062 20039 40216 70500 333 59015
AAXX 01001 42754 31995 01102 10108 20064 39537 40202 70500 333 59003
AAXX 01001 42886 31995 00000 10082 20069 40206 70500 333 58004
AAXX 01001 42895 32996 03601 10126 20086 40192 333 58010
AAXX 01001 42971 31995 00000 10108 20088 40195 71000 333 58007
AAXX 01001 43198 32996 00000 10136 20056 39325 40177 333 58002
AAXX 01001 43201 32996 00000 10134 20063 39442 40188 333 58004
AAXX 01001 43213 32996 00000 10152 20090 39852 40182 333 58000
AAXX 01001 43329 31995 12902 10198 20175 30155 40169 70500 80001 333 58010
AAXX 01001 43353 31495 30704 10234 20197 40151 71011 81830 333 56290 58008 81816 83359
AAXX 01001 21802 12999 02105 11176 21206 30036 40061 52007 60002 333 21177 48049 55///
AAXX 01001 23256 41998 41910 11179 21201 30006 40043 53003 73673 84010 333 91014 91115
AAXX 01001 23274 11697 71807 11183 21202 30090 40128 56002 69982 77173 8352/ 333 21200 47044 55000 91112
AAXX 01001 23330 41496 81903 11135 21156 30025 40047 52018 77172 8677/ 333 86711 93502
AAXX 01001 23383 119// 82005 11157 21199 39841 40211 5//// 69952 77173 8807/ 333 21271 47054
AAXX 01001 23472 11494 81906 11152 21179 30119 40175 57008 69932 78683 889// 333 21181 48057 55000 91012 91114
AAXX 01001 23552 41496 81903 11173 21195 30076 40111 52006 77173 8552/ 333 85610
AAXX 01001 23631 42998 02505 11123 21136 30078 40121 52017
AAXX 01001 23678 119// 31106 11172 21198 30189 40250 58006 69932 73673 80001 333 21183 47055 91010 91112
AAXX 01001 23724 42998 21902 11139 21155 30096 40164 52007 82010
AAXX 01001 23734 42998 82401 11151 21171 30061 40157 52014 80001 333 93501
AAXX 01001 23849 41456 82305 11127 21145 30098 40177 52009 77172 8802/ 333 88515
AAXX 01001 23884 115// 51002 11167 21201 30227 40305 58008 69942 77178 80006 333 21169 47058 55000
AAXX 01001 23891 11996 00000 11365 21401 30032 40397 52002 69902 70271 333 21374 47051 55023
AAXX 01001 23933 41997 21902 11160 21179 30128 40188 52014 77670 80005
AAXX 01001 23966 12999 81802 11180 21206 30129 40264 57008 60002 82032 333 21210 47040 55000
AAXX 01001 25400 41498 81902 11292 21316 30043 40104 57011 77172 8472/ 333 55000
AAXX 01001 28064 42998 32001 11175 21195 30122 40217 52009 80001
AAXX 01001 28275 42997 82202 11129 21154 30180 40246 52004 8805/
AAXX 01001 28382 41998 82203 11148 21162 30183 40258 54000 70272 8807/ 333 93501
AAXX 01001 28493 41996 81802 11188 21207 30187 40287 52002 77171 8801/
AAXX 01001 28573 42997 02004 11220 21249 30186 40300 50000
AAXX 01001 28698 41997 02201 11208 21230 30165 40335 54001 77671
AAXX 01001 28722 41596 81803 11193 21223 30183 40327 57004 78582 889//
AAXX 01001 28786 41997 02303 11203 21223 30173 40345 58004 70270
AAXX 01001 29253 118// 80000 11157 21176 30156 40340 58005 69932 77172 8802/ 333 21170 47052
AAXX 01001 29263 11559 71102 11186 21205 30249 40363 58002 69922 78582 84931 333 21186 48045 55019
AAXX 01001 29282 11961 80000 11309 21349 30219 40413 52001 69902 77174 80007 333 21328 47033 55000
AAXX 01001 29430 12998 00000 11176 21197 30156 40346 58002 60002 333 21181 47065
AAXX 01001 35067 419// 82302 11173 21198 30058 40364 58007 77172 8802/
AAXX 01001 35121 41497 80701 11158 21174 30178 40337 57004 77172 8672/ 333 86710
AAXX 01001 35633 415// 81802 11056 21074 30128 40350 54000 71022 885//
AAXX 01001 38763 41495 80904 10026 20018 30145 40253 53001 71052 886// 333 88713
AAXX 01001 38836 426// 50000 10033 21008 39259 40208 52005 84903
AAXX 01001 38911 42997 83003 10048 20018 39924 40222 53005 8807/
AAXX 01001 38954 429// 20000 11091 21091 37978 48610 57011 80001
AAXX 01001 38987 41494 80102 10042 20037 39493 40248 54000 76166 8802/
AAXX 01001 50548 32955 70202 11160 21271 40331 54000 87/// 333 06110
AAXX 01001 50853 32961 72502 11199 21250 30075 40323 57005 87/// 333 06053 92502
AAXX 01001 01241 11480 72506 10039 20021 39854 49864 58039 60041 72582 8696/ 333 91119
AAXX 01001 06011 07664 72103 10029 21027 30144 40214 52073 69941 70085 333 55300 20000 69907 81/33 85/38 87/46 91127 91215
AAXX 01001 06180 05471 82409 10075 20054 30151 40157 57036 69921 333 6///7 88/16
AAXX 01001 07110 04482 80502 10081 20050 30258 40380 55002 60001 700// 333 4/000 60007 90710 91106
AAXX 01001 08589 32475 30406 10210 20142 40170 81501 333 58015 81613 83070
AAXX 01001 08594 32962 40603 10173 20149 40173 82031 333 58015 82360 83070
AAXX 01001 11518 01460 82305 10047 20038 39851 40300 57013 69901 70252 885// 333 55000 60005 82617 88620
AAXX 01001 15420 01493 80602 10011 20009 30163 40279 52009 60001 74442 886// 333 55300 0//// 20000 3//// 55000 0//// 20270 3//// 60007 91004 91105
AAXX 01001 15614 11658 60000 10000 21014 39534 40263 52006 60001 71022 86500 333 10024 20000
AAXX 01001 16420 11597 53505 10100 20019 30120 40187 58004 69941 70162 84551 333 84630 91022
AAXX 01001 16597 01665 73512 10110 20030 30088 40199 58004 69901 70261 8127/ 333 69907 81838 83359 87361 91134 91226
AAXX 01001 16716 17/// /3607 10073 20057 30065 40117 57014 60241 74144 333 90730 91128
AAXX 01001 17060 12960 00804 10055 20019 30205 40246 55000 60001 333 91116
AAXX 01001 17128 12560 70903 11048 21079 39139 40289 53002 60001 87500 333 87620 91110
AAXX 01001 17170 11660 51504 11026 21074 38356 48528 53007 69921 70288 83250 333 83835 85357 91116
AAXX 31211 51087 32/59 90902 11164 21196 40416 57008 333 05303 92528
AAXX 31211 57853 31/55 90401 11011 21028 40388 57017 710// 333 70001
AAXX 01001 31707 42599 82602 11122 21234 30139 40235 52001 8657/ 333 21013 55066
AAXX 01001 36061 11596 80000 11209 21230 39944 40391 58004 69932 78582 86971 333 21222 47045 55000
AAXX 01001 57908 11/28 90704 11010 21013 40354 52016 69911 750// 333 00151 10042 21010 31001 70002
AAXX 01001 53567 31/55 91801 11158 21186 40465 52014 705// 333 00552 11037 21159
AAXX 01001 56693 11414 83401 11021 21029 38261 52010 60021 770// 88/// 333 00152 31001 70024 92500 93427
AAXX 01001 59213 32/57 90701 10056 20041 40343 52013 333 00002 10109 20036
AAXX 01001 54399 32/71 9//// 11125 21170 30353 40416 52010 333 05352 11028 21127
AAXX 01001 54076 31/24 92202 11202 21234 30006 40376 57006 710// 333 05703 11126 21238
AAXX 01001 57835 11/56 93201 11016 21029 40397 52011 69921 710// 333 00001 11003 21029 30000 70002 92505 93427
AAXX 01001 57825 11461 80402 11022 21047 40400 52014 69922 766// 88/// 333 00002 30002 70003 92505 93427
AAXX 01001 50548 32955 70202 11160 21271 40331 54000 87/// 333 06110
AAXX 01001 53991 32/61 93402 11066 21148 40415 52013 333 05252 10020 21097
AAXX 01001 50853 32961 72502 11199 21250 30075 40323 57005 87/// 333 06053 92502
AAXX 31121 58433 32/58 90000 10007 21012 30351 40393 57002
AAXX 01001 56962 11/65 92501 10103 20095 40238 52010 60011 754// 333 05101 10151 20090 70066
AAXX 31001 58713 11/43 90902 11001 21015 40381 52012 60031 760// 333 00151 10016 21004 30002 70057 92502
AAXX 01001 53950 32958 00000 11059 21137 40419 52001 333 00200 11011 21076
AAXX 31211 51087 32/59 90902 11164 21196 40416 57008 333 05303 92528
AAXX 31121 58117 32/60 90000 11028 21083 40408 52006
AAXX 31211 57853 31/55 90401 11011 21028 40388 57017 710// 333 70001
AAXX 31121 58013 31/57 90000 11023 21118 40413 52005 70500
AAXX 31061 53947 11/58 92004 11033 21127 40395 57020 69901 70070 333 00452 21072
AAXX 31181 51087 32/64 92201 11156 21197 39310 40426 57010 333 05206 11134 92528
AAXX 01001 20046 42998 22503 11267 21294 39922 49953 53001 81031
AAXX 01001 20069 11977 20505 11253 21271 39907 49927 53002 69922 70230 80001 333 21253 48010
AAXX 01001 20087 12/// /0303 11204 21226 39891 49902 54000 60002 333 21204
AAXX 01001 20292 11996 82309 11167 21183 39881 49898 54000 69932 77173 8802/ 333 21167 48007 91011 92982
AAXX 01001 20667 41392 83612 11104 21110 39746 49753 53016 77173 8872/ 333 86709 91015 91117
AAXX 01001 20674 11/93 91716 11170 21189 39789 49850 58026 69952 73932 333 21184 48074 91021 91122 92982
AAXX 01001 20744 41496 61405 11109 21115 39921 49939 52002 78583 85901 333 85915
AAXX 01001 20891 11598 72006 11145 21179 30003 40047 57006 69922 73683 8445/ 333 21179 47014 84629
AAXX 01001 21432 11598 82904 11172 21198 39877 49897 57008 69942 70272 885// 333 21216 48013
AAXX 01001 21824 11994 82211 11189 21203 30028 40037 53007 60002 73832 8807/ 333 21228 48003 91015 91122
AAXX 01001 21946 41395 82706 11191 21214 39930 40012 58014 77173 886// 333 55000 88708 91111
AAXX 01001 21982 41998 63309 11222 21261 39956 49985 58006 73631 86030 333 91010 91110
AAXX 01001 23022 41997 02707 11098 21132 39890 49956 51017 70230 333 91113
AAXX 01001 23205 41396 82305 11109 21126 30016 40030 58003 78583 889// 333 86709 91112
AAXX 01001 23405 41496 82304 11101 21114 39979 40082 57017 77171 8452/ 333 84618
AAXX 01001 25123 41998 21402 11310 21347 30009 40045 57010 70272 82070
AAXX 01001 25248 42999 00000 11353 21371 39564 40045 57016 333 55000 91101
AAXX 01001 25399 41422 83407 11202 21228 39815 49824 53015 78583 889// 333 91119
AAXX 01001 25551 41696 82601 11241 21266 39946 49979 57007 77172 82537 333 91103
AAXX 01001 25563 42999 73102 11333 21369 39843 49929 58009 86031 333 91105
AAXX 01001 25913 42699 70402 11173 21265 39920 40075 54001 83531 333 55036
AAXX 01001 32389 41992 31201 11283 21322 39985 40026 52003 74840 83030 333 21312 55038
AAXX 01001 32618 41598 63410 11069 21105 39916 49939 50003 73683 86900 333 21076 55015 91014 91114
AAXX 01001 21908 12999 02701 11178 21197 30017 40101 53014 60002 333 21178 47025
AAXX 01001 24982 42999 60000 11320 21353 39621 40176 57003 83031 333 55041
AAXX 01001 29789 12999 00000 11348 21359 39146 40513 57003 60002 333 21350 48008 55021
AAXX 01001 30028 12997 01802 11379 21409 39955 40475 50008 60002 333 21379 47027
AAXX 01001 30328 129// 00000 11394 21423 30037 40543 57010 60002 333 21394 47030 55048
AAXX 01001 30777 12998 22301 11357 21399 39730 40488 57003 60002 80002 333 21366 47008 55059
AAXX 01001 31152 42998 80000 11282 21307 39852 40297 52018 85036 333 21282 55000
AAXX 01001 31174 42999 10902 11218 21247 30185 40198 52015 80001 333 21232 55000
AAXX 01001 31624 42999 80000 11199 21244 39946 40214 52007 81039 333 21218
AAXX 01001 31683 42699 82701 11212 21238 30121 40201 52015 8253/ 333 21226
AAXX 01001 31832 42998 20902 11172 21223 30153 40245 57005 80002
AAXX 01001 35777 419// 00000 11183 21202 30008 40384 57008 71001
AAXX 01001 36087 12997 60901 11340 21368 39419 4//// 57009 60002 80002 333 21367 47008 55051
AAXX 01001 36096 11993 70801 11406 21433 39682 40616 57006 60002 74442 80002 333 21406 47009 55035
AAXX 01001 36103 11993 00000 11443 21470 39274 40620 57004 60002 74444 333 21443 47011 95090
AAXX 01001 36126 429// 02803 11164 21193 39781 40398 58001
AAXX 01001 36231 11599 80000 11221 21252 39325 40431 58009 69902 72681 8442/ 333 21247 47023
AAXX 01001 36259 12599 70101 11328 21364 38275 48571 55006 60002 84902 333 21335 47001 55016
AAXX 01001 36307 12997 01201 11435 21483 39093 48559 57005 60002 333 21440 47016
AAXX 01001 36335 429// 00000 11239 21277 39321 40450 58002
AAXX 01001 36358 429// 00000 11240 21272 39320 40444 52005
AAXX 01001 36622 415// 50304 11119 21143 39545 40394 57009 70282 83940
AAXX 01001 36744 429// 00702 11172 21178 39913 40400 53004 333 91103
AAXX 01001 36974 429// 80901 11215 21233 38030 48619 58011 80005
AAXX 01001 38091 429// 00902 11050 21104 39999 40342 57012
AAXX 01001 57825 11461 80402 11022 21047 40400 52014 69922 766// 88/// 333 00002 30002 70003 92505 93427
AAXX 01001 28786 41997 02303 11203 21224 30173 40345 58004 70270
AAXX 01001 42071 31993 00000 10056 20056 40201 71244 333 59026
AAXX 01001 42101 31995 00000 10060 20051 40203 71000 333 59014
AAXX 01001 42131 31993 00000 10040 20030 40213 74440 333 59020
AAXX 01001 42165 31995 00000 10104 20025 40188 70500 333 59011
AAXX 01001 42182 31993 00000 10054 20052 40199 71100 333 59017
AAXX 01001 42189 31992 00000 10060 20060 40196 74344 333 58009
AAXX 01001 42260 31902 04951 10046 20046 40209 74444 333 59009
AAXX 01001 42309 31996 00201 10076 20067 40216 71000 333 58008
AAXX 01001 42328 32996 00000 10104 20051 40181 333 59003
AAXX 01001 42339 31995 00000 10094 21007 40195 70500 333 59008
AAXX 01001 42379 31994 00000 10076 20049 40194 71000 333 58006
AAXX 01001 42571 31996 00000 10068 20030 40204 70500 333 59004
AAXX 01001 42591 31994 00000 10050 20036 40208 71000 333 58005
AAXX 01001 42623 31394 50000 10044 20039 39287 40217 71022 85600 333 59002 83708 84618
AAXX 01001 42701 31995 00000 10074 20044 39448 40215 70500 333 58004
AAXX 01001 42798 31994 00000 10084 20062 40202 71000 333 59004
AAXX 01001 43041 31996 00000 10076 20055 39563 40217 70500 333 58002
AAXX 01001 43086 31996 20000 10108 20088 30005 40193 70500 80001 333 58000
AAXX 01001 43110 31996 00902 10180 20092 40132 70044 333 58007
AAXX 01001 43314 32496 30000 10242 20233 40151 81501 333 58011
AAXX 01001 43333 31496 50000 10240 20225 40150 70511 84401 333 58003 82618 83820
AAXX 01001 44416 42956 00000 10035 20030 39403 40190 8//// 333 59006
AAXX 01001 44454 41430 20000 10016 20012 38704 48536 71000 82100 333 58007
AAXX 01001 44477 42956 02901 10060 20008 38861 48563 8//// 333 58005
AAXX 01001 91165 12766 60607 10267 20206 30121 40155 56027 69901 92353
AAXX 01001 91285 12566 80904 10250 20206 30134 40149 56013 60011 92353 333 10250 20200
AAXX 01001 91334 12474 84953 10294 20233 30102 40105 50005 69954 82171 333 20261 56999 58004 70005
AAXX 01001 91348 11474 80404 10292 20238 30052 40105 58005 69934 70282 83101 333 20267 561/9 58000 70003
AAXX 01001 91356 32566 80411 10296 20229 30081 40088 5//// 83177 333 20233 56199 58008 83821 88280
AAXX 01001 91376 11474 80805 10281 20230 30068 40071 58010 69934 70282 84878 333 20267 56229 58005 70003
AAXX 01001 91408 11474 80503 10273 20250 30073 40132 60014 72522 86271 333 20250 56199 58007 70013
AAXX 01001 91413 32469 70804 10294 20256 30103 40129 52010 83271 333 20265 56299 58000
AAXX 01001 91425 32474 63504 10294 20267 30104 40105 5//// 82206 333 20239 568/9 58001 82817 84080
AAXX 31121 58510 32/57 93603 10003 21013 40397 52007
AAXX 31091 53352 41656 73203 11164 21201 40478 52023 77077 87///
AAXX 01001 58443 11958 93402 10018 21006 40406 52018 69901 722// 333 05102 10028 21003 30021 79999
AAXX 01001 58529 31/20 90201 10013 20010 40394 52013 710// 333 00002 10024 21006 30012
AAXX 31001 58507 12669 80203 11017 21045 40409 52010 69902 88/// 333 00001 30000 70133 92512
AAXX 01001 58601 31/55 93601 10004 21014 40395 52009 710// 333 10011 20000 30000 70046
AAXX 31001 58560 11939 03401 11008 21012 40398 52011 60021 770// 333 05100 10020 21012 30000 70045 92502
AAXX 31121 58556 31525 80202 10014 20004 40390 57001 71050 88///
AAXX 31061 53352 11658 73604 11132 21175 40440 57005 69931 77077 87/// 333 21209
AAXX 31121 53420 32/71 90704 11127 21205 40448 52016
AAXX 01001 58438 31/57 90403 10003 21016 40403 52017 710// 333 00002 10013 21017 30005 92501
AAXX 01001 58606 32759 80202 10007 21020 30331 40393 52008 88/// 333 05102 30003 92502
AAXX 01001 20087 11598 80303 11204 21227 39891 49902 54000 60002 875// 333 21204 48021 87622 53006 7000/
AAXX 31031 57896 41658 83203 10015 21006 40386 57003 70060 88///
AAXX 31001 58462 11/38 93202 10002 21004 30392 40404 52013 60021 710// 333 05100 10030 21003 30000 70046 92503
AAXX 31061 57896 11660 83204 10024 21007 30195 40358 57028 69931 70060 88/// 333 21001
AAXX 01001 57749 11456 80401 11013 21024 40405 52013 60021 760// 88/// 333 00002 30002 70017 92509 93430
AAXX 31031 58626 31634 80201 10011 20011 40384 57008 71000 88///
AAXX 01001 57844 32/62 9//// 11020 21058 40395 52014 333 00001 11005 21031 30003 92501
AAXX 31121 53352 11658 60000 11191 21218 40502 52018 69911 77070 86/// 333 92501
AAXX 31061 58626 31656 83601 10017 20011 40360 57024 71000 88/// 333 21002
AAXX 31031 56196 41548 81402 10025 20018 40365 52011 76166 88///
AAXX 01001 58606 32759 80202 10007 21020 30331 40393 52008 88/// 333 05102 30003 92502
AAXX 31061 56196 11559 81402 10035 20006 40337 57025 69921 76066 88/// 333 00101 20020
AAXX 31091 57896 32658 83203 10020 21004 40370 52012 88///
AAXX 31121 57896 11426 82902 10009 20000 40384 52013 69901 76060 88///
AAXX 01001 41515 02695 20000 10017 21043 38617 48574 60002 82500 333 56900 58024 60007 82650
AAXX 01001 41560 22696 33602 11020 21128 38290 48526 60002 82330 333 58003 60007
AAXX 01001 41594 019// 52302 10065 20059 39972 40200 60002 71022 82031 333 56099 59035 60007
AAXX 01001 41598 01994 50000 10055 20043 39896 40182 60002 71020 85070 333 56090 59043 60007 85461
AAXX 01001 41620 32995 02702 10010 21068 38623 48520 60000 333 58005 60007
AAXX 01001 41624 01993 00000 10060 20048 30016 40228 60002 74240 333 58001 60007
AAXX 01001 41685 32993 53601 10085 21013 38949 48522 82520 333 56990 59018 82635 83460
AAXX 01001 41710 12996 30000 10135 21058 39378 40159 60002 83030 333 56090 59006 83361
AAXX 01001 41712 12996 00000 10090 20009 39236 48526 60002
AAXX 01001 41715 01995 00000 10100 20068 30136 40205 60002 70500 333 58005 60007
AAXX 01001 41718 01993 00000 10070 20059 30099 40207 60002 74442 333 59014 60007
AAXX 01001 41739 02996 20503 10075 21012 39091 48529 60002 82030 333 56090 58018 60007 82360
AAXX 01001 41744 12996 00000 10050 21030 38800 48514 60002 333 58006
AAXX 01001 41749 01993 00000 10075 20053 30189 40224 60002 71000 333 58022 60007
AAXX 01001 41756 01995 00000 10150 20113 30122 40190 60002 70400 333 58013 60007
AAXX 01001 41768 02996 00000 10070 20021 30190 40197 60002 333 58004 60007
AAXX 01001 41780 01996 00502 10155 20035 30177 40205 60002 70500 333 58009 60007
AAXX 01001 53478 12758 70901 11262 21290 40526 52015 69902 87/// 333 00354 70004 92501
AAXX 01001 40362 32960 01403 10106 20050 39720 40236 333 58037
AAXX 01001 40373 32960 00000 10082 20070 39831 40258 333 58057
AAXX 01001 40430 32960 00806 10166 21030 39454 40174 333 59003
AAXX 01001 40582 32960 /3502 10117 20094 40255 58002 333 00007 55300 00000 10233 20000 30000 41053 51286 60000 55407 40000 90467 91003 91109 91207 91303
AAXX 01001 40743 12960 00000 10033 20023 39091 40216 51004 60001
AAXX 01001 40745 11/00 90702 10009 20006 39062 40225 50002 60001 74742 333 89///
AAXX 01001 40747 12660 20000 11009 21029 38689 40260 53004 60001 82200 333 82840
AAXX 01001 40754 12960 02904 10072 21084 38863 40214 53002 60001
AAXX 01001 40766 12960 00000 11001 21029 38754 40265 51005 60001
AAXX 01001 40769 11958 00102 10010 21044 38338 40235 51003 60001 70500
AAXX 01001 40800 11958 00000 10006 21025 38508 40249 53014 60001 71000
AAXX 01001 40809 12960 01402 10012 20005 38532 40215 51002 69911
AAXX 01001 40821 12965 01201 10046 21007 38842 40248 53009 60001
AAXX 01001 40841 12960 02102 10005 21013 38295 40250 50003 60001
AAXX 01001 40848 11456 72902 10050 20041 38588 40257 53003 60001 71022 84770 333 81710 83635 87360
AAXX 01001 40856 12960 12003 10118 20037 38676 40173 53008 69901 81030 333 81360
AAXX 01001 40875 11958 00202 10141 20107 30200 40211 54000 60001 71000
AAXX 01001 40898 12960 00202 10207 20173 30195 40204 58001 60001
AAXX 01001 41024 32960 00503 10222 20140 30151 40160 333 59019
AAXX 01001 41114 32960 00000 10115 20070 38016 48549 333 58014
AAXX 01001 41128 32960 00102 10164 20060 38853 48562 333 58033
AAXX 01001 41140 31559 20000 10264 20230 30149 40152 71000 82400 333 58007 82630
AAXX 01001 41150 31560 23403 10205 20172 40220 70500 81500 333 58046 79999 81625
AAXX 01001 41194 11945 00803 10200 20167 30208 40212 60001 70500 333 58032 70000
AAXX 01001 41288 36/// /0904 10217 20162 30178 40200 333 03021 58010
AAXX 01001 41316 32560 53302 10226 20158 30158 40189 85530 333 58005 84630
AAXX 31091 56196 31657 83403 10034 20016 40351 52013 71060 88/// 333 00101
AAXX 01001 53478 12758 70901 11262 21290 40526 52015 69902 87/// 333 00354 70004 92501
AAXX 01001 57377 32/10 90205 11018 21077 40407 52005 333 00002 10033 21033 31031
AAXX 31001 57957 12672 80203 10002 21032 30157 40369 52015 69902 88/// 333 00001 31004 70028 93429
AAXX 31061 53420 32/70 93601 11072 21185 40387 57011 333 21146
AAXX 31001 58462 11/38 93202 10002 21004 40404 52013 60021 710// 333 05100 10030 21003 30000 70046 92503
AAXX 31091 50468 32980 62902 11139 21246 40332 57021 86///
AAXX 31121 56196 11058 83402 10030 20015 40376 52023 69901 72160 88/// 333 00201
AAXX 01001 56962 11/65 92501 10103 20095 40238 52010 60011 754// 333 05101 10151 20090 70066
AAXX 31121 53420 32/71 90704 11127 21205 40448 52016
AAXX 31121 57768 31/56 91102 11008 21018 40398 52015 71000 333 92504
AAXX 31061 58658 11/70 91801 10080 20018 30293 40338 57026 69901 70065 333 20033
AAXX 01001 55248 32980 01101 11226 21328 35955 52005 333 00253
AAXX 01001 57990 32/79 90201 10018 21004 40373 52012 333 00001 10040 20007 30034
AAXX 01001 55248 32980 01101 11226 21328 35955 52005 333 00253
AAXX 01001 42779 32996 00000 10090 20023 39486 40221 333 58003
AAXX 01001 42867 31995 00000 10070 20027 40216 70500 333 59001
AAXX 01001 40706 12662 53302 10008 21020 38682 40242 53011 60001 82470 333 82635 84359
AAXX 01001 40712 11658 22703 11028 21037 38702 40240 53014 60001 71000 82500 333 82635
AAXX 01001 40718 12560 70000 10090 20086 30257 40228 53011 60001 84520 333 84625 87458
AAXX 01001 40732 12960 00000 10070 20056 30232 40207 53003 60001
AAXX 01001 40736 12960 00000 10056 20051 30243 40218 53006 60001
AAXX 01001 40739 12965 00000 11012 21056 38708 40227 53001 60001
AAXX 01001 40782 12960 00000 10001 21004 38940 40270 52005 60001
AAXX 01001 41136 32960 00703 10175 20070 39357 40165 333 58025
AAXX 01001 41196 31950 01302 10157 20146 30174 40216 70500 333 58032
AAXX 01001 41256 32960 02202 10203 20174 30191 40209 333 58031
AAXX 01001 51186 32959 80000 11183 21208 40425 57009 88/// 333 05308 92525
AAXX 01001 50755 33/// 9////
AAXX 31001 58377 11/37 92702 11008 21015 30394 40403 52013 60022 710// 333 05151 10030 21009 30000 70022 92501
AAXX 31031 58626 32634 80201 10011 20011 40384 57008 88///
AAXX 31001 57699 11942 00902 11018 21024 40401 52013 69972 710// 333 00000 11009 21024 30005 70099 92507
AAXX 01001 58555 31932 93603 10018 20003 40395 52019 710// 333 05102 10018 21002 30018 79999
AAXX 01001 51186 32959 80000 11183 21208 40425 57009 88/// 333 05308 92525
AAXX 31121 58625 32/57 90701 10021 20017 40382 52002
AAXX 31001 55248 32980 01402 11198 21308 35940 52004 333 05204
AAXX 01001 57023 31/28 90000 11115 21137 40429 54000 710// 333 00256 11003 21115
AAXX 01001 51711 31736 70000 11171 21193 38040 57008 710// 87/// 333 05253 79999
AAXX 31061 58420 12/57 90203 10003 21027 40380 57026 69901 333 21033
AAXX 31061 58314 12662 82902 10002 21044 30275 40389 57022 69901 88/// 333 21040
AAXX 31061 58626 32656 83601 10017 20011 40360 57024 88/// 333 21002
AAXX 31121 58609 12/44 90203 10007 21006 40391 52005 69921 333 92501
AAXX 01001 57377 32/60 90205 11018 21077 40407 52005 333 00002 10033 21033 31031
AAXX 01001 51711 31736 70000 11171 21193 38040 57008 710// 87/// 333 05253 79999
AAXX 31031 58626 31634 80201 10011 20011 40384 57008 71000 88///
AAXX 31001 58626 11624 80202 10003 20003 40392 52012 60031 710// 88/// 333 00152 31001 70077 92502
AAXX 31121 54503 32/59 93401 11060 21183 52007
AAXX 31121 54503 32/59 93401 11060 21183 40423 52007
AAXX 31061 58420 12/57 90203 10003 21027 40380 57026 69901 333 21033
AAXX 01001 71043 12983 71204 11132 21166 39857 49951 58040 60001 87071 333 11127 21173 70000 93100
AAXX 01001 71072 15966 03404 11167 21208 39980 40237 52016 60001 333 11093 21167 70000
AAXX 01001 71078 15966 02903 11288 21317 39851 40334 57001 60001 333 11265 21314 70000
AAXX 01001 71624 11259 80905 10025 20010 39851 40063 58063 60051 76122 887// 333 10037 21025 70046 90962
AAXX 01001 71848 16/// /1803 11171 21188 60001 333 11107 21212 70004
AAXX 01001 71877 12986 11704 11115 21166 38947 40293 58014 60001 80001 333 11080 21147 70003
AAXX 01001 71917 11962 81410 11222 21250 30125 40140 56011 69901 77177 8807/ 333 11222 21302 48009 79999 90973
AAXX 01001 71940 12882 83202 11136 21162 39376 40221 57030 60001 8807/ 333 11136 21247 70000 93100
AAXX 01001 72206 32666 22202 10194 20178 30191 40201 53011 92356 333 10272 20194
AAXX 01001 72208 12366 81904 10194 20189 30184 40198 53005 69901 92356 333 10211 20161
AAXX 01001 72211 32766 21903 10228 20183 30189 40203 51009 92353 333 10283 20200
AAXX 01001 72231 11566 82602 10206 20189 30149 40158 51022 69981 761// 92353 333 10256 20206
AAXX 01001 72248 32966 80000 10106 20072 30043 40137 53028 92356 333 10150 20094
AAXX 01001 72250 32966 00000 10144 20111 30156 40159 53024 92353 333 10178 20094
AAXX 01001 72259 32966 63003 10139 20028 39918 40123 53039 92353 333 10161 20033
AAXX 01001 72265 32966 00000 10128 21050 39124 40114 53017 92353 333 10156 20028
AAXX 01001 72270 32466 22402 10111 21100 38753 40084 55003 92351 333 10117 20011
AAXX 01001 72274 32766 82105 10117 20000 39194 40088 50002 92353 333 10122 20022 91019
AAXX 01001 72290 12566 62304 10150 20083 30093 40107 53002 69931 92351 333 10161 20139
AAXX 01001 72326 11766 82014 10211 20117 39761 40111 58001 69931 761// 92353 333 10228 20089 91039
AAXX 01001 72353 32566 83511 10050 20017 39682 40146 53054 92352 333 10106 20017 91024
AAXX 01001 72363 32366 83610 11033 21056 38913 40184 53047 92353 333 10078 21033 91024
AAXX 01001 72365 32566 83603 11028 21061 38310 40137 53005 92352 333 10000 21106
AAXX 01001 72386 32766 40308 10089 21150 39381 40122 53008 92356 333 10100 20056
AAXX 01001 72405 11256 80000 10089 20078 30144 40165 56028 60081 761// 92352 333 10094 20056 96010
AAXX 01001 72440 12566 82803 10067 20033 39663 40127 53048 69901 92352 333 10078 20050
AAXX 01001 72451 15566 83609 11067 21111 39260 40201 51043 69901 92352 333 10000 21067 91031
AAXX 01001 72494 32966 23508 10122 21017 30134 40165 52010 92356 333 10128 20072 91025
AAXX 01001 72532 11261 83104 10033 20022 39808 40055 53053 60041 761// 92354 333 10044 20028
AAXX 01001 72537 11112 80702 10044 20033 39760 49993 55054 60171 761// 92353 333 10044 20006 96010
AAXX 01001 72597 32966 00000 10033 21011 39782 40263 58001 92353
AAXX 01001 72654 152// 83513 11183 21217 39812 40307 51049 60011 92355 333 11094 21189 91034
AAXX 01001 57845 11746 83603 11009 21022 40382 52007 69941 760// 88/// 333 05101 30007 70005 92503 93427
AAXX 01001 71120 12774 21403 11203 21241 39606 40311 57022 60001 82500 333 11175 21323 70000
AAXX 01001 71627 12974 80306 11032 21051 30124 40169 57037 60001 86078 333 11021 21085 79999 93100
AAXX 01001 71803 12580 12806 11128 21161 30004 40198 51003 60001 81500 333 11094 21129 48046 70014 93100
AAXX 01001 71816 12974 02503 11274 21314 30187 40254 58005 60001 333 11197 21295 70000
AAXX 01001 71821 17/// /3404 11146 21168 39818 40177 58004 69981 7//4/ 333 11075 21146 70009
AAXX 01001 71867 15966 02604 11259 21293 39995 40362 52003 60001 333 11230 21308 70000
AAXX 01001 71896 15766 81906 11042 21081 39431 40293 57017 60001 333 11042 21196 7////
AAXX 01001 71915 11669 83504 11203 21235 30005 40088 50003 69901 77177 885// 333 11173 48037 7//// 90973 93100
AAXX 01001 71918 45/// /3410 11254 39716 40152 56006 6///1 333 11234 21263 7////
AAXX 01001 71924 11974 01306 11233 21265 30062 40155 57016 69901 77677 80/// 333 11222 21296 44022 79999 90973 93100
AAXX 01001 71925 12974 71404 11257 21301 30098 40141 57028 60001 87070 333 11256 21353 79999 93100
AAXX 01001 71926 11974 03014 11260 21323 30193 40218 55005 69901 77677 80000 333 11246 21312 45018 79999 90973
AAXX 01001 71934 12974 21405 11247 21275 39939 40216 58040 60001 82001 333 11245 21355 48021 70000 93100
AAXX 01001 71938 11966 12110 11155 21186 30018 40049 58030 60001 73711 80005 333 11132 21236 79999 93100
AAXX 01001 71945 12983 81401 11151 21171 39631 40118 57035 60001 84071 333 11138 21225 70000
AAXX 01001 72226 11458 81808 10217 20200 30083 40156 53015 69951 761// 92353 333 10250 20194 91020 96010
AAXX 01001 72308 12566 61904 10156 20144 30165 40183 56001 69931 92351 333 10156 20083
AAXX 01001 72334 12466 62302 10117 20106 30032 40135 53035 60021 92354 333 10211 20117
AAXX 01001 72374 17240 81304 11022 21033 38422 40094 51005 60041 771// 92356 333 10017 21022 96010
AAXX 01001 72476 12966 00000 11083 21111 38487 40150 51016 60021 92353 333 11044 21089
AAXX 01001 72486 15766 63509 11089 21133 38045 40186 53016 69901 92353 333 11056 21117
AAXX 01001 72488 32766 40506 10006 21122 38677 40210 52013 92355 333 10028 21039
AAXX 01001 72520 11659 81802 10094 20094 39641 40076 56018 60091 761// 92351 333 10094 20000 96010
AAXX 01001 72547 12264 80105 10000 21011 39677 40072 51022 60081 92353 333 10011 21005
AAXX 01001 72562 15766 80211 11122 21172 39227 40246 51030 69901 92353 333 10022 21122 91036
AAXX 01001 72645 11316 83607 11006 21017 39835 40086 51024 60071 773// 92353 333 10000 21039 96010
AAXX 01001 72662 35966 83608 11144 21172 39155 40349 53020 92352 333 11128 21144
AAXX 01001 72681 32966 03305 10011 21111 39205 40241 53010 92353 333 10028 21038
AAXX 01001 72764 32966 03206 11200 21244 39723 40373 51014 92352 333 11167 21211
AAXX 01001 72773 32966 03402 11106 21167 39147 40336 58001 92353 333 11061 21106
AAXX 01001 72793 32966 43402 10044 21006 30156 40331 53006 92353 333 10061 20011
AAXX 01001 70231 17556 82007 10017 20000 39767 49894 51068 60041 771// 92353 333 10022 21049 91026 96010
AAXX 01001 70261 32866 60000 11044 21072 39721 49894 53033 92353 333 10000 21078
AAXX 01001 70316 11361 81406 10022 20011 39742 49776 58016 60021 761// 92353 333 10044 20022
AAXX 01001 70350 32566 41604 10044 20000 39919 49961 58016 92353 333 10056 20028
AAXX 01001 70361 17556 82403 10067 20050 30060 40071 51016 60061 710// 92353 333 10078 20017
AAXX 01001 71051 16/// ///// 11182 21200 60001 333 11126 21213 70000
AAXX 01001 71090 17507 83312 11211 21230 30102 40139 57023 69901 772// 333 11211 21233 70009
AAXX 01001 71145 12974 02604 11272 21307 39996 40318 52006 60001 80000 333 11260 21341 70000 93100
AAXX 01001 71603 12574 81804 10006 21022 30227 40282 58002 60001 885// 333 10010 21108 70000
AAXX 01001 71709 11574 43005 11061 21123 30255 40269 53003 69901 78581 84100 333 11048 42002 70002 90936 93100
AAXX 01001 71825 15766 82203 11207 21236 39507 40233 57015 60001 333 11198 21393 70000
AAXX 01001 72394 32666 20406 10144 21011 30036 40127 53006 92351 333 10161 20039
AAXX 01001 78897 14982 /0503 10239 20200 40178 53010 60001 700// 333 10283 20196 59003 70002
AAXX 01001 78925 14586 /0904 10246 20192 40169 53013 60001 700// 333 10286 20245 58000 79999
AAXX 01001 57845 11746 83603 11009 21022 40382 52007 69941 760// 88/// 333 05101 30007 70005 92503 93427
AAXX 31061 58626 31656 83601 10017 20011 40360 57024 71000 88/// 333 21002
AAXX 31121 58623 31/46 90901 10019 20007 30223 40380 52002 71000
AAXX 31181 58626 31/41 93602 10017 20017 40382 57002 71000 333 10019
AAXX 31151 58626 31/56 93401 10018 20018 40385 52003 710//
AAXX 31031 58626 31634 80201 10011 20011 40384 57008 71000 88///
AAXX 31001 51145 11/18 93201 11083 21098 39716 40390 52005 60021 770// 333 00909 11057 21186 31026 70040 92524
AAXX 31121 58626 32633 83401 10017 20017 40382 52002 88///
AAXX 31091 58626 32650 83403 10017 20017 40380 52020 88///
AAXX 01001 58508 11/44 90000 10000 21017 40400 52008 69912 710// 333 05102 10015 21017 30006 70001
AAXX 01001 43369 32596 10000 10244 20236 40137 81500 333 58005 81620
AAXX 01001 76225 32960 01802 10170 21036 38552 40052 52003 92350 333 10195 21010 30/// 50331 58014 70000
AAXX 01001 76342 31962 11001 10198 20062 39444 40148 52008 70210 80001 92350 333 10222 20047 30/// 50101 56006 58022 70000 81062
AAXX 01001 76382 32480 20000 10174 20072 38862 40117 53001 82500 92350 333 10198 20036 30/// 50231 56100 58035 70000 82614
AAXX 01001 76458 32970 03101 10224 20115 30111 40116 57003 92348 333 10268 20116 30/// 50381 59026 70000
AAXX 01001 76548 32470 80502 10180 20141 30150 40160 53019 88400 92340 333 10220 20148 31/// 50211 56200 58009 70000 88613
AAXX 01001 76556 32965 81702 10201 20172 39096 40113 52004 8802/ 92349 333 10228 20113 30/// 50521 56079 59016 70000 88460
AAXX 01001 76581 32972 70000 10228 20160 39017 40106 52005 87030 92350 333 10240 20145 30/// 50231 56040 58/// 70000 87359
AAXX 01001 76644 31850 21202 10297 20229 30126 40139 52021 70100 82030 92355 333 10337 20215 30/// 50471 56090 58006 70000 82358 91007 91512
AAXX 01001 76680 31850 31403 10204 20130 37732 40061 56011 70440 81054 92350 333 10245 20095 30/// 5//// 56500 58008 70000 81358
AAXX 01001 76695 32956 03501 10276 20243 30121 40127 52018 92350 333 10342 20202 30/// 50471 58005 70000
AAXX 01001 76845 32260 40401 10170 20158 37934 40118 51014 84600 92352 333 10248 20072 30/// 50361 56200 59001 70000 84705
AAXX 01001 78384 12470 10706 10265 20240 40163 60001 81100 333 10301 20246 58004 70000 81818
AAXX 01001 78397 11578 11107 10285 20202 30149 40154 60001 70500 81800 333 10311 20224 59003 81822
AAXX 01001 78486 21466 70101 10238 20210 40192 52016 70262 86870 333 10285 20222 31/// 56000 58004 69917 86614 84457
AAXX 01001 78526 32566 20906 10250 20206 30166 40189 51013 92356 333 10283 20239
AAXX 01001 78762 32970 00808 10223 20135 39097 40081 52014 333 10280 20183 30/// 59008
AAXX 01001 78988 01468 11007 10257 20198 30130 40141 52005 60001 70511 81100 333 10306 20241 59002 60007 81819
AAXX 01001 80022 01962 00204 10259 20224 30061 40063 60001 70500 333 10312 59006 60007
AAXX 01001 81405 04568 /0601 10238 20219 30124 40133 60001 700// 333 10298 60007 58006
AAXX 01001 43369 32540 10000 10244 20236 40137 81500 333 58005 81620
AAXX 01001 70133 11556 80911 11044 21061 39750 49755 50002 60011 710// 92353 333 11044 21078
AAXX 01001 70219 32466 81607 10006 21006 39797 49852 51016 92353 333 10017 21022
AAXX 01001 70381 11556 81110 10039 20028 30102 40113 55002 60151 761// 92353 333 10039 20028 91028 96010
AAXX 01001 71918 45/// /3410 11254 39716 40152 56006 6///1 333 11234 21263 7////
AAXX 01001 72203 32566 21604 10233 20217 30206 40211 51007 92353 333 10272 20228
AAXX 31061 58623 31/43 90902 10018 20006 40360 57022 71000 333 21007
AAXX 31031 58626 31634 80201 10011 20011 40384 57008 71000 88///
AAXX 01001 57860 11430 83601 11016 21029 40395 52009 69931 760// 88/// 333 00001 10003 21022 30004 70003 92502 93427
AAXX 31121 58509 32/58 93603 10004 21021 40399 52007 333 92506
AAXX 31121 58432 31/48 90201 11002 21013 30318 40394 57001 71000
AAXX 31061 58626 32656 83601 10017 20011 40360 57024 88/// 333 21002
AAXX 31001 58749 11/39 90204 10018 20014 39518 40358 52007 60021 760// 333 05101 10026 20013 30019 70030
AAXX 01001 57749 11456 80401 11013 21024 30073 40405 52013 60021 760// 88/// 333 00002 30002 70017 92509 93430
AAXX 31211 51526 31/57 92903 11203 21250 40440 57004 705// 333 05153
AAXX 31211 51526 31/57 92903 11203 21250 40440 57004 705// 333 05153
AAXX 01001 58419 11538 83603 11001 21012 30252 40402 52013 69902 710// 88/// 333 05102 30004 70006 92501
AAXX 01001 58508 11/44 90000 10000 21017 40400 52008 69912 710// 333 05102 10015 21017 30006 70001 92507
AAXX 01001 56978 11/11 90202 10078 20077 38420 52007 60011 750// 333 00051 10126 20077 70063
AAXX 31001 57720 32/59 90401 11028 21045 40388 52004 333 05101 10003 21034 30000 92501
AAXX 01001 57720 32/65 90401 11017 21042 40392 52008 333 00001 11011 21028 31001 92500
AAXX 01001 58419 11538 83603 11001 21012 40402 52013 69902 710// 88/// 333 05102 30004 70006 92501
AAXX 31001 59033 11/56 90402 11014 21034 40368 52014 69902 710// 333 00151 11001 21022 31013 70023
AAXX 01001 57868 11/79 93401 11002 21038 40395 52008 69902 750// 333 00000 10017 21005 30001 79999
AAXX 01001 51357 11/18 90000 11136 21168 40411 57005 69902 770// 333 05402 11132 21164 70023 92519
AAXX 31121 59033 31/55 90401 10012 21012 39898 40358 52013 71000
AAXX 31121 57942 32/58 93203 10011 21013 30018 40360 52010
AAXX 31061 57822 11/61 90902 11021 21049 40382 57032 69901 70070 333 21050 92506
AAXX 31121 56986 11168 80000 10054 20054 40287 52012 60051 72165 88/// 333 00000
AAXX 01001 58433 31/37 90201 10008 21001 40407 52019 710// 333 05102 10009 21014 30014
AAXX 31121 57822 31/42 90901 11029 21039 39367 40408 52017 71000